Name,Type,Subtype,Latitude,Longitude,Arabic Name,Address,Phone,Website,Hours,Brand
Crowne Plaza Riyadh Palace,tourism,hotel,24.6646109,46.7117319,,Prince Abdul Rahman Bin Abdul Aziz St.,+966 114-054-444,https://www.ihg.com/crowneplaza/hotels/us/en/riyadh/ruhrp/hoteldetail,,IHG
Four Seasons Hotel,tourism,hotel,24.711037,46.6733604,,,,,,
Sulaimaniah Hotel,tourism,hotel,24.7114349,46.6950791,,,,,,
Abha Palace,tourism,hotel,24.6913718,46.718978,,,,,,
Al Mutlaq Hotel,tourism,hotel,24.7000812,46.7181402,,,,,,
Unnamed,tourism,hotel,24.69056,46.724299,,,,,,
Boudl Furnished Apartments,tourism,hotel,24.6800004,46.692879,,,,,,
Unnamed,tourism,hotel,24.6794233,46.6931047,,,,,,
Unnamed,tourism,motel,24.7096248,46.6914546,,,,,,
الرفيعة للوحدات السكنية,tourism,motel,24.7298755,46.7904803,,,,,,
Sakr al Jazeera Aviation Museum,tourism,museum,24.754052,46.7402015,,,,,,
Madareem Crown Hotel,tourism,hotel,24.8013802,46.7167757,,,,,,
فندق موفنبيك قاسم,tourism,hotel,24.6393,46.6864,فندق موفنبيك قاسم,,,,,
وادي البطحاء,tourism,information,24.666667,46.7,وادي البطحاء,,,,,
فندق مريوت رياض,tourism,hotel,24.647,46.714,فندق مريوت رياض,,,,,
Unnamed,tourism,museum,24.8359038,46.966278,,,,,,
Arts Tower - برج الفنون,tourism,artwork,24.7610753,46.6017635,,,,https://sportsboulevard.sa,,
Alwaha Palace,tourism,hotel,24.680951,46.6892488,,,,,,
Almuthana,tourism,hotel,24.6929408,46.6826316,,,,,,
"Tulip Inn, Olaya House",tourism,hotel,24.6850832,46.6888007,,,,,,
Neeyaara Hotel,tourism,hotel,24.6635542,46.7302511,,,,,,
"Intercontinental Hotel, Riyadh",tourism,hotel,24.6671024,46.6913095,,,,,,InterContinental
Novotel Suite Riyadh Olaya,tourism,hotel,24.6844763,46.6900921,,,,http://www.suitenovotel.com/gb/hotel-9048-suite-novotel-riyadh-olaya,,Novotel
Rest Inn Suites,tourism,hotel,24.6913424,46.7034161,,,,http://www.rest-inn.com/,,
فندق هولدي ان الازدهار,tourism,hotel,24.7870357,46.7117383,,,,,,
فندق هولدي ان الازدهار,tourism,hotel,24.7877545,46.7137384,,,,,,
Royal Hotel,tourism,hotel,24.734302,46.6650513,,Olaya Street,,,,
Marriott Courtyard Riyadh Diplomatic Quarter,tourism,hotel,24.6663655,46.6234488,,,,,,
Unnamed,tourism,information,24.8506087,46.7315896,,,,,,
Unnamed,tourism,information,24.8492399,46.7310432,,,,,,
Unnamed,tourism,information,24.8457056,46.7310321,,,,,,
Unnamed,tourism,information,24.8380291,46.7275514,,,,,,
Unnamed,tourism,information,24.8363086,46.7272743,,,,,,
Arizona Ranch Resort,tourism,artwork,24.8132163,46.7297038,,,,,,
Unnamed,tourism,information,24.8784956,46.723404,,,,,,
Unnamed,tourism,artwork,24.8189173,46.705167,,,,,,
Reception,tourism,information,24.7505681,46.7258679,,,,,,
Reception,tourism,information,24.7519748,46.7260839,,,,,,
Press Room,tourism,information,24.7509721,46.7255213,,,,,,
Business Center,tourism,information,24.7509545,46.7256603,,,,,,
Unnamed,tourism,artwork,24.8716924,46.5629689,,,,,,
Unnamed,tourism,information,24.8547579,46.551251,,,,,,
Unnamed,tourism,information,24.885971,46.5354017,,,,,,
Unnamed,tourism,artwork,24.9394084,46.4711762,,,,,,
Unnamed,tourism,artwork,24.9392675,46.4716156,,,,,,
Unnamed,tourism,information,24.8458918,46.5510286,,,,,,
Reception,tourism,information,24.6885319,46.6188121,,,,,,
Accomodation Reception,tourism,information,24.6888885,46.6198058,,,,,,
Banquet Reception,tourism,information,24.6891054,46.6194571,,,,,,
Unnamed,tourism,information,25.0150608,46.5918213,,,,,,
Unnamed,tourism,artwork,24.7887573,46.42548,,,,,,
Unnamed,tourism,information,24.5773383,46.6903783,,,,,,
Unnamed,tourism,information,24.5777542,46.6902787,,,,,,
Holiday Inn Meydan,tourism,hotel,24.6785701,46.6915593,,,,,,Holiday Inn
Vivienda Hotel Villas - Granada,tourism,hotel,24.7890376,46.7270668,,,+966 11 511 8000,,,
سباركيز,tourism,theme_park,24.7670917,46.717614,,,,,,
Unnamed,tourism,hotel,24.809006,46.7786325,,,,,,
أجنحة اسوار الفندقية-قرطبة,tourism,hotel,24.7959958,46.7288965,,,,,,
BEST WESTERN PLUS Riyadh Hotel,tourism,hotel,24.6796137,46.7020892,,Abdulaziz Bin Musa'ed Bin Jalawi St. 63987,,,,Best Western Plus
Menaa Suites,tourism,hotel,24.7974076,46.627504,,Al Omra,+966114543676;+966509040313,,,
Unnamed,tourism,hotel,24.7054186,46.6770675,,,,,,
Unnamed,tourism,information,24.6491194,46.7066601,,,,,,
Unnamed,tourism,information,24.6494576,46.7071998,,,,,,
Unnamed,tourism,information,24.6514907,46.7067408,,,,,,
K.K.I.A Camp,tourism,hostel,24.9202274,46.6836988,,K.K.I.A,,,,
قاعة درة المملكة للاحتفالات,tourism,artwork,24.8106535,46.8063223,,,,,,
المصيف هاوس,tourism,hotel,24.7756656,46.6838796,,,0112250834,,,
yarmuk hotel,tourism,hotel,24.8051624,46.7933573,,,,,,
فندق عبدالله عبدالعزيز الراجحي,tourism,hotel,24.637134,46.717119,,شارع عبد العزيز بن مساعد بن جلوي,,,,
شقق مفروشة,tourism,apartment,24.804595,46.7937462,,,,,,
sep,tourism,artwork,24.5549906,46.8730283,,,,,,
al remal,tourism,artwork,24.83354,46.8113983,,,,,,
work,tourism,artwork,24.6929648,46.6957569,,,,,,
mansour orkida اوركيدا منصور,tourism,hotel,24.6995086,46.7184348,,,,,,
Al Bayan Holding,tourism,artwork,24.8154482,46.7698174,,,,,,
Unnamed,tourism,hotel,24.8286258,46.800141,,,,,,
Unnamed,tourism,artwork,24.8295583,46.7944068,,,,,,
Sheraton 4 Points,tourism,hotel,24.637475,46.7121692,,,,,,
Unnamed,tourism,artwork,24.8796083,46.8319827,,,,,,
work,tourism,artwork,24.6992317,46.7035071,,,,,,
شركة صرح التقنية للمقاولات,tourism,artwork,24.7383629,46.6659902,,,,,,
Bazy Trading,tourism,artwork,24.6605671,46.7409746,,,,,,
مكتب المعجل للعقارات,tourism,information,24.7647337,46.7131192,,wadi alshoki street,0550067498,,"Sa-Th 10:00-12:00, 16:00-22:00",
Riyadh batha,tourism,artwork,24.56903,46.8817746,,,,,,
Riyadh sipchem,tourism,artwork,24.5735989,46.8765686,,,,,,
Metal workshop,tourism,artwork,24.70076,46.8530235,,,,,,
شقق روفان,tourism,hotel,24.7945489,46.7349892,,Abi Al Hasan Bin Al Anther,,,,
Unnamed,tourism,hotel,24.7850797,46.8225774,,,,,,
شاليهات رانسي,tourism,chalet,24.5514171,46.5963978,,,,,,
عطلات الغازي للسياحة و السفريات,tourism,artwork,24.6513135,46.7062662,,,,,,
Zahran Mentinanc .co,tourism,hostel,24.6827388,46.7105548,,,,,,
Brezeen hotel,tourism,hotel,24.6989595,46.6400414,,,,,,
حديقة الحيوانات,tourism,zoo,24.6768038,46.7373,,,,,,
Sumeasi,tourism,artwork,24.6447844,46.6882708,,,,,,
درر السحاب للشقق المفروشة,tourism,hotel,24.7646729,46.7658571,درر السحاب للشقق المفروشة,,+96611 248 6363,,24/7,
المكتب. هيف,tourism,artwork,24.6785565,46.686305,,طريق الملك فهد,,,,
Rest Night AL-Nafal,tourism,hotel,24.7827876,46.6728308,,,,,,
Macsoora,tourism,hotel,24.7921793,46.7011852,,,,,,
شقق البارقة,tourism,hotel,24.6119879,46.7544241,شقق البارقة,mohammad ibn shuail,,,24/7,
Rand,tourism,hotel,24.6980344,46.6679956,,,,,,
فندق الضيافة بالرياض,tourism,hotel,24.6845103,46.703761,,,,,,
aljajirah,tourism,artwork,24.680433,46.7933634,aljajirah,,,,,
Unnamed,tourism,hotel,24.7656278,46.7389475,,,,,,
وسن للشقق الفندقية,tourism,hotel,24.6140203,46.7563681,وسن للشقق الفندقية,,,,,
work house,tourism,artwork,24.7694471,46.813746,,,,,,
فندق نزل المها,tourism,hotel,24.5661033,46.7903372,فندق نزل المها,Al-'Aziziah Road,,,,
الابل,tourism,chalet,24.9174491,46.4930482,الابل,,,,,
Alfanar housing f11,tourism,hotel,24.7046188,46.7741137,Alfanar housing f11,Al Tall St. 37,,,,
ارياف العارض,tourism,chalet,24.9724952,46.5741647,,,0583071333,,24/7,
أرياف العارض,tourism,chalet,24.97148,46.5753211,,,0583071333,,24/7,
Arbic,tourism,artwork,24.8041415,46.7788855,,,,,,
Unnamed,tourism,artwork,24.8041,46.779445,,,,,,
Unnamed,tourism,artwork,24.805295,46.7814017,,,,,,
Unnamed,tourism,artwork,24.80456,46.7795217,,,,,,
رمادي,tourism,hotel,24.7986113,46.8084917,,ichebilya,,,24/7,
Unnamed,tourism,artwork,24.8031092,46.7796667,,,,,,
Unnamed,tourism,artwork,24.8034906,46.7795809,,,,,,
Unnamed,tourism,artwork,24.803851,46.7793345,,,,,,
Unnamed,tourism,artwork,24.8037577,46.7796043,,,,,,
فله,tourism,chalet,24.5163448,46.7301001,فله,,,,,
فندق التنفيذيين,tourism,hotel,24.774335,46.6397206,فندق التنفيذيين,,,,,
مطار الرياض,tourism,hotel,24.9419004,46.7108868,مطار الرياض,,,,,
"Executive hotel, Riyadh",tourism,hotel,24.7148858,46.6698492,"Executive hotel, Riyadh",,,,,
الادارة hr,tourism,artwork,24.7718512,46.7103526,الادارة hr,,,,,
وادي خنيفه,tourism,artwork,24.6564111,46.6064839,وادي خنيفه,,,,,
My room,tourism,hotel,24.807553,46.6680251,My room,,,,,
Mena Hotel,tourism,hotel,24.6851693,46.6881375,,,,,,
House Cris,tourism,hotel,24.6840844,46.7141427,House Cris,,,,,
Unnamed,tourism,artwork,24.681561,46.6965606,,,,,,
الخالدية للوحدات السكنية المفروشة,tourism,hotel,24.7535124,46.7436554,الخالدية للوحدات السكنية المفروشة,,,,,
قرية الملقا,tourism,information,24.8093141,46.6132406,,شارع أنس بن مالك حي ملقا,,,,
Unnamed,tourism,hotel,24.8093309,46.6132095,,,,,,
Al Muhaidb Tahaliya Hotel,tourism,hotel,24.6944085,46.6831536,Al Muhaidb Tahaliya Hotel,,,,,
Estiraha Zahid,tourism,chalet,24.7677127,46.8349629,,Ibnul-Haitham,,,,
مكتب النقش المميز,tourism,artwork,24.7515471,46.640246,مكتب النقش المميز,,,,,
وادي حنيفة,tourism,artwork,24.6130433,46.6938599,وادي حنيفة,,,,,
شقق الضيافة,tourism,apartment,24.7043791,46.6781684,شقق الضيافة,,,,,
Unnamed,tourism,chalet,24.8252811,46.7624873,,Mohamed Al Barqi,,,,
توبال للشقق الفندقيه,tourism,hotel,24.6877928,46.7196117,,,,,,
شاليهات القصر,tourism,chalet,24.9210198,46.8064362,شاليهات القصر,,,,,
Unnamed,tourism,artwork,24.797004,46.7809458,,,,,,
منتجع وشاليهات رؤى,tourism,chalet,24.414404,46.6067511,منتجع وشاليهات رؤى,,,,,
Unnamed,tourism,information,24.9611111,46.7025304,,,,,,
Unnamed,tourism,information,24.9637943,46.7008613,,,,,,
منتزه المناخ,tourism,information,24.6196052,46.7717857,,الدائري,,,24/7,
Abana workshop,tourism,artwork,24.5742935,46.8102772,,,,,,
Yardvilla,tourism,hotel,24.6630482,46.6807527,,,,,,
الوسام,tourism,hotel,24.7537763,46.7444292,,,,,,
دار ليند,tourism,hotel,24.7990586,46.7966725,,,,,,
شقق دانة دالين المفروشة,tourism,hotel,24.7986279,46.7969192,,,,,,
Sama AlQasr hotel apartments سما القصر شقق فندقية,tourism,hotel,24.6756905,46.6636955,,,0112814540,,,
فندق مراحل بالرياض,tourism,hotel,24.6883593,46.8428737,فندق مراحل بالرياض,,,,,
سويس بلهوتيل روية,tourism,hotel,24.5477327,46.8823879,سويس بلهوتيل روية,,,,,
Building No 17 Al Aqeel Aprtment,tourism,information,24.674219,46.7460026,,,,,,
Unnamed,tourism,information,24.9715303,46.6131865,,,,,,
Unnamed,tourism,apartment,24.7336859,46.8082685,,,,,,
Unnamed,tourism,apartment,24.7337467,46.8082227,,,,,,
دار الرياض,tourism,artwork,24.7106232,46.694056,,,,,,
Pai vhugs,tourism,apartment,24.7649816,46.7981967,,,,,,
Unnamed,tourism,apartment,24.7739801,46.7917756,,,,,,
ا عوض عبدالحميد,tourism,hotel,24.7739551,46.7919133,,,,,,
درر رامه للوحدات السكنية فرع 9,tourism,hotel,24.711304,46.7027465,,"Al Sulaimaniah District, King Abdel Aziz Road",,,,Drr Ramah9
درر رامه للوحدات السكنية فرع 2,tourism,hotel,24.7654594,46.6684649,,شارع الامير عبدالمحسن بن جلوي,,,,Drr Ramah 2
درر رامه للوحدات السكنية فرع 7,tourism,hotel,24.7652516,46.6690432,,شارع الامير عبدالمحسن بن جلوي,,,,درر رامه 7
درر رامه للوحدات السكنية فرع1,tourism,hotel,24.7523951,46.6700347,,عروة بن الورد,,,,
درر رامه للوحدات السكنية فرع 5,tourism,hotel,24.7526021,46.669893,,عروة بن الورد,,,,درر رامه المروج 5
درر رامه للوحدات السكنية فرع 6,tourism,hotel,24.7528287,46.6697482,,عروة بن الورد,,,,درر رامه المروج 6
Ibis Olaya,tourism,hotel,24.7123353,46.6764097,,,,,,
Exit 1,tourism,information,24.7368972,46.5905208,,,,,,
Exit 9,tourism,information,24.7761756,46.730588,,,,,,
Exit 7,tourism,information,24.7850703,46.7043844,,,,,,
Exit 5,tourism,information,24.7697707,46.6683193,,,,,,
Exit 10,tourism,information,24.7598742,46.7388496,,,,,,
Adeeb Accomodation,tourism,apartment,24.6447651,46.7286522,,,,,,
Unnamed,tourism,hotel,24.8481688,46.8250956,,,,,,
Mamu,tourism,hotel,24.8481968,46.825089,,,,,,
Unnamed,tourism,apartment,24.8284041,46.7558717,,,,,,
Light Calligraphy,tourism,artwork,24.7356646,46.7201164,,,,,,
درر رامه السليمانية فرع 8,tourism,hotel,24.7108631,46.7030816,,الامير مشاري بن عبدالعزيز,,,,Drr ramah 8
درر راما السلمانية فرع8,tourism,hotel,24.7109162,46.7031214,,Pr. Mishari Bin Abdulaziz St.,,,,2
مطابع أريج الألوان,tourism,artwork,24.6184535,46.7409135,,,,,,
my-home,tourism,apartment,24.7521002,46.8334862,,,,,,
درر رامه 9 السليمانية,tourism,hotel,24.7113889,46.702563,,طريق الملك عبدالعزيز,,,,Drr Ramah9 Sulaimaniah
World Sights Park,tourism,theme_park,24.7625938,46.7361111,,,,,,
فندق الجنوب,tourism,hotel,24.5995747,46.733794,,,,,,
Unnamed,tourism,artwork,24.7222909,46.7525022,,,,,,
Imam Saud Ibn Faisal Road,tourism,information,24.8186395,46.6440568,طريق الامام سعود بن فيصل,,,,,
Unnamed,tourism,information,24.8997355,46.7117625,,,,,,
Unnamed,tourism,information,24.9026944,46.7118232,,,,,,
Unnamed,tourism,information,24.9054537,46.7135225,,,,,,
Unnamed,tourism,information,24.9074285,46.7167468,,,,,,
Unnamed,tourism,information,24.9087717,46.7156687,,,,,,
Unnamed,tourism,information,24.9099538,46.7191517,,,,,,
Unnamed,tourism,information,24.9088184,46.7193337,,,,,,
Unnamed,tourism,information,24.613722,46.7621842,,,,,,
Unnamed,tourism,artwork,24.7142802,46.6324155,,,,,,
Unnamed,tourism,artwork,24.7590498,46.7384062,,,,,,
Unnamed,tourism,artwork,24.7587122,46.7377917,,,,,,
Unnamed,tourism,artwork,24.7584918,46.7386262,,,,,,
فندق ذهب المؤنسيه,tourism,hotel,24.8288434,46.7905859,,,,,,
فندق لحظة - النسيم الغربي,tourism,hotel,24.7330621,46.8219176,,شارع أسامة بن زيد,,,,
Unnamed,tourism,theme_park,24.6926735,46.7647399,,,,,,
My Accommodation,tourism,artwork,24.6113345,46.8612448,,,,,,
س,tourism,apartment,24.8262156,46.9694384,,,,,,
فتحه,tourism,artwork,24.8287704,46.9762964,,,,,,
برج رملة,tourism,hotel,24.8093908,46.6246222,,شارع رقم 46,,,,
اسكوت رافال العليا,tourism,hotel,24.8089066,46.6262031,,طريق العليا العام,,http://the-ascott.com,,
Ad Diriyah,tourism,museum,24.7389262,46.5784238,,,,,,
شقة بلودان,tourism,apartment,24.7852452,46.8728613,,,,,,
بارك هاوس للشقق المفروشة,tourism,hotel,24.7188047,46.6804981,,,+966112733331,,,
Museum of arts,tourism,museum,24.8582108,46.5925395,,,,,,
hard rock hotel,tourism,hotel,24.8615589,46.5880928,,,,,,
رياحين الرياض للشقق المفروشة,tourism,hotel,24.6012129,46.7534106,,شارع رنية,,,,
Milano pizza pasta,tourism,artwork,24.7468184,46.8372004,,,,,,
تقاطع إشارة الملاحم,tourism,information,24.6842577,46.7668993,,,,,,
Unnamed,tourism,hotel,24.7636945,46.6839282,,,,,,
شقق عوائل,tourism,apartment,24.8962759,46.9084246,,,,,,
Executives Hotel,tourism,hotel,24.5965634,46.7451757,,,,,,
Unnamed,tourism,apartment,24.7027726,46.8177578,,,,,,
Unnamed,tourism,apartment,24.6969422,46.812264,,,,,,
Unnamed,tourism,viewpoint,24.6592251,46.6099147,,,,,,
Crowne Plaza Riyadh,tourism,hotel,24.7385543,46.6355009,,,,,,
0,tourism,apartment,24.8159519,46.8773173,,,,,,
منتجع الريف,tourism,chalet,24.7540588,46.4348902,,,,,,
دا الرسيل للوحدات السكنية المفروشة,tourism,hotel,24.59901,46.75522,,,,,,
اوراد رويال للشقق المفروشة,tourism,hotel,24.79916,46.79658,,,,,,
قلعة الجوينا للوحدات السكنية المفروشة,tourism,hotel,24.7239074,46.7673638,,,,,,
فندق جامعة نايف,tourism,hotel,24.78981,46.86342,,,,,,
hotel latifa ,tourism,hotel,24.636693,46.7116638,,,,,,
latifa chaleet ,tourism,chalet,24.6365492,46.7122914,,,,,,
بودل,tourism,hotel,24.81071,46.6473338,,,,,,
Yaqout resort and chalet,tourism,chalet,24.9142687,46.7806615,,,,,,
Unnamed,tourism,information,24.8192433,46.6970485,,,,,,
Unnamed,tourism,artwork,24.8374769,46.7220061,,,,,,
SDS,tourism,artwork,24.858407,46.7115348,,,,,,
Unnamed,tourism,artwork,24.8756853,46.5673255,,,,,,
الفرحان للاجنحة الفندقية,tourism,apartment,24.6876063,46.7997793,,الأمير سعد بن عبدالرحمن الأول,,,,
عماره السبيعي,tourism,apartment,24.5886432,46.7396947,,وادي الأعساف,,,,
عماره السبيعي,tourism,apartment,24.595052,46.739863,,وادي الأعشاب,0532578699,,,
أبراج طويق للشقق المفروشة,tourism,hotel,24.6392496,46.5531914,,شارع حلب,,,,
شقق لؤلؤة أشبيلية 3,tourism,apartment,24.7926953,46.7955151,,شارع قلعة الفسطاط,,,24/7,
القصر الأحمر,tourism,museum,24.6428435,46.709801,,,,,,
Unnamed,tourism,apartment,24.8525525,46.6570805,,Al Fadhael,,,,
Rand by Wandalus Hotel,tourism,hotel,24.7066724,46.6872491,,شارع موسي بن نصير,,,,Wandalus Hotels
Malaz restaurant,tourism,hotel,24.6782598,46.7278361,,,,,,
Hilton Garden Inn Riyadh Financial District,tourism,hotel,24.7649617,46.6548815,,"Northern Ring Road, Al Ghadir 3606",+966 11 505 1010,https://www.hilton.com/en/hotels/ruhskgi-hilton-garden-inn-riyadh-financial-district/?WT.mc_id=zMDEC0SA1GI2NaturalSearch3Google_LGHotelListing4DGGeneric_5LocalSearch6RUHSKGI7EN8i98626,,Hilton Garden Inn
Unnamed,tourism,artwork,24.9165051,46.4553691,,,,,,
Unnamed,tourism,artwork,24.8959694,46.4480094,,,,,,
Unnamed,tourism,information,24.8767959,46.725833,,,,,,
Unnamed,tourism,information,24.8735093,46.7268964,,,,,,
Unnamed,tourism,information,24.9253248,46.7186426,,,,,,
Unnamed,tourism,information,24.9231213,46.7200164,,,,,,
Unnamed,tourism,information,24.9256541,46.7195408,,,,,,
Unnamed,tourism,information,24.9238676,46.7206478,,,,,,
KSU Hostel,tourism,hostel,24.7086481,46.7449965,,,,,,
ARA 4 Camp,tourism,apartment,24.5602247,46.8722856,,,,,,
Unnamed,tourism,hotel,24.7709037,46.7682229,,"King Abdullah Road, Alfdoul Street, King Faisal District",+966 11 2256555,https://riyadh.goldentulip.com/,,
DoubleTree by Hilton Riyadh Financial District Hotel & Suites,tourism,hotel,24.7648666,46.6547368,,الدائري الشمالي 3606,+966 11 505 1020,https://www.hilton.com/en/hotels/ruhfddi-doubletree-riyadh-financial-district/,,DoubleTree
Mövenpick Hotel and Residences Riyadh,tourism,hotel,24.7639917,46.653144,,Northern Ring Rd 3416,,,,Mövenpick
روز بارك للواحدات السكنية,tourism,apartment,24.8003007,46.7308266,,,,,,
لودا للشق المخدومة,tourism,apartment,24.8008381,46.7305449,,,,,,
كاتارا للشقق المخدومة 2,tourism,hotel,24.8009037,46.7300941,,,,,,
سرايا قرطبة للوحدات السكنية,tourism,apartment,24.7989002,46.7310412,,,,,,
Unnamed,tourism,artwork,24.9642137,46.7320751,,,,,,
Unnamed,tourism,information,24.9117208,46.9295858,,,,,,
Unnamed,tourism,attraction,24.9453262,46.9785641,,,,,,
الماجدية61,tourism,apartment,24.7717828,46.6953487,,الحسين بن علي,,,,
الماجدية61,tourism,apartment,24.7718711,46.6952731,,الحسين بن علي,,,,
Unnamed,tourism,picnic_site,24.7922543,46.6520806,,,,,,
Art View Hotel,tourism,hotel,24.7529512,46.7225596,,,,,,
The Palace Museum,tourism,museum,24.6584815,46.6702334,,,,,,
Palace wall,tourism,attraction,24.6588025,46.629064,,,,,,
Palace wall,tourism,attraction,24.6571682,46.6289854,,,,,,
Centro Waha,tourism,hotel,24.7560245,46.6533231,,Al Olaya 11564,,,,Hotel
Unnamed,tourism,viewpoint,24.6759211,46.6116314,,,,,,
Unnamed,tourism,viewpoint,24.6752431,46.6176947,,,,,,
Unnamed,tourism,attraction,25.0078232,46.6066403,,,,,,
waw hotel suites,tourism,hotel,24.7479083,46.710548,أجنحة واو الفندقية,,,,,
Al khariah Apartment,tourism,apartment,24.6917811,46.6843404,,,,,,
Unnamed,tourism,apartment,24.9273809,46.6099777,,smasco,,,,
فندق جلوريا إن,tourism,hotel,24.6308271,46.71705,,,,https://www.gloriainn.sa/en,,
ونترلاند,tourism,theme_park,24.8007921,46.5785253,,,,,,
Grand Plaza Hotel,tourism,hotel,24.6847672,46.7185038,,الملك عبدالعزيز 8235,,https://www.booking.com/hotel/sa/grand-plaza-gulf.html,24/7,
"Radisson Blu Hotel, Riyadh Convention & Exhibition Center",tourism,hotel,24.7523077,46.7250531,,,,https://www.radissonhotels.com/en-us/hotels/radisson-blu-riyadh-convention-center,,Radisson Blu
Unnamed,tourism,artwork,24.8414593,46.7333812,,,,,,
Lost and Found,tourism,information,24.7692903,46.6042041,,,,,,
Globe,tourism,artwork,24.7676969,46.6045891,,,,,,
ممشى اللؤلؤة,tourism,theme_park,24.5740207,46.7583558,,,,,,
Unnamed,tourism,information,24.9121189,46.7215315,,,,,,
Unnamed,tourism,information,24.9176976,46.7239169,,,,,,
Unnamed,tourism,information,24.9209064,46.722527,,,,,,
Unnamed,tourism,information,24.9197763,46.7221001,,,,,,
Unnamed,tourism,information,24.9146642,46.7239154,,,,,,
Unnamed,tourism,information,24.8926566,46.7141414,,,,,,
Unnamed,tourism,information,24.8933574,46.7153377,,,,,,
St.Regis,tourism,hotel,24.6664186,46.6261311,,,,,,
Sala Chalet,tourism,hotel,24.869556,46.8335898,,,,,,
شقق فاخرة التخصصي,tourism,hotel,24.686132,46.6753644,,طريق التخصصي,,,,
"Vivienda Hotel Villas, Diplomatic Quarters",tourism,hotel,24.6831122,46.6312089,,"Dareen Street, Diplomatic Quarters",+966 53 1666333,https://vivienda.com.sa/en/destinations/riyadh/diplomatic-quarter/,,
Unnamed,tourism,attraction,24.7758177,46.7390602,,,,,,
فندق ميركيور العنود,tourism,hotel,24.6640945,46.701478,,البلسم 3298,+996 11 827 7899,https://all.accor.com/,,
Traditional Architecture Museum,tourism,museum,24.733609,46.5738151,,,,,,
Ibrahim bin Saud Palace,tourism,information,24.7333603,46.5742826,,,,,,
Ibrahim bin Saud Palace,tourism,information,24.7339848,46.5746468,,,,,,
Atturaif Souk,tourism,information,24.7341507,46.5742432,,,,,,
Atturaif Souk,tourism,information,24.7340038,46.5744921,,,,,,
Unnamed,tourism,viewpoint,24.73429,46.5751415,,,,,,
فندق ارفاد,tourism,hotel,24.787683,46.6600594,,,,https://enala.sa/hotel/erfad,,
Courtyard Riyadh Olaya,tourism,hotel,24.7022186,46.678603,,شارع موسي بن نصير 2759 Olaya,,,,
Rayhanah Oasis,tourism,apartment,24.6890044,46.7276781,,شارع زيد بن ثابت 2465,,,,
فندق دايموند Diamond Hotel,tourism,hotel,24.8053248,46.657053,,طريق الثمامة,+966112701423,,,
سويت هوم اجنحه فندقيه,tourism,hotel,24.6294231,46.5660882,,Taiba,0096650 947 6601,,,
Sands Inn Hostel,tourism,hostel,24.6657892,46.7063234,,Um Al Siba'a,+966 50 937 0728,https://www.sandsinnhostel.com/,24/7,
مكين ٥٢,tourism,apartment,24.8865624,46.625987,,شارع رخي العنبري RRRC8095,,,,
Home,tourism,hostel,24.7400114,46.7703189,,الأمير فهد بن جلوي 7454,,,,
RHSA3248,tourism,apartment,24.7076334,46.7115057,,جلاجل RHSA3248,,,,
"executives hotel, Azizia",tourism,hotel,24.5960774,46.7454766,,,,,,
Carawan Al Fahad Hotel,tourism,hotel,24.710709,46.6706252,,11565 Olaya St,+966 56 275 2931,http://carawan-alfahad.com,,
ملاهي الخيمة,tourism,theme_park,24.7249219,46.67975,,,,,,
Riyadh Marriott,tourism,hotel,24.6858962,46.7125375,,Al Ma'ather Street,+966 1 4779300,,,
White Palace Hotel,tourism,hotel,24.687374,46.7188117,,,,,,
Crowne Plaza - Minhal,tourism,hotel,24.6895959,46.7173114,,,,,,Crowne Plaza
فندق وأبراج شيراتون الرياض,tourism,hotel,24.7273382,46.6653544,,,,,,Sheraton
Radisson Blu (SAS),tourism,hotel,24.670729,46.7192443,,,,,,Radisson Blu
فندق السفينة الذهبية,tourism,hotel,24.786327,46.7310621,,,,,,
Al Khozama Hotel,tourism,hotel,24.6918013,46.6854776,,,,,,
ريتز كارلتون,tourism,hotel,24.665826,46.6308188,,,,,,
Unnamed,tourism,museum,24.6233585,46.6711455,,,,,,
فيرمونت الرياض,tourism,hotel,24.8085111,46.7176818,,,,,,
Unnamed,tourism,hotel,24.7271482,46.690767,,,,,,
Unnamed,tourism,artwork,24.7249705,46.7099193,,,,,,
Unnamed,tourism,artwork,24.7256898,46.7090742,,,,,,
Unnamed,tourism,artwork,24.7260614,46.7079966,,,,,,
Unnamed,tourism,artwork,24.7269427,46.7079638,,,,,,
Unnamed,tourism,artwork,24.7279685,46.7105729,,,,,,
Unnamed,tourism,artwork,24.7265779,46.7109333,,,,,,
Unnamed,tourism,artwork,24.7253659,46.7113975,,,,,,
Dir'iyah Palace,tourism,hotel,24.6632041,46.6278291,,,,,,
Unnamed,tourism,museum,24.697373,46.863085,,,,,,
Hilton Riyadh Hotel & Residences,tourism,hotel,24.7851974,46.7281863,,طريق الدائري الشرقي 6623,+966-11-2346666,https://www.hilton.com/en/hotels/ruhchhi-hilton-riyadh-hotel-and-residences,,Hilton
Compound,tourism,hotel,24.7877786,46.7133589,,,,,,
Compund,tourism,hotel,24.7865538,46.7104615,,,,,,
Hilton Garden Inn,tourism,hotel,24.677069,46.6941085,,,,,,Hilton Garden Inn
قصر التوت,tourism,hotel,24.6473873,46.714386,,,,,,
Unnamed,tourism,chalet,24.8527577,46.8067181,,,,,,
Unnamed,tourism,chalet,24.8542468,46.8039767,,,,,,
Unnamed,tourism,chalet,24.8542826,46.8079969,,,,,,
Unnamed,tourism,chalet,24.858992,46.8010538,,,,,,
Unnamed,tourism,theme_park,24.8680316,46.8076001,,,,,,
منتجع سدرة السكني,tourism,chalet,24.8876856,46.8019891,,,,,,
منتجع فزه,tourism,chalet,24.8906347,46.8001657,,,,,,
Unnamed,tourism,chalet,24.8965376,46.7979224,,,,,,
Unnamed,tourism,chalet,24.8979619,46.8104133,,,,,,
Unnamed,tourism,chalet,24.8980087,46.8129706,,,,,,
Unnamed,tourism,chalet,24.9009689,46.8060896,,,,,,
Unnamed,tourism,chalet,24.9043847,46.7955109,,,,,,
Unnamed,tourism,chalet,24.9031586,46.7968091,,,,,,
Unnamed,tourism,chalet,24.9040218,46.8077487,,,,,,
Unnamed,tourism,chalet,24.8971055,46.8061754,,,,,,
Unnamed,tourism,chalet,24.8958307,46.8049201,,,,,,
Unnamed,tourism,chalet,24.8919573,46.8048342,,,,,,
Unnamed,tourism,chalet,24.8895437,46.8041476,,,,,,
Unnamed,tourism,chalet,24.8896931,46.8066015,,,,,,
Unnamed,tourism,chalet,24.9007549,46.8007143,,,,,,
Unnamed,tourism,chalet,24.9081798,46.8075379,,,,,,
Unnamed,tourism,chalet,24.9067201,46.8116042,,,,,,
Unnamed,tourism,chalet,24.9071191,46.8136212,,,,,,
Unnamed,tourism,chalet,24.9058638,46.8138894,,,,,,
Unnamed,tourism,chalet,24.9076154,46.8173977,,,,,,
Unnamed,tourism,chalet,24.9079755,46.8229338,,,,,,
Unnamed,tourism,chalet,24.9118483,46.8203589,,,,,,
Unnamed,tourism,chalet,24.9142322,46.8184921,,,,,,
Unnamed,tourism,chalet,24.9145849,46.8298755,,,,,,
Unnamed,tourism,chalet,24.9117704,46.8132349,,,,,,
Unnamed,tourism,chalet,24.9115466,46.7956504,,,,,,
Unnamed,tourism,chalet,24.9130354,46.7990836,,,,,,
Unnamed,tourism,chalet,24.9120234,46.8022057,,,,,,
Unnamed,tourism,chalet,24.9055622,46.8009826,,,,,,
Unnamed,tourism,chalet,24.9086468,46.830208,,,,,,
Unnamed,tourism,chalet,24.915338,46.8325701,,,,,,
Unnamed,tourism,chalet,24.9175384,46.7939298,,,,,,
Unnamed,tourism,chalet,24.9196325,46.801283,,,,,,
Unnamed,tourism,chalet,24.9226488,46.8091687,,,,,,
Unnamed,tourism,chalet,24.904375,46.8180737,,,,,,
Unnamed,tourism,chalet,24.9268811,46.805199,,,,,,
واحة الملك سلمان للعلوم,tourism,museum,24.7755463,46.7516744,,,,,,
Unnamed,tourism,hotel,24.8012769,46.781379,,,,,,
Unnamed,tourism,hotel,24.8017505,46.7811524,,,,,,
Unnamed,tourism,hotel,24.7994179,46.7771519,,,,,,
متحف,tourism,museum,24.5995992,46.6951138,,,,,,
منتزه الملك عبدالله,tourism,yes,24.666544,46.7368455,,الأمين عبدالله العلي النعيم,,,,
برج رافال كمبينسي,tourism,hotel,24.7924933,46.6326583,برج رافال كمبينسي,,,,,
DoubleTree by Hilton Hotel Riyadh - Al Muroj Business Gate,tourism,hotel,24.7645215,46.6573828,,"Northern Ring Road, Al Muruj 2653",+966 11 528 5100,https://www.hilton.com/en/hotels/ruhamdi-doubletree-riyadh-al-muroj-business-gate/,24/7,DoubleTree
Unnamed,tourism,hotel,25.0014688,46.5108616,,,,,,
InterContinental,tourism,hotel,25.001679,46.5096135,,,,,,InterContinental
Radisson Hotel Riyadh Airport,tourism,hotel,24.9131956,46.6889743,,,,,,Radisson
Marriott Riyadh Diplomatic Quarter,tourism,hotel,24.6743014,46.623711,فندق ماريوت,Abdullah AlSahmi Street 6781,+966 11-835 3000,https://www.marriott.com/en-us/hotels/ruhdq-marriott-riyadh-diplomatic-quarter/overview/,,Marriott
فندق راديسون بلو,tourism,hotel,24.6842332,46.6251984,,,,,,
كراون بلازا,tourism,hotel,24.7387824,46.6358044,,,,,,
المهرجان الوطني للتراث والثقافة بالجنادرية,tourism,yes,24.9607836,46.7985231,المهرجان الوطني للتراث والثقافة بالجنادرية,,,,,
Unnamed,tourism,artwork,24.7272413,46.7089563,,,,,,
ملاهي البعيجان,tourism,theme_park,24.8722054,46.593038,,,,,,
متحف صقر الجزيرة للطيران,tourism,museum,24.7537421,46.7383617,,,,,,
شقق ليالي جنتي,tourism,apartment,24.5837103,46.5472248,,,,,,
هوليدي ان العليا,tourism,hotel,24.6803307,46.690487,,,,,,
Unnamed,tourism,theme_park,24.8585273,46.5932199,,,,,,
Unnamed,tourism,museum,24.8583495,46.5924069,,,,,,
Unnamed,tourism,chalet,24.9135016,46.832161,,,,,,
Arabian Horse Museum,tourism,museum,24.7328951,46.5746434,,,,,,
Unnamed,tourism,hotel,24.9243726,46.7128629,,,,,,
Visitor Centre,tourism,information,24.73422,46.5762457,,,,,,
الطريف,tourism,attraction,24.733153,46.5727387,الطريف,,,,,
حي الغصيبة,tourism,attraction,24.7460463,46.561919,,,,,,
Hilton Riyadh Olaya,tourism,hotel,24.7102272,46.6721862,,King Fahd Branch Rd 8508,+966 11 272 8800,https://www.hilton.com/en/hotels/ruhkfhi-hilton-riyadh-olaya/,,Hilton
Hyatt Regency Riyadh Olaya,tourism,hotel,24.6981992,46.6821164,,Olaya St,+966 11 288 1234,https://www.hyatt.com/hyatt-regency/en-US/ruhhr-hyatt-regency-riyadh-olaya,24/7,Hyatt
بوليفارد رياض سيتي,tourism,attraction,24.7684128,46.6048069,,,,,Mo-Su 16:00-02:00,
عالم البوليفارد,tourism,theme_park,24.7766747,46.6009579,,,,,,
iris boutique hotel,tourism,hotel,24.7877395,46.7310481,,,,https://www.iris.sa,,
Unnamed,tourism,picnic_site,24.7678677,46.6047643,,,,,,
Super 8 by Wyndham Al Riyadh,tourism,hotel,24.835154,46.7353133,,,,https://www.wyndhamhotels.com/super-8/al-riyadh-saudi-arabia/super-8-al-riyadh/overview,,Wyndham
Almuhaidb Takhasosi value,tourism,motel,24.6856296,46.6756143,,طريق التخصصي,,,,
Unnamed,tourism,hotel,24.7042513,46.6784263,,,,,,
Unnamed,tourism,hotel,24.7086933,46.6780322,,شارع خالد بن يزيد بن معاوية,,,,
شارع انس بن مالك الفرعي,tourism,chalet,24.8208955,46.6460292,,شارع انس بن مالك الفرعي,,,,
Unnamed,tourism,chalet,24.8237524,46.6461541,,,,,,
Unnamed,tourism,chalet,24.8466182,46.6680181,,شارع الربيع,,,,
Unnamed,tourism,chalet,24.8467603,46.6679601,,شارع الربيع,,,,
The compound,tourism,chalet,24.846495,46.6690552,,No. 513,,,,
Unnamed,tourism,chalet,24.8562268,46.6594425,,شارع الفيضة,,,,
Unnamed,tourism,chalet,24.8542682,46.6602912,,شارع الأمين المهندس عبدالله بن عبدالرحمن المقبل,,,,
Unnamed,tourism,chalet,24.8505319,46.6661674,,شارع الربيع,,,,
Unnamed,tourism,chalet,24.850226,46.6661575,,شارع الربيع,,,,
Unnamed,tourism,chalet,24.850104,46.6665566,,هاجر بنت إسماعيل,,,,
Unnamed,tourism,chalet,24.849606,46.6668222,,هاجر بنت إسماعيل,,,,
Unnamed,tourism,chalet,24.8497432,46.6664321,,هاجر بنت إسماعيل,,,,
Unnamed,tourism,chalet,24.849798,46.6667233,,هاجر بنت إسماعيل,,,,
Unnamed,tourism,chalet,24.850628,46.6680755,,ابي علي المهدي,,,,
Unnamed,tourism,chalet,24.8507227,46.6683024,,ابي علي المهدي,,,,
شالبهات كومو,tourism,chalet,24.8545683,46.6774169,,,,,,
Unnamed,tourism,chalet,24.8541806,46.6775752,,,,,,
Unnamed,tourism,chalet,24.8540667,46.6773015,,,,,,
Unnamed,tourism,chalet,24.8546857,46.6762082,,,,,,
Unnamed,tourism,chalet,24.8493712,46.6651497,,,,,,
Unnamed,tourism,chalet,24.8492849,46.6649283,,,,,,
Unnamed,tourism,chalet,24.8508239,46.6619862,,شارع الأمين المهندس عبدالله بن عبدالرحمن المقبل,,,,
Unnamed,tourism,chalet,24.8491359,46.6628466,,شارع الأمين المهندس عبدالله بن عبدالرحمن المقبل,,,,
Unnamed,tourism,chalet,24.8490499,46.6628862,,شارع الأمين المهندس عبدالله بن عبدالرحمن المقبل,,,,
Unnamed,tourism,chalet,24.8489624,46.6629248,,شارع الأمين المهندس عبدالله بن عبدالرحمن المقبل,,,,
Unnamed,tourism,chalet,24.8487466,46.6630435,,شارع الأمين المهندس عبدالله بن عبدالرحمن المقبل,,,,
Unnamed,tourism,chalet,24.8488656,46.6629824,,شارع الأمين المهندس عبدالله بن عبدالرحمن المقبل,,,,
Unnamed,tourism,chalet,24.8506425,46.669612,,طريق الملك سلمان الفرعي,,,,
Unnamed,tourism,chalet,24.8582952,46.6764426,,,,,,
Unnamed,tourism,chalet,24.8573875,46.6765515,,شارع ابي مالك الاشجعي,,,,
Unnamed,tourism,chalet,24.8557313,46.6766306,,شارع عبدالرحمن الهندي,,,,
Unnamed,tourism,chalet,24.6829068,46.7455463,,أم القوين,,,,
Hyatt Place Riyadh Al Sulaimania,tourism,hotel,24.7074022,46.7084531,,Pr. Turki Bin Abdullah Street,+966112831234,https://www.hyatt.com/hyatt-place/en-US/ruhzs-hyatt-place-riyadh-sulaimania,24/7,Hyatt Place
Unnamed,tourism,hotel,24.7109659,46.7032477,,الأرجوان,,,,
Unnamed,tourism,hotel,24.7152198,46.674917,,,,,,
Unnamed,tourism,hotel,24.711296,46.702598,,الملك عبدالعزيز,,,,
Unnamed,tourism,hotel,24.7013767,46.6938746,,الامير محمد بن عبدالعزيز,,,,
فندق لو مريديان,tourism,hotel,24.7288719,46.6683673,,,,,,
Unnamed,tourism,hotel,24.7509857,46.665172,,شارع المغيرة بن شعبة,,,,
Unnamed,tourism,chalet,24.7768165,46.6906136,,الثامر,,,,
بيت الثقافة _ واحة الملك سلمان,tourism,museum,24.7796205,46.7059934,,,,,,
Unnamed,tourism,hotel,24.7267782,46.6518263,,طريق التخصصي,,,,
Unnamed,tourism,chalet,24.8394817,46.6060612,,شارع محمد بن ميمون,,,,
Unnamed,tourism,chalet,24.839579,46.6066372,,شارع ابراهيم بن محمد الزمزمي,,,,
Unnamed,tourism,chalet,24.8381649,46.6045493,,شارع عبدالله باروم,,,,
Unnamed,tourism,chalet,24.8395675,46.6039711,,شارع عبدالله باروم,,,,
Unnamed,tourism,chalet,24.8381332,46.6051389,,شارع عبدالله باروم,,,,
Unnamed,tourism,chalet,24.8364193,46.6031084,,شارع يحيى بن اسعد,,,,
Unnamed,tourism,chalet,24.8361635,46.6032273,,شارع بور سعيد,,,,
Unnamed,tourism,chalet,24.8349539,46.6073228,,شارع محمد بن عبدالعزيز العجاجي,,,,
Unnamed,tourism,chalet,24.8350311,46.6075382,,شارع محمد بن عبدالعزيز العجاجي,,,,
Unnamed,tourism,chalet,24.8352936,46.6081353,,شارع محمد بن عبدالعزيز العجاجي,,,,
Unnamed,tourism,chalet,24.8355035,46.6080145,,شارع داود بن علي,,,,
Unnamed,tourism,chalet,24.8359454,46.6079249,,شارع داود بن علي,,,,
Unnamed,tourism,chalet,24.8354754,46.6070767,,شارع داود بن علي,,,,
Unnamed,tourism,chalet,24.8353856,46.6068615,,شارع داود بن علي,,,,
Unnamed,tourism,chalet,24.8355326,46.6066631,,شارع يوسف القفصي,,,,
Unnamed,tourism,chalet,24.8177203,46.6034181,,شارع أبحر,,,,
Unnamed,tourism,chalet,24.8297119,46.5889558,,,,,,
Unnamed,tourism,chalet,24.8295932,46.5886815,,ابراهيم بن رضوان,,,,
Unnamed,tourism,chalet,24.8280081,46.5907945,,شارع محمد بن عبدالعزيز العجاجي,,,,
Unnamed,tourism,chalet,24.8278939,46.5905307,,شارع محمد بن عبدالعزيز العجاجي,,,,
Unnamed,tourism,chalet,24.8294789,46.5873467,,ابراهيم بن الاحمدي,,,,
Unnamed,tourism,chalet,24.8292389,46.5871336,,شهيد الدين ثم الوطن يحيى محمد الشهري,,,,
Unnamed,tourism,chalet,24.8289953,46.5872522,,شهيد الدين ثم الوطن يحيى محمد الشهري,,,,
Unnamed,tourism,chalet,24.8315794,46.5798677,,الأمير سعود بن عبدالله بن جلوي,,,,
Unnamed,tourism,chalet,24.8312967,46.5800208,,الأمير سعود بن عبدالله بن جلوي,,,,
Unnamed,tourism,chalet,24.831407,46.58029,,الأمير سعود بن عبدالله بن جلوي,,,,
Unnamed,tourism,chalet,24.8316937,46.5801283,,الأمير سعود بن عبدالله بن جلوي,,,,
Unnamed,tourism,chalet,24.8318589,46.5809843,,الأمير سعود بن عبدالله بن جلوي,,,,
Unnamed,tourism,chalet,24.832065,46.5814385,,الأمير سعود بن عبدالله بن جلوي,,,,
Unnamed,tourism,chalet,24.8302182,46.5833233,,مطلق بن صالح,,,,
Unnamed,tourism,chalet,24.8254614,46.5847785,,شارع محمد بن عبدالعزيز العجاجي,,,,
Unnamed,tourism,chalet,24.8257024,46.5846169,,ابراهيم العقيلي,,,,
Unnamed,tourism,chalet,24.8256944,46.5808644,,,,,,
Unnamed,tourism,chalet,24.8295494,46.5779201,,عبدالقادر عثمان,,,,
Unnamed,tourism,chalet,24.8260943,46.5785571,,عبدالوهاب أبي سليمان,,,,
Unnamed,tourism,chalet,24.8261928,46.5787799,,عبدالوهاب أبي سليمان,,,,
Unnamed,tourism,chalet,24.826303,46.5790475,,عبدالوهاب أبي سليمان,,,,
Unnamed,tourism,chalet,24.8263572,46.5747379,,جارالله بن ظهيرة,,,,
Unnamed,tourism,chalet,24.8262455,46.5744711,,جارالله بن ظهيرة,,,,
Unnamed,tourism,chalet,24.8232464,46.5731639,,احمد بن عمير,,,,
Unnamed,tourism,chalet,24.8251051,46.5721908,,,,,,
Unnamed,tourism,chalet,24.8248452,46.5723693,,,,,,
Unnamed,tourism,chalet,24.8253895,46.5720321,,طريق تركي الأول بن عبدالعزيز آل سعود,,,,
Holiday Inn,tourism,hotel,24.6839068,46.6879721,,,,,,Holiday Inn
Unnamed,tourism,hotel,25.00247,46.5106941,,,,,,
Unnamed,tourism,hotel,25.0023092,46.5105469,,,,,,
Unnamed,tourism,hotel,25.0019913,46.5103238,,,,,,
Unnamed,tourism,hotel,25.0021561,46.5104152,,,,,,
Trade And Treasury Museum,tourism,museum,24.7337979,46.5760072,,,,,,
Moudhi Endowment,tourism,museum,24.7336004,46.5762258,,,,,,
فندق مودرست,tourism,hotel,24.8364475,46.7519032,,,,,,
رافال سكاي جاردنز,tourism,hotel,24.7302471,46.6620054,,,,,,
فندق وريزيدنس موفنبيك الرياض,tourism,hotel,24.7644907,46.6535363,,Northern Ring Rd 3416,,,,Mövenpick
Unnamed,tourism,hotel,24.765163,46.6546991,,,,,,
فندق نارسيس,tourism,hotel,24.6957579,46.6834872,,,,,,
قلعة المصمك,tourism,museum,24.6312083,46.7133294,قلعة المصمك,,,,,
