Name,Type,Subtype,Latitude,Longitude,Arabic Name,Address,Phone,Website,Hours,Brand
OnlineenilnO,office,company,24.6811704,46.6295854,,Diplomatic Quarter Alfazary Suite Unit 66,,http://onlineenilno.com/,,
Wared Transport,office,company,24.7664345,46.8362433,,,,,,
SURE International Technology,office,company,24.7473066,46.6607704,,,+966 11 2050043,https://www.sure.com.sa/,08:30-17:30,
Siemens Saudi Arabia,office,company,24.8073274,46.7163135,,,,,,
Microsoft Arabia,office,company,24.8057724,46.7168804,,,,,,
Sony,office,company,24.8060025,46.7184801,,,,,,
Alcatel,office,company,24.806275,46.7166009,,,,,,
International Energy Forum,office,association,24.671309,46.6268913,,,,https://www.ief.org/,,
United Nations,office,diplomatic,24.6842827,46.622272,,,,,,
US Ambassador's Residence,office,diplomatic,24.6724551,46.6191089,,,,,,
Ambassador's Residence of Yemen,office,diplomatic,24.678105,46.6204553,,,,,,
Arab Urban Development Institute,office,company,24.6761308,46.6216368,,Abdullah Bin Hazafa As-Shami Road 8144,,http://www.araburban.com/,,
قصر الثقافة,office,yes,24.6802073,46.6232136,,,,,,
Passport Office,office,government,24.6818788,46.623999,,,,,,
سفارة جيبوتي,office,diplomatic,24.6803714,46.6200148,,,,,,
سفارة الكونغو الديمقراطية,office,diplomatic,24.6804055,46.6195535,,,,,,
سفارة الغابون,office,diplomatic,24.6808524,46.6242771,,,,,,
Embassy of Sierra Leone,office,diplomatic,24.6766571,46.6256815,,,,,,
Deanship Bldg,office,administrative,24.7555212,46.854676,,,,,,
NGCEBHP,office,educational_institution,24.7557587,46.85432,,,,,,
Postgraduate Training Center,office,educational_institution,24.75527,46.8548092,,,,,,
Admin Bldg,office,administrative,24.7543421,46.8527363,,,,,,
Main Lecture Hall,office,educational_institution,24.7543257,46.8534672,,,,,,
Conference Center,office,educational_institution,24.7546438,46.853229,,,,,,
مؤسسة النظم الثمانية للاتصالات وتقنية المعلومات,office,it,24.8032048,46.7824884,,As-Sahabh Road,,,,
الادارة الاقليميه لشركه العمودى(اطارات تويو و نيكسين),office,company,24.6257189,46.7407567,,اسعد المدنى,,,,
مؤسسه كشف تسربات المياه,office,company,24.6526328,46.8085403,,,,,,
OSTAR Holdings - Riyadh,office,company,24.6997929,46.7602861,,Pr. Met'eb Bin Abdulaziz St. 7272,+966 11 4747630,http://ostarholdings.com,,
Matt Royal,office,company,24.717071,46.6827583,,,,https://matt-royal.sa/,,
مؤسسة محمد عبدالله مرضاح للتجارة,office,company,24.6408434,46.736619,,,,,,
"Field Epidemiology Training Program, KSA",office,government,24.7471687,46.7623279,,Ibn Shaheen St.,,www.fetp.edu.sa,,
مكتب التاشيرات,office,company,24.6785411,46.6545611,مكتب التاشيرات,Umm Al Hamam Street,,,,
الادارة العامة للخدمات الطبية للقوات المسلحة,office,government,24.736141,46.7499059,,,,,,
مجموعة الفدأ,office,company,24.7036038,46.6770376,,طريق الملك فهد,,,,
كتابة العدل الاولى بوسط الرياض,office,government,24.6306178,46.7165093,,,,,,
مركز خدمات موبايلي,office,telecommunication,24.6461777,46.7071479,,,,,,
مركز خدمات زين,office,telecommunication,24.6462318,46.7071413,,,,,,
مكتب العمل الاستقدام,office,government,24.8000685,46.7839897,,As-Sahabh Road,,,,
وزارة الخارجية,office,government,24.649084,46.693311,,,,https://www.mofa.gov.sa/,,
تصديقات وزارة الخارجية,office,government,24.649123,46.693182,,,,,,
محل اتصالات,office,telecommunication,24.8048563,46.7936328,,,,,,
Alfanar HO,office,government,24.7753573,46.6800522,,Northern Ring Road b/w exit 5 & 6,,,,
Alfanar CoE,office,government,24.7810735,46.662012,,King Abdulaziz Road exit 5,,,,
الرئاسة العامة للبحوث العلمية والإفتاء,office,government,24.6161141,46.7056208,,طريق الملك فهد,0114595555,http://www.alifta.gov.sa,,
الشركة السعودية للكهرباء,office,government,24.6440238,46.7048305,,,,,,
مؤسسة الهضب للتجارة و المقاولات,office,government,24.7995739,46.7471276,,Ad Diyar,,,,
شركة الاتصالات السعودية,office,telecommunication,24.5961242,46.6988362,,شارع الأفلاج,,,Mo-Su 10:00-22:00,
King Abdulaziz City for Science and Technology (KACST),office,research,24.7167865,46.64404,,,+966114883555,https://www.kacst.edu.sa/,07:30-15:45,
مجموعة سدر للخدمات الاتصالات,office,government,24.7855381,46.8061956,,Al Arab Sea,,,,
مجموعة الفيصل للتوظيف,office,government,24.7830797,46.8082495,,Al Arab Sea,,,,
الهيئة السعودية للتخصصّات الصحية ( الجديدة ),office,government,24.8117778,46.6696111,,,,,Su-Th 08:00-16:00,
المجال,office,company,24.6456632,46.7055204,,,,,,
شئون الوافدين,office,government,24.6351493,46.6865878,,,,,,
مستودعات إمارة منطقة الرياض,office,government,24.6381119,46.6917906,,,,,,
زين,office,telecommunication,24.6458647,46.7157082,,شارع عبد العزيز بن مساعد بن جلوي,,,,
STC,office,telecommunication,24.6294884,46.7389059,,,,,,
مؤسسة نجم التسويق,office,government,24.651777,46.831078,,,,,,
شركة فن المعمار السعودية للصيانة الحدودة,office,government,24.6530116,46.7064878,,,,,,
المؤسسة العامة للتقاعد,office,government,24.6514843,46.7048016,,شارع الوشم,,,,
العمار للاتصالات,office,telecommunication,24.6512909,46.7061872,,شارع الوشم,,,,
الشعاع التقني,office,government,24.6509534,46.7051421,,شارع الوشم,,,,
المؤسسة العامة للتدريب التقني والمهني,office,government,24.6512485,46.7038424,,شارع الوشم,,,,
شركة مخزن الأدوية العربي السعودي المحدودة,office,company,24.6510399,46.7077193,,الشيخ عبد الرحمن القحطاني,,,,
مكتب عقارات,office,government,24.6482413,46.7066306,,شارع الامير عبدالله بن جلوي بن تركي,,,,
مكتب عقارات,office,government,24.648324,46.7066191,,شارع الامير عبدالله بن جلوي بن تركي,,,,
مكتب عقارات,office,government,24.6482853,46.7066312,,شارع الامير عبدالله بن جلوي بن تركي,,,,
شركة زمو للتجارة,office,company,24.6510662,46.7080162,,الشيخ عبد الرحمن القحطاني,,,,
شركة الجرس السعودي,office,company,24.6502032,46.7076133,,,,,,
موبايلي,office,telecommunication,24.7033326,46.7806115,,,,,,
فيليبس,office,government,24.6822352,46.7338788,,Al Ihsa Street,,,,
Saudi Geological Survey,office,government,24.6939346,46.7202952,,,,,,
Mobily,office,telecommunication,24.7081105,46.6767378,,,,,,
وزارة الصحة,office,government,24.6570849,46.7130373,وزارة الصحة,شارع عبد العزيز بن مساعد بن جلوي,,,,
المديرية العامة للجوازات,office,government,24.6706967,46.7214384,المديرية العامة للجوازات,Al Farzdaq Street,,,,
مديرية صحة الرياض,office,government,24.6996076,46.7631041,مديرية صحة الرياض,Pr. Met'eb Bin Abdulaziz St.,,,,
sago,office,government,24.5931717,46.8184267,sago,,,,,
Olympic Complex,office,government,24.648152,46.6468108,,,+966533324233,https://www.olympic.sa/,Su-Th 09:00-22:00; Fr-Sa,
MOI eService Terminal,office,government,24.7759323,46.6649614,,,,,,
العقارية الثالثه,office,government,24.7061076,46.6796418,العقارية الثالثه,,,,,
الاميرسعودبن مشعل,office,government,24.6964602,46.6059679,,مدخل خاص 5016,,,"Su-Tu 10:00-10:00, 17:00-22:00",
هيئة الاذاعة والتلفزيون,office,government,24.6429755,46.6954788,,Al Washam Street,,www.sba.sa,24/7,
باكس,office,government,24.686218,46.7331928,,Al Ihsa Street,,,,
وزارة المالية الادارة العامة للمقرات و القواعد,office,government,24.6528834,46.7090431,وزارة المالية الادارة العامة للمقرات و القواعد,شارع الوشم,,,,
مدينة تدريب الأمن العام بالرياض,office,government,24.7842624,46.8624638,مدينة تدريب الأمن العام بالرياض,,,,,
القوات الخاصة للأمن والحماية,office,government,24.6488593,46.731778,,شارع الظهران,,,Su-Th 08:00-14:00,
متاجر اتصالات,office,telecommunication,24.7476746,46.6852359,متاجر اتصالات,,,,,
قطاع الاثار و المتاحف,office,government,24.6459719,46.7111197,قطاع الاثار و المتاحف,,,,,
Hungerstation,office,telecommunication,24.676287,46.6835423,,Abdulrahman Al Naseri Path,,,,
Lafana Investments,office,government,24.7294441,46.6625221,,,,,,
مكتب العمل,office,government,24.7322321,46.7862619,مكتب العمل,,,,,
"Tatweer 1, King Fahad Road",office,government,24.729194,46.6623738,"Tatweer 1, King Fahad Road",,,,,
صندوق تنمية الموارد البشرية - الادارة العامة,office,government,24.6974468,46.6823126,صندوق تنمية الموارد البشرية - الادارة العامة,,,,,
الهيئة الملكية لمدينة الرياض,office,government,24.6823862,46.6241997,,,,,08:00-16:00,
العمل,office,government,24.70737,46.7588853,العمل,,,,,
وزارة التعليم,office,government,24.7406523,46.694734,وزارة التعليم,,,,,
وزارة المالية,office,government,24.6526478,46.7163988,وزارة المالية,,,,,
Saudi food and drug authority,office,government,24.6499576,46.7374683,,,,,,
المكتب الموحد,office,yes,24.6795557,46.6535437,المكتب الموحد,,,,,
Beacon Advertising Agency,office,yes,24.6835603,46.6894969,,Olaya Road,,,,
موبايلي,office,telecommunication,24.5880055,46.7608649,موبايلي,,,,,
Al Jardan,office,company,24.8288074,46.7954393,Al Jardan,,,,,
Navi Saudi,office,company,24.7021083,46.6984799,,,,,,
سفارة أوكرانيا,office,diplomatic,24.7343315,46.6899567,,,,,,
فرع وزارة العدل ووكالة التنفيذ,office,government,24.785359,46.6392436,,,,,,
العمار المثالي,office,company,24.8214377,46.7643662,,Mohamed Al Barqi,,,Sa-Th 16:30-21:00,
Green Oasis,office,estate_agent,24.8430189,46.7533725,,,,https://alargan.com.sa/,,
رافت الامير لتسويق,office,company,24.8132204,46.7961022,,Mohammed Ali Jinnah,,,,
كتابة العدل الثانيه شرق الرياض,office,government,24.6894149,46.8119531,,,,,,
Unnamed,office,government,24.8242598,46.7558549,,,,,,
جوازات الملز,office,government,24.675532,46.7317453,,,,,,
شركة ركن البيت لخدمات تنظيف الفلل,office,company,24.6173789,46.6862227,,البديعة,0558500420,https://www.roknelbeet.com/%D8%A7%D9%81%D8%B6%D9%84-%D8%B4%D8%B1%D9%83%D8%A9-%D8%AA%D9%86%D8%B8%D9%8A%D9%81-%D9%81%D9%84%D9%84-%D8%A8%D8%A7%D9%84%D8%B1%D9%8A%D8%A7%D8%B6/,Sa-Th 00:00-24:00; Fr 09:00-18:00,
شركة ركن البيت لخدمات تنظيف الخزانات,office,company,24.6045578,46.6883777,,شارع سلطانة 114,0558500420,https://www.roknelbeet.com/تنظيف-خزانات-بالرياض/,24/7,
سوار التقنية,office,company,24.7381697,46.6582644,سوار التقنية,,,,,
وكالة دريم للدعاية والاعلام,office,company,24.6310649,46.7346048,,Al Kharj Road,0554022283,,"Sa-Th 08:00-12:00, 16:00-22:00",
المركز الاداري بالسلي,office,government,24.66576,46.788112,,طريق الدائري الشرقي,,,Su-Th 09:00-18:00,
التعاونية للتأمين,office,insurance,24.5977603,46.6851183,,شارع السويدي العام,,,,
الغرفه التجاريه الصناعيه الرياض,office,government,24.666699,46.7079039,,,,http://www.chamber.sa,Su-Th 08:00-14:00,
السيف للهندسه والمقاولات,office,company,24.7819627,46.748901,,,,,,
البوانى,office,company,24.6700285,46.6694262,,,,,,
نسما للمقاولات,office,company,24.6942518,46.680404,,,,,,
الديار السعوديه,office,company,24.6955852,46.721458,,,,,,
الشركة الصينية,office,company,24.8078396,46.637444,,,,,,
العقارية,office,company,24.7078796,46.6784825,,,,,,
Cem estro,office,company,24.8177191,46.6179097,,,,,,
شركة تنظيف بالرياض,office,foundation,24.6643528,46.727003,,,,,,
بروجر,office,company,24.6806311,46.7078924,,,,,,
المؤسسه العامه للتأمينات الأجتماعيه,office,government,24.6900203,46.7158827,,طريق مكة المكرمة,,,Su-Th 08:00-14:00,
Ministry of Economy & Planning,office,government,24.7865344,46.7278675,,,,,,
Tamkeen Technologies,office,government,24.7082651,46.6785356,,,,,,
AbanaHO,office,company,24.6759156,46.6658158,,,,,,
مجموعة خالد الكريديس العقاريةً,office,estate_agent,24.8151069,46.6458844,,طريق الملك عبدالعزيز,0509794818,,,
Madina Co,office,lawyer,24.6611165,46.7341881,,,,,,
alwada,office,company,24.5319153,46.9101862,,,,,,
شركة المياه الوطنية,office,company,24.6874075,46.6837346,,Prince Sultan Bin Abdulaziz St. 1,,,Su-Th 08:00-04:00,
مقرالعمل,office,government,24.694983,46.7760428,,طريق الدائري الشرقي,,,Su-Th 00:00-24:00,
FLYNAS Office,office,company,24.8047155,46.6720345,,,,,,
Flynas office,office,company,24.7989433,46.6752501,,,,,,
Unnamed,office,government,24.7488789,46.6883562,,,,,,
Unnamed,office,government,24.7479435,46.6875408,,,,,,
Unnamed,office,association,24.634827,46.6777056,,,,,,
Unnamed,office,government,24.6634822,46.6398716,,,,,,
Schurarat,office,government,24.6627212,46.6365427,,,,,,
Unnamed,office,government,24.6564982,46.7116162,,,,,,
Unnamed,office,government,24.657005,46.7120448,,,,,,
Unnamed,office,government,24.6571256,46.7125455,,,,,,
Unnamed,office,government,24.6557777,46.7124089,,,,,,
Unnamed,office,government,24.6559259,46.7128869,,,,,,
Unnamed,office,government,24.6564706,46.7134103,,,,,,
المعاشات والتقاعد,office,government,24.6521249,46.7046777,,,,,,
Boston Consulting Group,office,company,24.6974261,46.682407,,,+966 11 2245 400,https://www.bcg.com/offices/riyadh/default.aspx,,
كلية الرياضة والنشاط البدني,office,educational_institution,24.7263802,46.6199047,,,,,,
Tools & Solutions,office,company,24.7876715,46.6588953,,,,,,
مؤسسة الانتاج الثلاثي للمقاولات,office,yes,24.6531542,46.585319,,,,,,
مجلس الضمان الصحي التعاوني,office,government,24.8212666,46.616126,,طريق الملك فهد,,https://cchi.gov.sa/,Su-Th 08:00-16:00,
AEcom Group,office,company,24.6533393,46.5825568,,Al Taif,966114825549,https://www.aecom.com.sa,"Sa-Th 08:00-13:00, 14:00-17:00",
AEcom Group,office,company,24.6533955,46.5826374,,Al Taief 3659,966114825549,https://www.aecom.com.sa,Sa-Th 08:00-19:00,
المركز الوطني لبحوث الزراعة والثروة الحيوانية,office,government,24.5793362,46.7187307,,,,,,
الصندوق السعودي للتنمية,office,government,24.6727231,46.6928308,,طريق العليا العام,+966 11 279 4000,http://sfd.gov.sa,Su-Th 07:00-16:15,
مؤسسه دار الناصرة للتجاره,office,company,24.6606802,46.7447383,,شارع زيد بن الخطاب,,,,
McKinsey & Company,office,company,24.7111809,46.6737654,,,+966 (11) 212 3600,https://www.mckinsey.com/middle-east/riyadh,,
Riyadh Airports Company (RAC),office,company,24.976626,46.6891861,,,,,,
برج النخيل,office,estate_agent,24.7488534,46.6527187,,طريق الملك فهد,+966112121212,http://www.alajlan-global.com/,24/7,
شركه نظم تقنيه المياه,office,company,24.565506,46.7963046,,Ibn-Hajar 1234,,,,
SFDA الهيئة العامة للغذاء والداء - المبنى الرئيسي,office,government,24.7466709,46.6110211,,الدائري الشمالي,,sfda.gov.sa,,
الخافقين للتسويق العقاري,office,estate_agent,24.5709192,46.6193708,,,,,,
معهد الادارة الرياض الملز,office,government,24.6680753,46.7244719,,,,,,
مصرف الراجحي (مبنى العمليات ),office,company,24.7527335,46.6313928,,الطريق الدائري الشمالي,00966534068065,https://www.alrajhibank.com.sa/,Su-Th 00:00-24:00,
شركة الضحيان,office,company,24.8273,46.8069,,,,,,
خالد بن سعد الموسى للعقارات,office,estate_agent,24.8121517,46.62779,,,,,,
دار المهندسينن للعقارات,office,estate_agent,24.8126201,46.6288828,,,,,,
الآلية للعقارات,office,estate_agent,24.8127336,46.6291508,,,,,,
الماجد للعود,office,company,24.8145239,46.6453871,,,,,,
مرسية الشركة الوطنية للإسكان,office,company,24.8127359,46.6462732,,,,,,
Unnamed,office,company,24.8026332,46.6502628,,,,,,
شركة إفادة للموارد البشترية,office,company,24.8011649,46.6468258,,,,,,
عبداللطيف جميل للتمويل,office,financial,24.8009966,46.6464022,,,,,,
الإدارة العامة للخدمات الطبية,office,government,24.8009052,46.6461696,,,,,,
دويتشه الخليج للتمويل,office,financial,24.8006578,46.6456015,,,,,,
مستودع صيانة طرق الرياض,office,government,24.7985224,46.651346,,,,,,
الرئاسة العامة لهيئة الأمر بالمعروف والنهي عن المنكر,office,government,24.7023128,46.7412791,,طريق مكة المكرمة 4508,,https://www.pv.gov.sa/,Su-Th 08:00-14:00,
سوق 24,office,foundation,24.6534261,46.5710871,,,112792341,https://swq24.com/,Mo-Sa 08:00-18:00,
جسور التخطيط لتقنية المعلومات,office,yes,24.7685195,46.5808164,,,,,,
Charity for Orphan Care,office,government,24.6682611,46.7842496,,,,,,
الشركة السعودية للتشخيص القابضة,office,yes,24.6819749,46.6862951,,Ibn Abi Al Ata al 4156,,,,
King Faisal Specialist Hospital medical department stores,office,yes,24.6699419,46.6762496,,Zahrawi Street,,,,
مركز الملك عبدالعزيز للحوار الوطني,office,yes,24.7768355,46.6824383,,Northern Ring Branch Rd 4292,,,,
Medical Regulations Gate,office,lawyer,24.714541,46.678356,,,+966 56 766 3377,https://www.mr-gate.com/,"Mo-Th,Su 8:00-17:00",
Saudi Xerox,office,company,24.6909765,46.7327897,,,+9664739800,http://xerox.com,Su-Th 08:30-17:30,
الدوائر الإنهائية بمحكمة الأحوال الشخصية بغرب الرياض,office,government,24.6540748,46.5798714,,,,,,
Embassy of Bangladesh,office,diplomatic,24.6857908,46.6317752,,Dareen Street 8039,0114195300,http://www.bangladeshembassy.org.sa,,
Emigrantz Global Consultancy,office,government,24.7012602,46.6798349,,"رقم 64 103, 2nd floor",+966561025030,https://www.emigrantz.com,Sa-Th 10:00-19:00,
العقيل للإستقدام,office,employment_agency,24.7662443,46.7132836,,Uthman Ibn Affan Rd 8442,+966920006110,https://www.alakeel.sa,,
وزارة التعليم,office,government,24.7404123,46.6953712,وزارة التعليم,,,,,
مكتب سليمان الدخيل للخدمات العقارية,office,estate_agent,24.627226,46.7482496,,الأمير محمد بن سعود بن فيصل 3187,0500099577,,Sa-Th 09:00-21:30,
StcPay,office,it,24.7667884,46.574678,,,,,,
شركة العربية للعود,office,company,24.6831158,46.7010977,,,,,,
سفارة مالطا,office,diplomatic,24.7120786,46.6830077,,العباس الرشيدي 7733,+966 11 463 2345,https://foreignandeu.gov.mt/en/embassies/me_riyadh,Su-Th 09:00-16:00,
Globitel Saudi Arabia,office,company,24.7530942,46.6255484,,الطريق الدائري الشمالي office 208,+966112160206,https://www.globitel.com/,SU-TH 8:00-17:00,
مكتب نايف داوود العتيق محامون ومستشارون,office,lawyer,24.7533525,46.7432035,,الأمير سعود الكبير بن عبدالعزيز آل سعود 2438,+966112345641,https://naiflawfirm.com,Su-Th 08:00-17:00,
Innovign | Marketing Agency,office,advertising_agency,24.7951256,46.6561053,,King Abdul Aziz Road 2439,+966555966256,https://www.innovign.com,Su-Th 09:00-18:00,
سفارة الأوروغواي,office,diplomatic,24.6784785,46.6283034,,AlRadaef Street C40,+9661 1 462.0739,,,
سفارة بيرو,office,diplomatic,24.6878288,46.6654939,,ابن يونس الصدفي 7393,+966 11 482 2474,https://www.gob.pe/embajada-del-peru-en-arabia-saudita,Su-Th 09:00-16:00,
سفارة تنزانيا,office,diplomatic,24.7274313,46.6752451,,ابن هبة الله 1,+966 (11) 454 2833,https://www.sa.tzembassy.go.tz,Su-Th 08:30-15:30,
مؤسسة أنا مقاول للمقاولات,office,estate_agent,24.7990034,46.731421,,,,,,
المشعل للعقارات محمد بن العبدالعزيز,office,estate_agent,24.7991099,46.7313655,,,,,,
شركة فؤاد الصالح وخالد الضويلع للاستشارات الهندسية والبيئية,office,company,24.8020244,46.7294995,,,,,,
مكتب الجردان للعقارات,office,estate_agent,24.8015673,46.7297514,,,,,,
برج اتصالات لموبايلي,office,telecommunication,24.7984996,46.7313065,,,,,,
شركة شبكات المستقبل للإتصالات,office,telecommunication,24.7983138,46.7313788,,,,,,
الصندوق الخيري الاجتماعي,office,ngo,24.7973255,46.7318904,,,,,,
الهيئة العامة للنقل,office,government,24.7886549,46.6374003,,,,,,
مجمو عة بوتيك,office,company,24.6863691,46.6265537,,,,http://boutiquegroup.com,Su-Th 09:00-17:00,
شركه فحص تسربات ه,office,company,24.576195,46.7670686,,,0555786145,,24/7,
Unicharm Gulf Hygienic Industries Ltd.,office,company,24.5463335,46.9007794,,,,,,
Unicharm Gulf Hygienic Industries Ltd,office,company,24.5463219,46.9002958,,,,,,
ابانا,office,company,24.6753796,46.6620355,,,,,,
ALNAMI LAW FIRM,office,lawyer,24.6908399,46.7539151,,AL Nahdha,+966114767161,ALNAMILAWFIRM.SA,Su-Th 09:00-17:00,
العثيم القابضة,office,company,24.7820003,46.6482778,العثيم القابضة,,,,,
ATAD Advertising Est.,office,advertising_agency,24.6677578,46.7297361,,,+966500175828,http://www.atadadvertising.com/,,
العجلان ريفييرا,office,estate_agent,24.8265083,46.6023209,,شارع أحمد بن شبانة 6847,⁦+966 9200 33158⁩,https://alajlaninvest.com/,Mo-Fr 09:00-17:00,
Etejah اتجاه,office,consulting,24.7775714,46.6880335,,الدائري الشمالي,,http://www.etejah.com,,
موبايلي,office,telecommunication,24.7908571,46.6480068,,,,,,موبايلي
خالد محمد الدويس للعقارات,office,estate_agent,24.7947606,46.6581354,خالد محمد الدويس للعقارات,,,,,
المحمدية للعقارات,office,estate_agent,24.7943565,46.6571383,المحمدية للعقارات,,,,,
الراجحي الاستثمارية,office,company,24.7474477,46.7092715,الراجحي الاستثمارية,,,,,
شركة ولاء للتأمين,office,insurance,24.7458056,46.7078957,شركة ولاء للتأمين,,,,,
shafaq alsharq,office,company,24.6808607,46.7012998,,عبد العزيز بن مساعد بن جلوي,+966569101187,https://sh-sharq.com/,09:00-17:00,
Devoteam,office,company,24.6931996,46.7022261,,Prince Abdulaziz Ibn Musaid Ibn Jalawi St 7101,,,,
المكتب الرئيسي لشركة الوطنية الزراعية,office,company,24.817396,46.7792013,,"Tulip Square Business Center, Al Munsiyah 1st floor, office no 22",+966507877811,https://www.watania-agri.com/,Su-Th 08:00-17:00,
aDawliah,office,company,24.663881,46.7067218,,,+966 11 409 1065;+966 11 459 7855,https://adawliahshop.com,"Mo-Th,Sa-Su 10:00-18:30",
إرتكان العقارية,office,estate_agent,24.8189905,46.6443365,,شارع أنس بن مالك,00966504377330,,Su - Th 9:00 - 18:30,
Gulf Factory for metals,office,company,24.5713813,46.8830436,,,,,,
شركة السدره للأدوية,office,company,24.6927478,46.7237949,,شارع صلاح الدين الأيوبي 2071,+966114000036,https://www.acedrarx.com/,,
شركة منارات نجد للاستشارات الهندسية,office,consulting,24.6538862,46.588508,,Al Taief 6179,+966553451080,https://www.mnaratnjd.com,Mo-Su 09:00-21:00,
وزارة التعليم,office,government,24.7407378,46.6946904,وزارة التعليم,,,,,
SAPTCO passport and visa check,office,diplomatic,24.5963875,46.7470568,,,,,,
سوبر أوفيس,office,coworking,24.5948554,46.6951111,,صيدا,+966920032320,https://superoffice.sa/,24/7,
المنزل البارد للتكييف والتبريد,office,company,24.8882697,46.6093299,,شارع عبدالله الخزرجي RRRA2967,,,,
شركة المعماريون الخليجيون للمقاولات,office,consulting,24.7383,46.7979174,,,,,,
مؤسسة فقاعات للتجارة,office,yes,24.7012909,46.6749085,,,,,,
شركة الطعيس والمعطش وشركاؤهم,office,company,24.6854134,46.6754937,,طريق التخصصي,,,,
شركة ارت,office,company,24.6853532,46.6755069,,طريق التخصصي,,,,
Libg Solutions,office,company,24.6852769,46.6755468,,طريق التخصصي,,,,
مكتب فيصل فهد الحارثي للمحاماة والاستشارات القانونية,office,company,24.6852669,46.6756991,,طريق التخصصي,,,,
شركة تغريد العالمية,office,company,24.6852228,46.6757323,,طريق التخصصي,,,,
شركة بالرياض,office,company,24.6864431,46.675402,,سكاكا,,,,
Aurisage,office,company,24.6852991,46.6758813,,الأمير سلطان بن عبدالعزيز,,,,
جمعية مناعة الخيرية,office,charity,24.6855054,46.676187,,سكاكا,,,,
سلسلة نقاط التركيز للخدمات التسويقية,office,advertising_agency,24.6854609,46.6767789,,الأمير سلطان بن عبدالعزيز,,,,
وايت ماء شمال الرياض,office,yes,24.7605163,46.7152028,,,,,,
مكتب تعليم العليا,office,government,24.7518007,46.6679544,,,,,,
Embassy of the Turkish Republic to Yemen,office,diplomatic,24.6805013,46.6208938,,,+966 11 482 0101,https://sana-be.mfa.gov.tr,"Su-Th 09:00-12:30,14:00-17:00",
Nextcare,office,insurance,24.7423312,46.6493618,,,+966 11 203 3541,https://www.nextcarehealth.com,"Mo-Th,Su 09:00-18:00",
وفد الاتحاد الأوروبي,office,diplomatic,24.6995618,46.6669165,وفد الاتحاد الأوروبي,ثابت اللغوي 25,+966 11 482 7057,https://www.eeas.europa.eu/delegations/%D8%A7%D9%84%D9%85%D9%85%D9%84%D9%83%D8%A9-%D8%A7%D9%84%D8%B9%D8%B1%D8%A8%D9%8A%D8%A9-%D8%A7%D9%84%D8%B3%D8%B9%D9%88%D8%AF%D9%8A%D8%A9_ar,Su-Th 08:00-17:00,
وكالة مشعل للدعاية والاعلان,office,advertising_agency,24.6539223,46.7529313,,طريق عمر بن الخطاب,+966576210344,,Mo-Su 09:00-22:00,
Solid Design Studio,office,advertising_agency,24.8122232,46.647858,,,,,,
Neoleap,office,company,24.7114626,46.6311387,,,,,,
Neoleap,office,company,24.7114075,46.6311145,,,,,,
Saudi Heritage Preservation Society,office,foundation,24.6468502,46.7081889,,,,,,
StandardTouch,office,company,24.7133929,46.6755148,,"P O. 385038, Riyadh 11355, Saudi Arabia",+966591153847,http://standardtouch.com/,,
مركز لطف الانسان الطبي للاستشارات والعلاج النفسي,office,therapist,24.7775285,46.6651874,مركز لطف الانسان الطبي للاستشارات والعلاج النفسي,طريق الملك عبدالعزيز الفرعي,,,24/7,
مركز الملك سلمان للإغاثة والأعمال الإنسانية,office,government,24.7137207,46.6316709,مركز الملك سلمان للإغاثة والأعمال الإنسانية,,+966 920008554,https://www.ksrelief.org/ar,,
وزارة البلديات والإسكان,office,government,24.7133796,46.6313383,وزارة البلديات والإسكان,,+966114569999,https://momah.gov.sa/ar,,
الهيئة العامة للعقار,office,government,24.8134323,46.6252396,,شارع العليا,,,,
وزارة الداخلية,office,government,24.6703308,46.695747,,,,,,
Ministry of Petroleum,office,government,24.6831648,46.7100485,,,,,,
General Organisation For Social Insurance,office,government,24.686351,46.7174981,,,,,,
مركز المعلومات الوطني (وزارة الداخلية),office,government,24.6856759,46.7092213,,,,,,
مجلس الصحة لدول مجلس التعاون,office,yes,24.6730839,46.6256063,,,,https://www.ghc.sa/,,
الهيئة السعودية للتخصصّات الصحية,office,government,24.6730949,46.6242362,,,920019393,https://www.scfhs.org.sa/,Su-Th 08:00-16:00,
المنظمة العربية للهلال الأحمر والصليب الأحمر,office,association,24.6736447,46.6248542,,,,,,
وزارة الشؤون البلدية والقروية,office,government,24.7299105,46.6649904,,Olaya Street,,,,
Riyadh Traffic Department,office,government,24.6556645,46.6863175,,,,,,
Unnamed,office,government,24.7476635,46.7432443,,,,,,
وزارة الخارجية,office,government,24.6492255,46.6923673,وزارة الخارجية,,,https://www.mofa.gov.sa/,,
القيادة العسكرية الموحدة لدول مجلس التعاون,office,government,24.9050728,46.6500777,,,,,,
برج تمكين,office,government,24.8214685,46.6197217,,3,,,,
G114 Auditorium,office,yes,24.7514487,46.7256694,,,,https://ricec.com.sa/(X(1)S(0pj1th55shiz1fjyv5uyij55))/en_Conference_Centre.aspx,,
Admin,office,yes,24.7510575,46.7256081,,,,,,
Main Lounge,office,yes,24.7519294,46.7257368,,,,,,
Lecture Hall 1/2,office,yes,24.7517915,46.7255981,,,,,,
Unnamed,office,yes,24.7518228,46.7259036,,,,,,
Reception Hall 3,office,yes,24.7518932,46.7259156,,,,,,
Reception Hall 2,office,yes,24.7519906,46.7259322,,,,,,
وزارة التعليم,office,government,24.7410815,46.701458,,,,,,
سفارة ماليزيا,office,diplomatic,24.6797706,46.6222841,,,,,,
سفارة المملكة المغربية,office,diplomatic,24.6802211,46.6221903,,,,,,
سفارة تونس,office,diplomatic,24.6805582,46.6221553,,,,,,
مكتب التربية العربي لدول الخليج,office,educational_institution,24.6771264,46.6236393,,Amr Bin Umaia Azzamri Road 7054,,,,
Embassy of Oman,office,diplomatic,24.6722176,46.6209377,,,,,,
المركز الاقليمي للجودة والتميز في التعليم,office,government,24.6759141,46.6242799,,,,,,
Unnamed,office,yes,24.6825677,46.625395,,,,,,
سفارة جمهورية نيجيريا الإتحادية,office,diplomatic,24.6771155,46.6228572,,Abdullah Bin Hazafa As-Shami Road PO 94386,,http://nigeria.org.sa/,,
SAR Admin,office,government,24.8566002,46.7673079,,,,,,
Embassy of Sri Lanka,office,diplomatic,24.676117,46.6259225,,,,,,
Unnamed,office,diplomatic,24.6749025,46.621774,,,,,,
سفاره جامبيا,office,diplomatic,24.6837037,46.6286647,,,,,,
مدينة تدريب الأمن العام,office,government,24.7794297,46.8777848,,,,,,
Unnamed,office,government,24.7639819,46.851928,,,,,,
SANG Office,office,government,24.7034627,46.8574035,,,,,,
Unnamed,office,administrative,24.5181179,46.8893078,,,,,,
Unnamed,office,administrative,24.5187026,46.8897314,,,,,,
Unnamed,office,government,24.6656071,46.7876952,,,,,,
Unnamed,office,educational_institution,24.647961,46.7047106,,,,,,
Unnamed,office,educational_institution,24.6148769,46.727766,,,,,,
STC مجمع الملك عبد العزيز للاتصالات,office,it,24.7528539,46.6904277,,Imam Saud St,,,,
شركة فتكر للتجارة الدولية,office,company,24.6512199,46.7093304,,فالح بن صغير,,,Su-Th 08:00-17:00,
Unnamed,office,government,24.5884564,46.535195,,,,,,
General Directorate of Civil Defense,office,government,24.8990805,46.9327869,,,,,,
Security Forces Command Facilities,office,government,24.889561,46.9355336,,,,,,
المديرية العامة للجوازات,office,government,24.8740276,46.9237309,,,,,,
General Directorate of Prisons,office,government,24.8770669,46.9276967,,,,,,
General Directorate of Narcotics Control,office,government,24.8807117,46.9324732,,,,,,
Unnamed,office,government,24.8846071,46.9250079,,,,,,
Unnamed,office,government,24.7887484,46.8007075,,,,,,
SFDA Saudi Customs,office,government,24.976668,46.6928391,,,,,,
سفارة الجزائر,office,diplomatic,24.6775203,46.6201238,,,,,,
سفارة بوركينا فاسو,office,diplomatic,24.6767112,46.6197997,,,,,,
Ambassador's Residence of Brasil,office,diplomatic,24.676633,46.6185519,,,,,,
سفارة باكستان,office,diplomatic,24.6768575,46.6212078,,8th Roundabout PO 94007,,http://www.pakembassyksa.com/,,
Embassy of New Zealand,office,diplomatic,24.6731133,46.6214016,,Abdullah Bin Hazafa As-Shami Road,+966 11 4887988,https://www.mfat.govt.nz/en/countries-and-regions/middle-east/saudi-arabia/new-zealand-embassy/,"Su-Th 09:00-12:00,12:30-15:00",
Embassy of Qatar,office,diplomatic,24.6737165,46.6216064,,Abdullah Bin Hazafa As-Shami Road,,,,
Unnamed,office,diplomatic,24.6742626,46.6217807,,Abdullah Bin Hazafa As-Shami Road,,,,
Unnamed,office,diplomatic,24.6721415,46.6247489,,,,,,
هيئة التقييس لدول مجلس التعاون لدول الخليج العربية,office,association,24.6714151,46.6254338,,,,https://www.gso.org.sa/,,
سفارة جمهورية كازاخستان,office,diplomatic,24.6738988,46.6278942,,Amr Bin Umaia Azzamri Road PO 94012,+966 11 480 6406,https://www.gov.kz/memleket/entities/mfa-riyadh,,
سفارة الجمهورية الصينية الشعبية,office,diplomatic,24.6734706,46.6262567,,Amr Bin Umaia Azzamri Road PO 75231,+966-11-4832126,http://sa.china-embassy.org/,Su-Th 08:30-14:30,
Unnamed,office,diplomatic,24.6750396,46.6231479,,,,,,
السفارة المصرية,office,diplomatic,24.6722425,46.6227753,,Abdullah Bin Hazafa As-Shami Road,+966114810159,,,
سفارة أستراليا,office,diplomatic,24.6754979,46.6216788,,Abdullah Bin Hozafa As-Shami Road PO 94000,,https://saudiarabia.embassy.gov.au/,,
Ambassador's Residence of Tunisia,office,diplomatic,24.6774137,46.6193176,,,,,,
Embassy of Greece,office,diplomatic,24.6789085,46.6211508,,Abdullah Bin Hazafa As-Shami Road,,,,
سفارة الولايات المتحدة الأمريكية,office,diplomatic,24.6814151,46.6203649,,,,https://sa.usembassy.gov/,,
السفارة السودانية بالرياض,office,diplomatic,24.678368,46.6212457,,Abdullah Bin Hazafa As-Shami Road,,,,
سفارة الكويت,office,diplomatic,24.6777681,46.621366,,Abdullah Bin Hazafa As-Shami Road,,,,
سفارة تركيا,office,diplomatic,24.6802395,46.620989,,Abdullah Bin Hazafa As-Shami Road 8604,+966 11 482 0101,https://riyadh-emb.mfa.gov.tr,Su-Th 08:30-16:30,
سفارة الدنمارك,office,diplomatic,24.6795012,46.6247211,,Ibn Shamil PO 94398,,,,
سفارة فنلندا,office,diplomatic,24.6801552,46.624614,,Ibn Shamil PO 94363,,http://www.finland.org.sa/,,
سفارة النرويج,office,diplomatic,24.6789661,46.6248062,,Ibn Shamil PO 94380,,,,
سفارة الجمهورية اليمنية,office,diplomatic,24.6783048,46.6248679,,Abu Bakar Al Karkhi,,,,
سفارة إثيوبيا,office,diplomatic,24.6773856,46.6250369,,Abu Bakar Al Karkhi,,,,
سفارة لبنان,office,diplomatic,24.6777536,46.6271653,,Abu Bakar Al Karkhi PO 94350,,http://riyadh.mfa.gov.lb/saudiarabia,,
سفارة جمهورية سنغافورة,office,diplomatic,24.6756369,46.6262519,سفارة جمهورية سنغافورة,PO 94378,+966-11-480-3855,https://www.mfa.gov.sg/Riyadh,Su-Th 08:00-15:30,
السفارة الاماراتية,office,diplomatic,24.6751394,46.6266808,السفارة الاماراتية,شارع عمر بن أمية الضمري,+96-61-14881227,https://sp.mofaic.gov.ae/EN/DiplomaticMissions/Embassies/Riyadh/Pages/home.aspx,Su-Th 08:00-15:00,
السفارة السنغالية,office,diplomatic,24.6783314,46.6261486,,PO 94352,,,,
سفارة إندونيسيا,office,diplomatic,24.6814281,46.6249645,,Ibn Shamil PO 94343,,http://www.kemlu.go.id/riyadh/,,
سفارة الكاميرون,office,diplomatic,24.6812455,46.6260803,,Omaya Abu Al Salt PO 94336,,http://www.ambacamsaudi.org/,,
سفارة المملكة الأردنية الهاشمية,office,diplomatic,24.6811105,46.6267359,,Omaya Abu Al Salt,,,,
سفارة الفلبين,office,diplomatic,24.6808009,46.6274903,,Omaya Abu Al Salt PO 94366,,,,
سفارة كندا,office,diplomatic,24.6817567,46.6273082,,Omaya Abu Al Salt PO 94321,966 (11) 202-3200,https://www.saudiarabia.gc.ca/,,
سفارة جمهورية ألمانيا الاتحادية,office,diplomatic,24.6860923,46.623508,,,+966 112 776900,https://saudiarabien.diplo.de/,,
Embassy of Iran,office,diplomatic,24.685635,46.6273341,,,,,,
سفارة العراق,office,diplomatic,24.6875782,46.6298147,,طريق عبد الله بن حذافة السهمي 3723,+966-11-4806514;+966-11-4807496;+966-11-4807892,https://www.mofa.gov.iq/riyadh/,Mo-Si 09:00-15:00,
سفارة غانا,office,diplomatic,24.6873741,46.6225614,,,,,,
سفارة البحرين,office,diplomatic,24.6822858,46.6261489,,Omaya Abu Al Salt,,,,
سفارة جمهورية كوريا,office,diplomatic,24.6839406,46.6265764,,,+966-11-488-2211,https://overseas.mofa.go.kr/sa-ko/index.do,,
Embassy of Syria,office,diplomatic,24.6842306,46.6273832,,,,,,
سفارة فرنسا,office,diplomatic,24.6845213,46.6280563,,,,http://www.ambafrance-sa.org/,,
سفارة إيطاليا,office,diplomatic,24.6849626,46.629011,,,,,,
سفارة البرازيل,office,diplomatic,24.6842464,46.6293213,,,,,,
سفارة إسبانيا,office,diplomatic,24.6855758,46.6302821,,,,,,
سفارة الهند,office,diplomatic,24.6858023,46.6308613,,,+966-11-4884144,https://www.eoiriyadh.gov.in/,Su-Th 09:00-17:30,
سفارة غينيا,office,diplomatic,24.6839837,46.6319797,,,,,,
سفارة أيرلندا,office,diplomatic,24.6877132,46.6238546,سفارة أيرلندا,الإدريسي 3114,+966 11 407 1530,https://www.ireland.ie/en/saudiarabia/riyadh,Su-Th 09:00-16:00,
Embassy of the Netherlands,office,diplomatic,24.6885939,46.6288203,,,,,,
سفارة بلجيكا,office,diplomatic,24.6888108,46.6293292,,طريق عبد الله بن حذافة السهمي 2,,https://saudiarabia.diplomatie.belgium.be/,,
سفارة السويد,office,diplomatic,24.689194,46.6300448,,Collector Road B,,,,
السفارة البريطانية بالرياض,office,diplomatic,24.6881406,46.6274006,السفارة البريطانية بالرياض,,,https://www.gov.uk/world/organisations/british-embassy-riyadh,Su-Th 08:00-15:00;PH off,
Embassy of Japan,office,diplomatic,24.6866031,46.6245553,,,,,,
مؤسسة الملك عبدالله بن عبدالعزيز العالمية للأعمال الانسانية,office,foundation,24.7065407,46.6553885,,,,https://kahf.org.sa/,,
سفارة مملكة تايلاند,office,diplomatic,24.6883256,46.6259069,,,,,,
السفارة الليبية,office,diplomatic,24.6852084,46.6266301,,,,,,
سفارة جمهورية كينيا,office,diplomatic,24.6867007,46.6298991,,,,http://www.kenyaembassyriyadh.com,,
311 Buildings,office,educational_institution,24.4829561,46.6229663,,,,,,
Unnamed,office,government,24.7432032,46.6285073,,,,,,
مبنى 45,office,it,24.7531299,46.6943711,,,,,,
وزارة العمل والتنمية الاجتماعية - قطاع العمل,office,government,24.7459982,46.681911,,طريق الملك عبدالعزيز,0533529997,https://mol.gov.sa/,,
مركز ريادة الأعمال الرقمية,office,government,24.748302,46.6876846,,,,,,
الشركة السعودية للكهرباء,office,energy_supplier,24.7630581,46.58964,,,,,,
الادارة العامة للاتصالات السلكية,office,government,24.7544282,46.636183,,,,,,
Unnamed,office,government,24.643285,46.6962229,,,,,,
SBA,office,government,24.6431974,46.6950915,,,,,,
Unnamed,office,government,24.7231425,46.7429871,,,,,,
Unnamed,office,government,24.722512,46.7418727,,,,,,
Unnamed,office,government,24.7219253,46.7408634,,,,,,
Unnamed,office,government,24.7198239,46.7416662,,,,,,
Unnamed,office,government,24.718761,46.7422594,,,,,,
Unnamed,office,government,24.7248837,46.7472647,,,,,,
Unnamed,office,government,24.7170739,46.7431435,,,,,,
Unnamed,office,educational_institution,24.663982,46.6493741,,,,,,
Unnamed,office,government,24.7298314,46.6655402,,,,,,
Unnamed,office,government,24.6859915,46.7080283,,,,,,
Unnamed,office,government,24.6860045,46.708956,,,,,,
Unnamed,office,government,24.6850324,46.7097907,,,,,,
وزارة الدفاع,office,government,24.669044,46.7166098,وزارة الدفاع,,,,,
Unnamed,office,government,24.6667811,46.7078602,,,,,,
الإدارة العامة للأحوال المدنية,office,government,24.6524391,46.7136699,,,,,,
الموسسة العامة للتدريب التقني والمهني,office,government,24.6486953,46.7278888,,شارع الأمير فهد بن إبراهيم ال سعود,,,,
Unnamed,office,government,24.6494095,46.7315465,,,,,,
القوات الخاصة للأمن والحماية,office,government,24.648668,46.7319574,,الخرج,,,,
Unnamed,office,government,24.6288124,46.717415,,,,,,
Unnamed,office,government,24.6964356,46.7157615,,الملك عبدالعزيز,,,,
Unnamed,office,government,24.6939147,46.7194405,,,,,,
Al jamil optical Al Rwabi,office,company,24.6859692,46.794278,,,,,,
مديرية صحة الرياض,office,government,24.7001683,46.7628696,,,,www.riyadhealth.med.sa,,
Unnamed,office,government,24.7001786,46.7633134,,,,,,
ديوان المظالم,office,government,24.7090246,46.6205172,,,,,,
مكتب التعليم بغرب الرياض للبنين,office,government,24.5936847,46.6143129,,,,,,
STC Sales Office,office,telecommunication,24.5878153,46.6036016,,,,,,
تعبئة المياة السويدي,office,water_utility,24.590936,46.703014,,,,,,
الإتصالات السعودية,office,telecommunication,24.5767195,46.6808052,,,,,,
الشركة السعودية للكهرباء,office,company,24.7559074,46.6516586,,,,,,
شركة الاتصالات السعودية,office,telecommunication,24.7594985,46.6921524,,الإمام سعود بن عبدالعزيز بن محمد,,,,
شركة المياه الوطنية,office,water_utility,24.5743121,46.5313826,,,,,,
Unnamed,office,telecommunication,24.5880477,46.6032789,,,,,,
محطة مياه البديعة 3,office,water_utility,24.5768532,46.6060767,,,,,,
محطة وادي لبن للمياه,office,water_utility,24.6322149,46.5849111,,,,,,
وزارة التعليم,office,government,24.7396918,46.7001342,,,,,,
شعبة جوازات مجمع الملك عبدالعزيز للاتصالات,office,government,24.7568493,46.687467,,,,,,
شركة المياه الوطنية (الصيانة الثانية),office,water_utility,24.6047706,46.7672857,,,,,,
وزارة الخارجية إدارة الوثائق والترجمة,office,government,24.6779533,46.6236416,,,,,,
المعهد الثقافي الفرنسي,office,diplomatic,24.6785048,46.623573,,,,,,
سفارة جمهورية أفغانستان الإسلامية,office,diplomatic,24.680789,46.6233028,,PO 93337,,,,
سفارة موريشيوس,office,diplomatic,24.6847956,46.6242426,,Abdullah Bin Hazafa As-Shami Road 84,+966 11 482 9567,,,
سفارة المكسيك,office,diplomatic,24.6857962,46.6252724,سفارة المكسيك,طريق عبد الله بن حذافة السهمي 3293,,https://embamex.sre.gob.mx/arabiasaudita/,,
Embassy of Switzerland,office,diplomatic,24.6870375,46.6253756,,Diplomatic quarter,+966 11 488 12 91,https://www.eda.admin.ch/countries/saudi-arabia/en/home/representations/embassy.html,,
Embassy of Austria,office,diplomatic,24.6872673,46.6259204,,,,,,
Embassy of Taiwan,office,diplomatic,24.6874962,46.6264591,,,,,,
Embassy of Bangladesh,office,diplomatic,24.7435982,46.7091658,,,,,,
سفارة النيجر,office,diplomatic,24.7244522,46.6739707,,,,,,
سفارة بولندا,office,diplomatic,24.7291702,46.6704107,,Umar bin Dhafr Street 20,+966 11 4508889,https://www.gov.pl/web/arabiasaudyjska,,
السفارة السيرلانكيه,office,diplomatic,24.6951441,46.6937439,,أحمد عبدالغفور عطار 2979,+966 11 460 8249,https://slemb.org.sa,Su-Th 08:30-16:30,
سفارة جمهورية مالي,office,diplomatic,24.7394695,46.6493004,,شارع حمد بن عبدالعزيز 27,,,,
سفارة الصومال,office,diplomatic,24.723593,46.6757775,,,,,,
سفارة أوغندا,office,diplomatic,24.7298049,46.6853462,,,,,,
سفارة جمهورية تشاد,office,diplomatic,24.6650085,46.7059572,,,,,,
سفارة غامبيا,office,diplomatic,24.7290433,46.6881997,,النقرة 10,,,,
سفارة جمهورية الأرجنتين,office,diplomatic,24.6833909,46.6795809,,حبيب الحنظلي 4,+966 11-4652600,https://earab.cancilleria.gob.ar,,
سفارة فنزويلا,office,diplomatic,24.6796214,46.6235185,,,,,,
Embassy of Burundi,office,diplomatic,24.7438257,46.69255,,,,,,
سفارة البرتغال,office,diplomatic,24.7163287,46.6775709,,الأمير فيصل بن سعد بن عبدالرحمن 56,+966 114 826 964,https://riade.embaixadaportugal.mne.gov.pt,,
سفارة إيسواتيني,office,diplomatic,24.7166681,46.6774049,سفارة إيسواتيني,,,,,
سدر,office,yes,24.7758674,46.8022732,,,,,,
Administration,office,yes,24.7783226,46.8037082,,,,,,
المؤسسة العامة لتحلية المياه المالحة,office,government,24.6965447,46.6810539,,,,https://www.swcc.gov.sa/,,
هيئة الامر بالمعروف والنهي عن المنكر بالدرعية,office,government,24.7381794,46.5795006,,,,,,
مستودع جمعية الامام محمد بن سعود الخيرية,office,charity,24.7492224,46.5738324,,,,,,
مركز الدعوه والارشاد بالدرعية القديم,office,government,24.7481218,46.5746386,,,,,,
Electricity company Dir'iya,office,energy_supplier,24.7393419,46.5804532,,,,,,
Dar Salma Bint Hamza For Memorising The Quran,office,educational_institution,24.7459884,46.5779631,,,,,,
Unnamed,office,educational_institution,24.7434079,46.5785105,,8080,,,,
Unnamed,office,educational_institution,24.7430854,46.5786311,,8024,,,,
Unnamed,office,educational_institution,24.7427889,46.5783131,,,,,,
Fahad Hassan Al-Garni Office for General Services,office,yes,24.7447076,46.579539,,,,,,
Unnamed,office,yes,24.7408481,46.5724674,,,,,,
Unnamed,office,yes,24.7410706,46.5722775,,,,,,
Unnamed,office,yes,24.745143,46.5736677,,,,,,
Unnamed,office,charity,24.752437,46.5794669,,,,,,
وزارة النقل الإدارة العامة للطرق,office,government,24.7911358,46.6340996,,,,,,
وزارة الطاقة,office,government,24.7421486,46.6362527,,,,,,
صندوق التنمية الزراعية,office,government,24.672501,46.7000638,,,,https://www.adf.gov.sa,,
وزارة الحج والعمرة,office,government,24.6737515,46.7030873,,,,https://www.haj.gov.sa,,
سفارة جنوب أفريقيا,office,diplomatic,24.7020809,46.6183916,,Mohamed Al Abaderi 7184,+966 11 442 9716,,,
العمادة,office,yes,24.7579891,46.6908129,,,,,,
القبول,office,telecommunication,24.7568128,46.6903554,,,,,,
شركة الاتصالات السعودية,office,telecommunication,24.8328008,46.7336555,,,,,,شركة الاتصالات السعودية
الطيار للشحن,office,courier,24.9180147,46.698047,,,,,,
جوازات الرياض,office,government,24.6595532,46.7023385,,,,,Su-Th 07:00-14:00,
Unnamed,office,notary,24.6956973,46.5955174,,,,,,
مركز الملك عبدالله للدراسات والبحوث البترولية,office,association,24.8717051,46.712018,,,,https://www.kapsarc.org/,,
وزارة الصناعة والثروة المعدنية,office,government,24.6522029,46.7493348,,,,mim.gov.sa,,
مركز الوثائق والمحفوظات فرع وزارة النقل,office,government,24.6526998,46.7515814,,,,,,
NCEC,office,government,24.7851329,46.7321757,,,,,,
يوني بارت,office,logistics,24.910144,46.6958186,,,,,,
شركة ديباج للمقاولات المحدودة,office,company,24.6876852,46.6783001,,أبي العيناء اليمامي,,,,
شركة اليمامة للإستثمار والتطوير العقاري,office,company,24.6861191,46.6780994,,الأمير سلطان بن عبدالعزيز,,,,
شركة قطاف المستقبل للصناعات الغذائية,office,company,24.6862613,46.6784662,,الأمير سلطان بن عبدالعزيز,,,,
شركة تصليح افران,office,company,24.6932074,46.6802137,,الغروب,,,,
Unnamed,office,company,24.6892238,46.6795757,,ابن البناء,,,,
Unnamed,office,company,24.6894284,46.6794372,,,,,,
شركة شافي المثالي,office,company,24.7026309,46.6705392,,علي قدس,,,,
الهيئة العامة للطرق,office,government,24.8271502,46.6184411,,طريق العليا العام,,,,
الإدارة العامة للنظافة,office,government,24.6666466,46.7318686,,شارع صلاح الدين الأيوبي,,,,
وزارة الرياضة,office,government,24.6597822,46.7265697,,Al Farzdaq Street,,,,
شركة عبدالله ابراهيم الصايغ و اولادة,office,company,24.8227063,46.6543984,,,,,,
سياد للإستثمار - SYAD Company,office,company,24.6702382,46.7374032,,الاحساء,,,,
مبنى ديوان وزارة العدل,office,government,24.6596345,46.7253038,,شارع الشايب,,,,
مجموعة مثمرات - Mothmerat Group,office,company,24.6679348,46.7395326,,الأمين عبدالله العلي النعيم,,,,
وكالة امانة منطقة الرياض لشؤون بلديات المنطقة,office,government,24.6804002,46.7562742,,يوسف بن مصامد,,,,
الادارة النسائية بوزارة الدفاع,office,government,24.6830213,46.7220886,الادارة النسائية بوزارة الدفاع,,,,,
شؤون موظفي ديوان وزارة الدفاع,office,government,24.6843669,46.7217548,,,,,,
وحدة التنمية الأسرية بالملز,office,government,24.6830572,46.7198161,,,,,,
مجموعة شركات الظاهري الولية,office,company,24.6720235,46.7454591,,علي بن أبي طالب,,,,
إدارة الأدلة الجنائية,office,government,24.6705393,46.7449574,,,,,,
Unnamed,office,government,24.6818241,46.7436744,,الوسطى,,,,
سفارة قبرص,office,diplomatic,24.7164914,46.6774814,,الأمير فيصل بن سعد بن عبدالرحمن,,,,
شركة العويضة للتنمية,office,company,24.6615767,46.7438915,,الأمين عبدالله العلي النعيم,,,,
Unnamed,office,diplomatic,24.7161758,46.6776476,,,,,,
Unnamed,office,yes,24.7070302,46.714119,,,,,,
مصلحة مطابع الحكومة,office,government,24.7029253,46.7173155,,,,,,
شركة علي زيد القرشي وإخوانة,office,foundation,24.6953284,46.7355463,,,,,,
شركة ثمار الجزيرة,office,company,24.6967584,46.7435493,,,,,,
Unnamed,office,company,24.7549036,46.6569628,,الصبيحية,,,,
Unnamed,office,diplomatic,24.7273895,46.6751723,,الداخلة,,,,
جمعية فتاة العشرين,office,charity,24.7508991,46.6724892,,سليط التميمي,,,,
هيئة الاتصالات والفضاء والتقنية,office,government,24.7369253,46.6340945,,شارع وادي المعيدن,,,,
هيئة الزكاة والضريبة والجمارك,office,government,24.7567343,46.6512403,,وادي الحياة,,,,
وزارة النقل والخدمات اللوجستية,office,government,24.7580923,46.6518541,,,,,,
الادارة العامة لدوريات الامن,office,government,24.7583224,46.6522145,,Al Olaya,,,,
شركة الكهرب,office,energy_supplier,24.6532188,46.7334702,,,,,,
Unnamed,office,energy_supplier,24.6535213,46.7336912,,شارع ابن الطيب,,,,
Unnamed,office,energy_supplier,24.6529981,46.7321184,,شارع ابن الطيب,,,,
Unnamed,office,energy_supplier,24.6529171,46.7322985,,شارع ابن الطيب,,,,
Embassy of Gabon,office,diplomatic,24.7476176,46.680523,,ابن الطفيل,,,,
جمعية الكشافة العربية السعودية,office,government,24.6590625,46.7286302,,شارع الخيال,,,,
إدارة الميزانية العامة,office,government,24.6517383,46.7171771,,,,,,
Unnamed,office,government,24.6527566,46.7185544,,شارع بلال بن سالم,,,,
الإدارة العامة للصحة العامة,office,government,24.7528197,46.6658232,,المغيرة بن شعبة,,,,
مركز لُطف الإنسان,office,therapist,24.7774983,46.6651671,,الملك عبدالعزيز,,,,
المجموعة السعودية للأبحاث والإعلام,office,yes,24.6756546,46.6822562,,,,,,
وزارة الشؤون البلدية والقروية والاسكان,office,government,24.771873,46.6662457,,الملك عبدالعزيز,,,,
معهد النور للكفيفات,office,educational_institution,24.7747721,46.6634819,,,,,,
‏أمانة منطقة الرياض المبنى الرئيسي,office,government,24.6283824,46.7109689,,,,,,
