Name,Type,Subtype,Latitude,Longitude,Arabic Name,Address,Phone,Website,Hours,Brand
Prince Salman Science Oasis,leisure,sports_centre,24.6788131,46.6311467,,,,,,
منتزه سد وادي نمار,leisure,park,24.5730216,46.6829673,,,,,,
قوة الرياضي,leisure,sports_centre,24.5677679,46.8394232,,,,,,
Unnamed,leisure,playground,24.7613381,46.7214077,,,,,,
Unnamed,leisure,pitch,24.7448661,46.695779,,,,,,
Unnamed,leisure,playground,24.7365078,46.7207861,,,,,,
Unnamed,leisure,playground,24.7538335,46.5682191,,,,,,
Unnamed,leisure,playground,24.7482289,46.5820326,,,,,,
Unnamed,leisure,playground,24.7505326,46.5779133,,,,,,
Unnamed,leisure,playground,24.7544344,46.5739848,,,,,,
Unnamed,leisure,playground,24.7571534,46.570389,,,,,,
Unnamed,leisure,playground,24.8992877,46.4408521,,,,,,
Sports Garden,leisure,sports_centre,24.9590496,46.5770464,,,,https://www.riyadhgolfcourses.com/sports_garden,,
Diplomatic Club Site,leisure,garden,24.6885812,46.619366,,,,,,
Bowling Alley,leisure,pitch,24.6881282,46.6194906,,,,,,
Games Hall,leisure,yes,24.6880344,46.6191192,,,,,,
Unnamed,leisure,playground,24.6171194,46.7714658,,,,,,
Unnamed,leisure,playground,24.5870113,46.8562054,,,,,,
Unnamed,leisure,playground,24.5866963,46.8570816,,,,,,
Unnamed,leisure,playground,24.5865018,46.8580529,,,,,,
Unnamed,leisure,playground,24.5859459,46.8559507,,,,,,
Unnamed,leisure,playground,24.5856864,46.8568608,,,,,,
Unnamed,leisure,playground,24.5855784,46.8577914,,,,,,
Unnamed,leisure,playground,24.5878668,46.8573839,,,,,,
Unnamed,leisure,playground,24.5876907,46.8583042,,,,,,
Unnamed,leisure,playground,24.5874746,46.8594012,,,,,,
Unnamed,leisure,playground,24.5845777,46.8555975,,,,,,
Unnamed,leisure,playground,24.5844017,46.8564974,,,,,,
Unnamed,leisure,playground,24.583676,46.8552476,,,,,,
Unnamed,leisure,playground,24.5834598,46.8563208,,,,,,
Unnamed,leisure,playground,24.584201,46.8574382,,,,,,
Unnamed,leisure,playground,24.5832837,46.8572174,,,,,,
Unnamed,leisure,playground,24.583991,46.8584672,,,,,,
Unnamed,leisure,playground,24.5839045,46.8594861,,,,,,
Unnamed,leisure,playground,24.5830181,46.8597578,,,,,,
Unnamed,leisure,playground,24.5867281,46.8608321,,,,,,
Unnamed,leisure,playground,24.5876131,46.8605225,,,,,,
Unnamed,leisure,playground,24.5869963,46.8618938,,,,,,
Unnamed,leisure,playground,24.5815279,46.85984,,,,,,
Unnamed,leisure,playground,24.5841363,46.8605531,,,,,,
Unnamed,leisure,playground,24.5856638,46.8611447,,,,,,
Unnamed,leisure,playground,24.5854044,46.860178,,,,,,
Unnamed,leisure,playground,24.58588,46.8621061,,,,,,
Unnamed,leisure,playground,24.5870568,46.8633634,,,,,,
Unnamed,leisure,playground,24.5867974,46.8645731,,,,,,
Unnamed,leisure,playground,24.5860481,46.8631204,,,,,,
Unnamed,leisure,playground,24.5844004,46.8614723,,,,,,
Unnamed,leisure,playground,24.5846166,46.8624125,,,,,,
Unnamed,leisure,playground,24.5848616,46.8633158,,,,,,
Unnamed,leisure,playground,24.5839825,46.8636328,,,,,,
Unnamed,leisure,playground,24.5842035,46.8645572,,,,,,
Unnamed,leisure,playground,24.5817104,46.8607961,,,,,,
Unnamed,leisure,playground,24.583555,46.8617998,,,,,,
Unnamed,leisure,playground,24.5829498,46.8614141,,,,,,
Unnamed,leisure,playground,24.5828345,46.863992,,,,,,
Unnamed,leisure,playground,24.5823013,46.8641716,,,,,,
Unnamed,leisure,playground,24.5831659,46.864853,,,,,,
Unnamed,leisure,playground,24.5811051,46.8622435,,,,,,
Unnamed,leisure,playground,24.5806344,46.8604105,,,,,,
Unnamed,leisure,playground,24.5813549,46.8588627,,,,,,
Unnamed,leisure,playground,24.5819746,46.8617258,,,,,,
Unnamed,leisure,playground,24.5808938,46.8613296,,,,,,
Unnamed,leisure,playground,24.5804182,46.8594755,,,,,,
Unnamed,leisure,playground,24.5797168,46.8607433,,,,,,
Unnamed,leisure,playground,24.5794911,46.8597554,,,,,,
Unnamed,leisure,playground,24.5799666,46.8616624,,,,,,
Unnamed,leisure,playground,24.5802068,46.8625921,,,,,,
Unnamed,leisure,swimming_pool,24.5800867,46.8641188,,,,,,
Unnamed,leisure,playground,24.5778674,46.8630728,,,,,,
Unnamed,leisure,playground,24.5789915,46.8612451,,,,,,
Unnamed,leisure,playground,24.5784727,46.8620745,,,,,,
Unnamed,leisure,playground,24.5784727,46.864029,,,,,,
Unnamed,leisure,playground,24.5768009,46.8602045,,,,,,
Unnamed,leisure,playground,24.5773341,46.8594174,,,,,,
Unnamed,leisure,playground,24.576383,46.8586884,,,,,,
Unnamed,leisure,playground,24.5758689,46.8594966,,,,,,
Unnamed,leisure,playground,24.5619262,46.7766457,,,,,,
Unnamed,leisure,playground,24.5342745,46.6604228,,,,,,
Unnamed,leisure,park,24.5377545,46.6653635,,,,,,
Unnamed,leisure,playground,24.5011852,46.6260137,,,,,,
Unnamed,leisure,playground,24.5325113,46.6956394,,,,,,
Unnamed,leisure,playground,24.5326472,46.6954292,,,,,,
Unnamed,leisure,playground,24.5642245,46.6366019,,,,,,
Unnamed,leisure,swimming_pool,24.6260756,46.6188823,,,,,,
Unnamed,leisure,swimming_pool,24.6271119,46.6161463,,,,,,
Unnamed,leisure,swimming_pool,24.7087451,46.6016493,,,,,,
Unnamed,leisure,swimming_pool,24.7028357,46.6101915,,,,,,
Unnamed,leisure,park,24.7657116,46.7621668,,,,,,
Unnamed,leisure,park,24.7596568,46.7539435,,,,,,
Unnamed,leisure,swimming_pool,24.7894063,46.7531461,,,,,,
Unnamed,leisure,swimming_pool,24.7900985,46.7548093,,,,,,
Unnamed,leisure,swimming_pool,24.7924222,46.7505331,,,,,,
Unnamed,leisure,swimming_pool,24.7928836,46.7515854,,,,,,
Unnamed,leisure,swimming_pool,24.7926569,46.7535073,,,,,,
Unnamed,leisure,swimming_pool,24.7928027,46.7542074,,,,,,
Unnamed,leisure,swimming_pool,24.7940738,46.753485,,,,,,
Unnamed,leisure,swimming_pool,24.7942258,46.7537138,,,,,,
Unnamed,leisure,swimming_pool,24.7940575,46.7533343,,,,,,
Unnamed,leisure,swimming_pool,24.7938412,46.7522076,,,,,,
Unnamed,leisure,swimming_pool,24.7944421,46.7543404,,,,,,
Unnamed,leisure,swimming_pool,24.793243,46.7548376,,,,,,
Unnamed,leisure,swimming_pool,24.7924261,46.7535399,,,,,,
Unnamed,leisure,pitch,24.7917164,46.7497396,,,,,,
Unnamed,leisure,swimming_pool,24.7952285,46.7569145,,,,,,
Unnamed,leisure,park,24.7979782,46.7481483,,,,,,
Unnamed,leisure,playground,24.7862872,46.7599827,,,,,,
Unnamed,leisure,playground,24.7815506,46.7611421,,,,,,
Unnamed,leisure,playground,24.7812915,46.7615702,,,,,,
Unnamed,leisure,park,24.7086606,46.8064549,,,,,,
Unnamed,leisure,park,24.7102648,46.8120913,,,,,,
Unnamed,leisure,playground,24.7135237,46.8101985,,,,,,
Unnamed,leisure,park,24.7131085,46.8147415,,,,,,
Unnamed,leisure,park,24.70251,46.8084904,,,,,,
Unnamed,leisure,park,24.704074,46.8133617,,,,,,
Unnamed,leisure,park,24.6998262,46.8165798,,,,,,
Unnamed,leisure,swimming_pool,24.693132,46.8216983,,,,,,
Unnamed,leisure,swimming_pool,24.6922897,46.8207067,,,,,,
Unnamed,leisure,swimming_pool,24.6935907,46.82598,,,,,,
Unnamed,leisure,playground,24.6960707,46.8271592,,,,,,
Unnamed,leisure,playground,24.6970503,46.8291226,,,,,,
Unnamed,leisure,swimming_pool,24.6839678,46.8238285,,,,,,
Unnamed,leisure,playground,24.6815808,46.8271854,,,,,,
Unnamed,leisure,swimming_pool,24.6804217,46.826099,,,,,,
Unnamed,leisure,playground,24.6833058,46.8297614,,,,,,
Unnamed,leisure,swimming_pool,24.6861911,46.8387127,,,,,,
Unnamed,leisure,playground,24.6874793,46.8393872,,,,,,
Unnamed,leisure,swimming_pool,24.6854819,46.8365245,,,,,,
Unnamed,leisure,swimming_pool,24.6855009,46.8368799,,,,,,
Unnamed,leisure,swimming_pool,24.6855579,46.8375489,,,,,,
Unnamed,leisure,swimming_pool,24.6854059,46.8356464,,,,,,
Unnamed,leisure,swimming_pool,24.6851969,46.8357718,,,,,,
Unnamed,leisure,swimming_pool,24.6851589,46.8360924,,,,,,
Unnamed,leisure,swimming_pool,24.6852159,46.8373816,,,,,,
Unnamed,leisure,swimming_pool,24.6853299,46.8387197,,,,,,
Unnamed,leisure,swimming_pool,24.6853109,46.8394723,,,,,,
Unnamed,leisure,swimming_pool,24.6854249,46.8372562,,,,,,
Unnamed,leisure,swimming_pool,24.6851843,46.8370471,,,,,,
Unnamed,leisure,swimming_pool,24.6870206,46.8364896,,,,,,
Unnamed,leisure,swimming_pool,24.6878374,46.8376046,,,,,,
Unnamed,leisure,swimming_pool,24.6863522,46.8354341,,,,,,
Unnamed,leisure,swimming_pool,24.6878505,46.8374714,,,,,,
Unnamed,leisure,swimming_pool,24.6865172,46.8388532,,,,,,
Unnamed,leisure,swimming_pool,24.6864288,46.8391574,,,,,,
Unnamed,leisure,swimming_pool,24.6878597,46.837663,,,,,,
Unnamed,leisure,swimming_pool,24.6849272,46.8357064,,,,,,
Unnamed,leisure,swimming_pool,24.6870682,46.8421454,,,,,,
Unnamed,leisure,playground,24.6723664,46.8085898,,,,,,
Unnamed,leisure,playground,24.6772923,46.8118937,,,,,,
Unnamed,leisure,pitch,24.6561607,46.7963334,,,,,,
Unnamed,leisure,swimming_pool,24.7940716,46.7278134,,,,,,
Unnamed,leisure,swimming_pool,24.7940446,46.7276873,,,,,,
Unnamed,leisure,swimming_pool,24.7936779,46.7270646,,,,,,
Unnamed,leisure,swimming_pool,24.7931597,46.7264716,,,,,,
Unnamed,leisure,swimming_pool,24.7933885,46.726757,,,,,,
Unnamed,leisure,playground,24.7927222,46.7293664,,,,,,
Unnamed,leisure,playground,24.7912517,46.7287956,,,,,,
Unnamed,leisure,playground,24.7905018,46.7276511,,,,,,
Unnamed,leisure,swimming_pool,24.7931236,46.7309752,,,,,,
Unnamed,leisure,swimming_pool,24.78686,46.7111982,,,,,,
Unnamed,leisure,swimming_pool,24.7880266,46.7139271,,,,,,
Unnamed,leisure,swimming_pool,24.7870398,46.7144939,,,,,,
Unnamed,leisure,swimming_pool,24.6589752,46.6865151,,,,,,
Unnamed,leisure,pitch,24.7930621,46.8051216,,,,,,
Unnamed,leisure,bowling_alley,24.7931282,46.8054613,,,,,,
Unnamed,leisure,playground,24.5835561,46.7748904,,,,,,
Fitness Time وقت اللياقة,leisure,fitness_centre,24.7731545,46.7782302,,Ash Sheikh Hassan bin Hussein bin Ali,920003131,,Sa-Th 10:00-12:00; Fr 01:30-12:00,
وقت اللياقة,leisure,fitness_centre,24.783501,46.6837206,,Abi Bakr As Siddiq Rd,,,,
Fitness Time Plus,leisure,fitness_centre,24.7835495,46.6455686,,"Ath Thumamah Rd, Ar Rabi, Riyadh 13315",920003131,https://www.fitnesstime.com.sa/,24/7,
وقت اللياقة,leisure,fitness_centre,24.7827424,46.7048157,وقت اللياقة,"Uthman Ibn Affan Branch Rd, At Taawun, Riyadh 12478",,,,وقت اللياقة
Sports Hostel,leisure,fitness_centre,24.6481859,46.6479854,,,0114811779,,,
Archery Area,leisure,fitness_centre,24.6470822,46.6479422,,,,,,
اسطبل الحرابي,leisure,horse_riding,24.9257363,46.8366627,,,+966534643469,,,
بودي ماستر,leisure,fitness_centre,24.6767202,46.8107236,,,,,,
وقت اللياقة,leisure,fitness_centre,24.7278466,46.592574,وقت اللياقة,,,,,وقت اللياقة
Unnamed,leisure,playground,24.6865326,46.7034852,,,,,,
النادي اللياقي,leisure,fitness_centre,24.6139964,46.759347,النادي اللياقي,,,,,
مضمار الفروسيه,leisure,stadium,24.6969,46.8985798,مضمار الفروسيه,,,,,
Unnamed,leisure,park,24.5987433,46.6780648,,,,,,
Unnamed,leisure,pitch,24.529096,46.6365509,,,,,,
Unnamed,leisure,pitch,24.5041443,46.5043403,,,,,,
Unnamed,leisure,pitch,24.5040439,46.5055358,,,,,,
Unnamed,leisure,pitch,24.5043703,46.5064186,,,,,,
Unnamed,leisure,pitch,24.5804313,46.522054,,,,,,
Unnamed,leisure,pitch,24.5812123,46.5279571,,,,,,
Unnamed,leisure,pitch,24.7586184,46.5371802,,,,,,
Unnamed,leisure,swimming_pool,24.7607694,46.5403069,,,,,,
Unnamed,leisure,swimming_pool,24.7611955,46.5406134,,,,,,
Unnamed,leisure,swimming_pool,24.7890634,46.5342375,,,,,,
Unnamed,leisure,swimming_pool,24.7868491,46.5324177,,,,,,
Unnamed,leisure,swimming_pool,24.7892193,46.5266956,,,,,,
Unnamed,leisure,swimming_pool,24.8107937,46.5243889,,,,,,
Unnamed,leisure,playground,25.0044067,46.4924732,,,,,,
Unnamed,leisure,pitch,25.0029097,46.4974872,,,,,,
Unnamed,leisure,pitch,25.010195,46.4970869,,,,,,
Unnamed,leisure,pitch,25.0082126,46.50511,,,,,,
بودي ماستر,leisure,fitness_centre,24.5788196,46.6637228,,شارع سدير,,,,
مركز وقت الصحة و اللياقة الرياضي,leisure,fitness_centre,24.7183643,46.8441758,,,,,,
Fitness Zone,leisure,fitness_centre,24.692628,46.6055031,,,,https://www.fitnesszone-sa.com/english,Mo-Su 09:00-21:00,
Unnamed,leisure,swimming_pool,25.0211409,46.5595823,,,,,,
Unnamed,leisure,swimming_pool,24.9030843,46.6126847,,,,,,
Unnamed,leisure,pitch,24.4851425,46.5658697,,,,,,
Unnamed,leisure,pitch,24.4850072,46.5657847,,,,,,
Unnamed,leisure,pitch,24.5804402,46.5600762,,,,,,
Unnamed,leisure,swimming_pool,24.8727167,46.597664,,,,,,
Unnamed,leisure,swimming_pool,24.9507121,46.7914818,,,,,,
Unnamed,leisure,stadium,24.7423488,46.8703698,,,,,,
Unnamed,leisure,pitch,24.5471692,46.7248753,,,,,,
Unnamed,leisure,pitch,24.5461964,46.7168146,,,,,,
Unnamed,leisure,park,24.5471483,46.7176885,,,,,,
Unnamed,leisure,pitch,24.5521479,46.7134569,,,,,,
Unnamed,leisure,pitch,24.5370296,46.6971066,,,,,,
Unnamed,leisure,pitch,24.5496013,46.7026733,,,,,,
Unnamed,leisure,pitch,24.5613488,46.6954703,,,,,,
Unnamed,leisure,park,24.5686106,46.6992497,,,,,,
Unnamed,leisure,pitch,24.5714095,46.716867,,,,,,
Unnamed,leisure,pitch,24.8503281,46.6322858,,,,,,
Unnamed,leisure,swimming_pool,24.8104843,46.6897709,,,,,,
Unnamed,leisure,pitch,24.8047968,46.6895992,,,,,,
Unnamed,leisure,pitch,24.7928757,46.6601164,,,,,,
Unnamed,leisure,pitch,24.8092973,46.6904114,,,,,,
Unnamed,leisure,swimming_pool,24.8040478,46.6900575,,,,,,
Unnamed,leisure,pitch,24.788924,46.6938417,,,,,,
Unnamed,leisure,pitch,24.7892669,46.6936172,,,,,,
Unnamed,leisure,swimming_pool,24.8560448,46.783622,,,,,,
Unnamed,leisure,playground,24.8037416,46.8082904,,,,,,
Unnamed,leisure,pitch,24.8019221,46.8611287,,,,,,
Unnamed,leisure,pitch,24.9496354,46.791036,,,,,,
Unnamed,leisure,swimming_pool,24.9490845,46.7894377,,,,,,
Unnamed,leisure,swimming_pool,24.950869,46.7885263,,,,,,
Unnamed,leisure,swimming_pool,24.9515636,46.7897151,,,,,,
Unnamed,leisure,swimming_pool,24.9521983,46.7910624,,,,,,
Unnamed,leisure,swimming_pool,24.9528929,46.7924361,,,,,,
Unnamed,leisure,swimming_pool,24.9532522,46.7936777,,,,,,
Unnamed,leisure,swimming_pool,24.9536953,46.7930041,,,,,,
Unnamed,leisure,swimming_pool,24.9506175,46.7866903,,,,,,
Unnamed,leisure,swimming_pool,24.950845,46.7870734,,,,,,
Unnamed,leisure,swimming_pool,24.9502462,46.7869809,,,,,,
Unnamed,leisure,swimming_pool,24.9485336,46.7880508,,,,,,
Unnamed,leisure,swimming_pool,24.947336,46.7898604,,,,,,
Unnamed,leisure,swimming_pool,24.9482342,46.7918021,,,,,,
Unnamed,leisure,swimming_pool,24.9462222,46.7906661,,,,,,
Unnamed,leisure,swimming_pool,24.9473719,46.7929645,,,,,,
Unnamed,leisure,swimming_pool,24.9482462,46.7951175,,,,,,
Unnamed,leisure,pitch,24.9500666,46.7965044,,,,,,
Unnamed,leisure,swimming_pool,24.7990301,46.8131268,,,,,,
Unnamed,leisure,pitch,24.7636264,46.8598392,,,,,,
Unnamed,leisure,pitch,24.6570132,46.8959053,,,,,,
Unnamed,leisure,pitch,24.5237295,46.9529109,,,,,,
Unnamed,leisure,pitch,24.5250135,46.9520914,,,,,,
Unnamed,leisure,pitch,24.5262257,46.9511277,,,,,,
Unnamed,leisure,pitch,24.5286322,46.9490266,,,,,,
Unnamed,leisure,pitch,24.5275794,46.9499725,,,,,,
Unnamed,leisure,pitch,24.5297689,46.9480729,,,,,,
Unnamed,leisure,pitch,24.531034,46.9472604,,,,,,
Unnamed,leisure,pitch,24.5307304,46.9492618,,,,,,
Unnamed,leisure,pitch,24.529781,46.9505749,,,,,,
Unnamed,leisure,pitch,24.5285432,46.9516607,,,,,,
Unnamed,leisure,pitch,24.5273897,46.9538057,,,,,,
Unnamed,leisure,pitch,24.5264383,46.9547464,,,,,,
Unnamed,leisure,pitch,24.5329414,46.944969,,,,,,
Unnamed,leisure,pitch,24.5338186,46.9458642,,,,,,
Unnamed,leisure,pitch,24.5321946,46.9460014,,,,,,
Unnamed,leisure,pitch,24.5328629,46.9471364,,,,,,
Unnamed,leisure,pitch,24.5318976,46.9482792,,,,,,
Unnamed,leisure,swimming_pool,24.6775973,46.6193267,,,,,,
Unnamed,leisure,swimming_pool,24.6764949,46.6199733,,,,,,
Unnamed,leisure,swimming_pool,24.6765345,46.6184257,,,,,,
Unnamed,leisure,swimming_pool,24.6732468,46.6214205,,,,,,
Unnamed,leisure,swimming_pool,24.6728734,46.618893,,,,,,
Unnamed,leisure,pitch,24.6599007,46.6171466,,,,,,
Unnamed,leisure,swimming_pool,24.6790059,46.6211145,,,,,,
Unnamed,leisure,swimming_pool,24.6817054,46.6129146,,,,,,
Unnamed,leisure,pitch,24.6762492,46.6103276,,,,,,
Unnamed,leisure,swimming_pool,24.6365189,46.6696581,,,,,,
Unnamed,leisure,pitch,24.6832065,46.6200879,,,,,,
Unnamed,leisure,swimming_pool,24.6897421,46.609801,,,,,,
Unnamed,leisure,swimming_pool,24.6804303,46.6046432,,,,,,
Unnamed,leisure,pitch,24.6988068,46.647279,,,,,,
Unnamed,leisure,pitch,24.7015663,46.6272809,,,,,,
Unnamed,leisure,pitch,24.6943687,46.6396356,,,,,,
Unnamed,leisure,pitch,24.6948167,46.6392259,,,,,,
Unnamed,leisure,pitch,24.6949614,46.6394535,,,,,,
Unnamed,leisure,pitch,24.7047555,46.6432543,,,,,,
Unnamed,leisure,swimming_pool,24.6895304,46.6258613,,,,,,
Unnamed,leisure,swimming_pool,24.6946496,46.6234837,,,,,,
Unnamed,leisure,swimming_pool,24.6832288,46.6278696,,,,,,
Unnamed,leisure,swimming_pool,24.6776092,46.6272416,,,,,,
Unnamed,leisure,swimming_pool,24.6887788,46.6292696,,,,,,
Unnamed,leisure,swimming_pool,24.6807705,46.6142928,,,,,,
Unnamed,leisure,swimming_pool,24.683527,46.6143089,,,,,,
Unnamed,leisure,swimming_pool,24.682847,46.6140648,,,,,,
Unnamed,leisure,swimming_pool,24.6830469,46.6135873,,,,,,
Unnamed,leisure,swimming_pool,24.6824205,46.6134157,,,,,,
Unnamed,leisure,swimming_pool,24.68428,46.6153013,,,,,,
Unnamed,leisure,swimming_pool,24.6847309,46.6152262,,,,,,
Unnamed,leisure,pitch,24.7450763,46.5172903,,,,,,
Unnamed,leisure,swimming_pool,24.7547065,46.5263652,,,,,,
Unnamed,leisure,pitch,24.7432422,46.5333751,,,,,,
Unnamed,leisure,swimming_pool,24.6931858,46.900132,,,,,,
Unnamed,leisure,pitch,24.6930006,46.8948909,,,,,,
Unnamed,leisure,pitch,24.6937658,46.895143,,,,,,
Unnamed,leisure,pitch,24.6935099,46.8952423,,,,,,
Unnamed,leisure,pitch,24.6941849,46.8965727,,,,,,
Unnamed,leisure,pitch,24.69428,46.8968409,,,,,,
Unnamed,leisure,pitch,24.6938511,46.8967309,,,,,,
Unnamed,leisure,pitch,24.6939656,46.8970072,,,,,,
Unnamed,leisure,pitch,24.6950573,46.8963527,,,,,,
Unnamed,leisure,pitch,24.701242,46.8919198,,,,,,
Unnamed,leisure,swimming_pool,24.6849855,46.6292088,,,,,,
Unnamed,leisure,swimming_pool,24.685568,46.6303676,,,,,,
Unnamed,leisure,swimming_pool,24.6856167,46.6308959,,,,,,
Unnamed,leisure,swimming_pool,24.6832698,46.6282406,,,,,,
Unnamed,leisure,swimming_pool,24.6849413,46.6506533,,,,,,
Unnamed,leisure,swimming_pool,24.6576939,46.6256244,,,,,,
Unnamed,leisure,swimming_pool,24.7439897,46.6249703,,,,,,
Unnamed,leisure,pitch,24.7576265,46.7117634,,,,,,
Unnamed,leisure,sports_centre,24.7637263,46.7132667,,,,,,
Unnamed,leisure,park,24.7666222,46.7050685,,,,,,
Unnamed,leisure,pitch,24.7748603,46.6843871,,,,,,
Unnamed,leisure,pitch,24.7518654,46.6606567,,,,,,
Unnamed,leisure,pitch,24.7538908,46.6576222,,,,,,
Unnamed,leisure,pitch,24.759416,46.6604595,,,,,,
Unnamed,leisure,park,24.762764,46.6703826,,,,,,
Unnamed,leisure,pitch,24.7338726,46.689801,,,,,,
Unnamed,leisure,park,24.7589855,46.7732936,,,,,,
Unnamed,leisure,pitch,24.7567121,46.7431147,,,,,,
Unnamed,leisure,pitch,24.7359097,46.7537947,,,,,,
Unnamed,leisure,park,24.7360612,46.7814852,,,,,,
Unnamed,leisure,park,24.7417021,46.7568354,,,,,,
Unnamed,leisure,pitch,24.7098429,46.7959652,,,,,,
Unnamed,leisure,park,24.6907236,46.7917016,,,,,,
Unnamed,leisure,pitch,24.6999322,46.8068441,,,,,,
AlRaja Park,leisure,park,24.6976646,46.7659844,,,,,,
Unnamed,leisure,pitch,24.5467165,46.6707835,,,,,,
Unnamed,leisure,pitch,24.533698,46.6422571,,,,,,
Unnamed,leisure,pitch,24.5353572,46.6289319,,,,,,
Unnamed,leisure,pitch,24.6023038,46.7234825,,,,,,
Unnamed,leisure,pitch,24.6026647,46.7249631,,,,,,
Unnamed,leisure,swimming_pool,24.9272973,46.6775656,,,,,,
Unnamed,leisure,pitch,24.9277583,46.6780891,,,,,,
Unnamed,leisure,pitch,24.9274556,46.6782787,,,,,,
Unnamed,leisure,pitch,24.8490003,46.6326304,,,,,,
Unnamed,leisure,pitch,24.8485941,46.633738,,,,,,
Unnamed,leisure,swimming_pool,24.8174039,46.6348349,,,,,,
Unnamed,leisure,swimming_pool,24.8020882,46.6278096,,,,,,
Unnamed,leisure,swimming_pool,24.7515321,46.617554,,,,,,
Unnamed,leisure,swimming_pool,24.759937,46.6280005,,,,,,
Unnamed,leisure,swimming_pool,24.7536885,46.6164843,,,,,,
Unnamed,leisure,swimming_pool,24.7495961,46.6076916,,,,,,
Unnamed,leisure,swimming_pool,24.7511945,46.6042626,,,,,,
Unnamed,leisure,swimming_pool,24.6681545,46.6919934,,,,,,
Unnamed,leisure,swimming_pool,24.672975,46.6803154,,,,,,
Unnamed,leisure,pitch,24.6685877,46.6806265,,,,,,
Unnamed,leisure,swimming_pool,24.6682659,46.6789528,,,,,,
Unnamed,leisure,swimming_pool,24.6643952,46.6801759,,,,,,
Unnamed,leisure,pitch,24.6308409,46.6969987,,,,,,
Unnamed,leisure,pitch,24.6222778,46.6932973,,,,,,
Unnamed,leisure,pitch,24.620805,46.6893276,,,,,,
Unnamed,leisure,pitch,24.6217609,46.6911515,,,,,,
Unnamed,leisure,pitch,24.6280321,46.6932222,,,,,,
Unnamed,leisure,pitch,24.6201418,46.6963764,,,,,,
Unnamed,leisure,pitch,24.6225411,46.6953357,,,,,,
Unnamed,leisure,pitch,24.6217023,46.6989406,,,,,,
Unnamed,leisure,pitch,24.6275055,46.7032322,,,,,,
Unnamed,leisure,pitch,24.6433432,46.676689,,,,,,
Unnamed,leisure,swimming_pool,24.6460048,46.6734951,,,,,,
Unnamed,leisure,swimming_pool,24.6446188,46.6768104,,,,,,
Unnamed,leisure,swimming_pool,24.6452808,46.6735634,,,,,,
Unnamed,leisure,swimming_pool,24.6471425,46.6714543,,,,,,
Unnamed,leisure,swimming_pool,24.6431777,46.6793442,,,,,,
Unnamed,leisure,swimming_pool,24.6400195,46.6767421,,,,,,
Unnamed,leisure,swimming_pool,24.6415159,46.6732751,,,,,,
Unnamed,leisure,swimming_pool,24.6407435,46.6740944,,,,,,
Unnamed,leisure,swimming_pool,24.6552166,46.6803305,,,,,,
Unnamed,leisure,swimming_pool,24.6550718,46.6834788,,,,,,
Unnamed,leisure,swimming_pool,24.6582847,46.6846775,,,,,,
Unnamed,leisure,swimming_pool,24.6570782,46.6816884,,,,,,
Unnamed,leisure,playground,24.6506301,46.6980052,,,,,,
Unnamed,leisure,pitch,24.6517215,46.691307,,,,,,
Unnamed,leisure,pitch,24.6512664,46.6911477,,,,,,
Unnamed,leisure,swimming_pool,24.6732024,46.6825452,,,,,,
Unnamed,leisure,swimming_pool,24.6661291,46.6713496,,,,,,
Unnamed,leisure,pitch,24.6647982,46.6978822,,,,,,
Unnamed,leisure,swimming_pool,24.6664322,46.6959742,,,,,,
Unnamed,leisure,park,24.603262,46.6631895,,,,,,
Unnamed,leisure,park,24.590319,46.6656078,,,,,,
Unnamed,leisure,park,24.592377,46.6152935,,,,,,
Unnamed,leisure,playground,24.5967642,46.6121831,,,,,,
Unnamed,leisure,park,24.5787866,46.624291,,,,,,
Unnamed,leisure,park,24.5765789,46.6451537,,,,,,
Unnamed,leisure,swimming_pool,24.7235777,46.7447461,,,,,,
Unnamed,leisure,swimming_pool,24.7249275,46.7482544,,,,,,
Unnamed,leisure,swimming_pool,24.7140594,46.7516233,,,,,,
Unnamed,leisure,swimming_pool,24.6949063,46.737247,,,,,,
Unnamed,leisure,pitch,24.6978608,46.7158915,,,,,,
Unnamed,leisure,pitch,24.699901,46.7149659,,,,,,
Unnamed,leisure,pitch,24.7048503,46.7186653,,,,,,
Unnamed,leisure,swimming_pool,24.6666567,46.6665576,,,,,,
Unnamed,leisure,swimming_pool,24.6695877,46.6527767,,,,,,
Unnamed,leisure,swimming_pool,24.6467733,46.6363345,,,,,,
Unnamed,leisure,swimming_pool,24.6536465,46.6552456,,,,,,
Unnamed,leisure,swimming_pool,24.7440404,46.5989158,,,,,,
Unnamed,leisure,swimming_pool,24.8099494,46.7213962,,,,,,
Unnamed,leisure,pitch,24.8093615,46.7201168,,,,,,
Unnamed,leisure,swimming_pool,24.7887415,46.8482164,,,,,,
Unnamed,leisure,fitness_station,24.7425198,46.869805,,,,,,
Unnamed,leisure,fitness_station,24.7422432,46.8696533,,,,,,
Unnamed,leisure,fitness_station,24.742182,46.869708,,,,,,
Unnamed,leisure,fitness_station,24.7425477,46.8699563,,,,,,
Unnamed,leisure,fitness_station,24.7421043,46.870018,,,,,,
Unnamed,leisure,fitness_station,24.7424551,46.8696962,,,,,,
Unnamed,leisure,fitness_station,24.7423479,46.8696586,,,,,,
Unnamed,leisure,fitness_station,24.7421189,46.8698571,,,,,,
Unnamed,leisure,fitness_station,24.7421146,46.8701308,,,,,,
Unnamed,leisure,fitness_station,24.7425985,46.8705625,,,,,,
Unnamed,leisure,fitness_station,24.7426125,46.8707199,,,,,,
Unnamed,leisure,fitness_station,24.7426207,46.8708173,,,,,,
Unnamed,leisure,fitness_station,24.7426061,46.8709461,,,,,,
Unnamed,leisure,fitness_station,24.7425671,46.8710373,,,,,,
Unnamed,leisure,fitness_station,24.7421823,46.8708763,,,,,,
Unnamed,leisure,fitness_station,24.7421596,46.8706272,,,,,,
Unnamed,leisure,fitness_station,24.7421385,46.8703943,,,,,,
Unnamed,leisure,fitness_station,24.7421241,46.870236,,,,,,
Unnamed,leisure,fitness_station,24.7421728,46.8707727,,,,,,
Unnamed,leisure,fitness_station,24.7422334,46.8710212,,,,,,
Unnamed,leisure,fitness_station,24.7424892,46.8710963,,,,,,
Unnamed,leisure,fitness_station,24.7423674,46.871099,,,,,,
Unnamed,leisure,fitness_station,24.7425802,46.87034,,,,,,
Unnamed,leisure,fitness_station,24.7425677,46.8701925,,,,,,
Unnamed,leisure,fitness_station,24.7425586,46.8700854,,,,,,
Unnamed,leisure,fitness_station,24.7422979,46.8710673,,,,,,
Unnamed,leisure,pitch,24.6670293,46.8678566,,,,,,
Unnamed,leisure,pitch,24.6764601,46.874783,,,,,,
Unnamed,leisure,pitch,24.6797858,46.7133214,,,,,,
Unnamed,leisure,playground,24.6783598,46.7136774,,,,,,
Unnamed,leisure,pitch,24.6144266,46.745328,,,,,,
Unnamed,leisure,park,24.6175478,46.7548874,,,,,,
Unnamed,leisure,swimming_pool,24.5998463,46.7389624,,,,,,
Unnamed,leisure,playground,24.5880184,46.7736582,,,,,,
Unnamed,leisure,playground,24.5547,46.8109538,,,,,,
Unnamed,leisure,playground,24.5560319,46.8064143,,,,,,
Unnamed,leisure,pitch,24.4174179,46.8702802,,,,,,
Unnamed,leisure,pitch,24.4140958,46.8737309,,,,,,
Unnamed,leisure,pitch,24.4201406,46.8660852,,,,,,
Unnamed,leisure,swimming_pool,24.4379359,46.4763054,,,,,,
Unnamed,leisure,swimming_pool,24.4344013,46.4904861,,,,,,
Unnamed,leisure,playground,24.4011317,46.8356555,,,,,,
Unnamed,leisure,playground,24.4007034,46.8358527,,,,,,
Unnamed,leisure,playground,24.4012492,46.8358338,,,,,,
Unnamed,leisure,playground,24.4005134,46.8358072,,,,,,
Unnamed,leisure,playground,24.6226807,46.7202696,,,,,,
Unnamed,leisure,playground,24.603562,46.7314954,,,,,,
Unnamed,leisure,swimming_pool,24.6881319,46.7008333,,,,,,
Unnamed,leisure,playground,24.7234587,46.7882173,,,,,,
Unnamed,leisure,playground,24.7232658,46.7883766,,,,,,
Unnamed,leisure,playground,24.7266155,46.7888113,,,,,,
Unnamed,leisure,playground,24.709738,46.8129825,,,,,,
Unnamed,leisure,pitch,24.7114402,46.8151143,,,,,,
Unnamed,leisure,pitch,24.707239,46.7923107,,,,,,
Unnamed,leisure,swimming_pool,24.7060749,46.7971877,,,,,,
Unnamed,leisure,playground,24.7149378,46.7887899,,,,,,
Unnamed,leisure,swimming_pool,24.7121527,46.7868094,,,,,,
Unnamed,leisure,playground,24.7012289,46.792871,,,,,,
Unnamed,leisure,stadium,24.7039789,46.8004574,,,,,,
Unnamed,leisure,playground,24.6905977,46.7816958,,,,,,
Unnamed,leisure,swimming_pool,24.6893776,46.7769391,,,,,,
Unnamed,leisure,swimming_pool,24.7002545,46.7443587,,,,,,
Unnamed,leisure,pitch,24.6748392,46.7486701,,,,,,
Unnamed,leisure,pitch,24.8012385,46.7582824,,,,,,
Unnamed,leisure,pitch,24.7527631,46.7292883,,,,,,
Unnamed,leisure,playground,24.613292,46.6856664,,,,,,
Unnamed,leisure,playground,24.6125229,46.685124,,,,,,
Unnamed,leisure,playground,24.6127643,46.6837774,,,,,,
Unnamed,leisure,swimming_pool,24.7204836,46.6629899,,,,,,
Unnamed,leisure,swimming_pool,24.7233634,46.6574807,,,,,,
بودي ماسترز,leisure,fitness_centre,24.7195706,46.670646,,,,,,
Al-Rajhi Bank Operations Center Gym,leisure,fitness_centre,24.7522565,46.6308187,,,,,,
Unnamed,leisure,resort,24.6531542,46.5856036,,,,,,
Unnamed,leisure,playground,24.6879935,46.6244329,,,,,,
PSU Summing Pool,leisure,swimming_pool,24.7351974,46.697973,,,,,,
PSU Kindergarden Play ground,leisure,playground,24.7346274,46.6970769,,,,,,
Unnamed,leisure,playground,24.8585321,46.5932578,,,,,,
hardrock swimming pool,leisure,swimming_pool,24.8613934,46.5874598,,,,,,
Unnamed,leisure,fitness_station,24.7908799,46.743075,,,,,,
Unnamed,leisure,fitness_station,24.7908032,46.7428658,,,,,,
Unnamed,leisure,swimming_pool,24.6739715,46.6243643,,,,,,
حديقة النهضة,leisure,park,24.6956092,46.7511414,,,,,,
منتجع النخلة,leisure,resort,24.86144,46.79699,,,,,,
منتجع انترلاكن,leisure,resort,24.9021801,46.8165863,,,,,,
ملعب الجامعة,leisure,pitch,24.78881,46.86299,,,,,,
مضمار مشي السويدي,leisure,track,24.5983796,46.6940188,,,,,,
Unnamed,leisure,dance,24.825,46.8012,,,,,,
قلب الأبطال,leisure,fitness_centre,24.8180248,46.6437521,,,,,,
وقت اللياقة أصفر,leisure,fitness_centre,24.8019348,46.6484867,,,,,,
جوي زوون,leisure,playground,24.7984554,46.6429077,,,,,,
Unnamed,leisure,park,24.7108524,46.677242,,,,,,
Unnamed,leisure,pitch,24.825624,46.6866392,,,,,,
Unnamed,leisure,swimming_pool,24.868242,46.5946872,,,,,,
Unnamed,leisure,swimming_pool,24.867131,46.5952818,,,,,,
Diriyyah Park حديقة الدرعية,leisure,park,24.7379379,46.5732065,,,,,,
حديقة منتزه البجيري,leisure,park,24.7387948,46.573269,,,,,,
حديقة لبن,leisure,park,24.6368017,46.5542958,,شارع حلب,,,24/7,
Unnamed,leisure,swimming_pool,24.8075292,46.5254633,,,,,,
Unnamed,leisure,swimming_pool,24.8059055,46.5239538,,,,,,
Unnamed,leisure,pitch,24.8083104,46.5215562,,,,,,
Unnamed,leisure,pitch,24.8088544,46.523341,,,,,,
Unnamed,leisure,swimming_pool,24.8086639,46.5167061,,,,,,
Unnamed,leisure,swimming_pool,24.9029646,46.4262088,,,,,,
Unnamed,leisure,swimming_pool,24.9038915,46.4258285,,,,,,
Unnamed,leisure,playground,24.5988151,46.5965632,,,,,,
Unnamed,leisure,park,24.5877477,46.5598331,,,,,,
Unnamed,leisure,pitch,24.5620085,46.5021702,,,,,,
Unnamed,leisure,park,24.5662044,46.5015408,,,,,,
Unnamed,leisure,park,24.564435,46.501362,,,,,,
Unnamed,leisure,park,24.5601025,46.4973851,,,,,,
Unnamed,leisure,pitch,24.4282445,46.5885497,,,,,,
Unnamed,leisure,playground,24.7808584,46.846741,,,,,,
Unnamed,leisure,playground,24.7725817,46.8540346,,,,,,
Unnamed,leisure,playground,24.7724388,46.8551147,,,,,,
Unnamed,leisure,playground,24.7715686,46.8551719,,,,,,
Unnamed,leisure,playground,24.7679235,46.8577757,,,,,,
Unnamed,leisure,playground,24.7672075,46.8565997,,,,,,
Unnamed,leisure,playground,24.7679644,46.85605,,,,,,
Unnamed,leisure,playground,24.7686354,46.8571944,,,,,,
Unnamed,leisure,swimming_pool,24.9001686,46.8109244,,,,,,
Unnamed,leisure,swimming_pool,24.9279965,46.8230004,,,,,,
Unnamed,leisure,swimming_pool,24.8319466,46.7376703,,,,,,
Unnamed,leisure,swimming_pool,24.7577228,46.4230514,,,,,,
شايهات ناول NAOLNWL,leisure,resort,24.7015594,46.8361712,,شارع شبه الجزيرة,,,24/7,
Ouch and Spin,leisure,fitness_centre,24.7100837,46.6634222,,,+966557885509,https://ouchandspin.com/,Sa-Th 16:00-20:00,
Unnamed,leisure,pitch,24.5041437,46.5058433,,,,,,
Unnamed,leisure,pitch,24.5038149,46.5045255,,,,,,
Unnamed,leisure,pitch,24.5042373,46.5061112,,,,,,
Unnamed,leisure,pitch,24.6634568,46.9265632,,,,,,
Unnamed,leisure,fitness_station,24.6663726,46.9293836,,,,,,
Unnamed,leisure,fitness_station,24.6661974,46.9295886,,,,,,
Unnamed,leisure,fitness_station,24.6670833,46.9301178,,,,,,
Unnamed,leisure,fitness_station,24.6668495,46.9298106,,,,,,
Unnamed,leisure,fitness_station,24.66648,46.9301506,,,,,,
Unnamed,leisure,fitness_station,24.6667254,46.9304581,,,,,,
Unnamed,leisure,pitch,24.8847808,46.9238644,,,,,,
Unnamed,leisure,playground,24.7823053,46.8495353,,,,,,
Unnamed,leisure,playground,24.7819207,46.8475209,,,,,,
Unnamed,leisure,playground,24.77776,46.8478925,,,,,,
Unnamed,leisure,playground,24.7784945,46.8467284,,,,,,
Unnamed,leisure,swimming_pool,24.804864,46.8451386,,,,,,
Unnamed,leisure,pitch,24.9835288,46.9356559,,,,,,
Unnamed,leisure,pitch,24.9842259,46.9358685,,,,,,
Unnamed,leisure,playground,24.9878111,46.9150682,,,,,,
Unnamed,leisure,playground,24.9886523,46.91629,,,,,,
Unnamed,leisure,playground,24.9878254,46.9169857,,,,,,
Unnamed,leisure,playground,24.9869863,46.915749,,,,,,
Unnamed,leisure,playground,24.9908331,46.9195295,,,,,,
Unnamed,leisure,playground,24.9898482,46.9181093,,,,,,
بودي ماسترز,leisure,fitness_centre,24.7967415,46.6362771,,,,,24/7,
Utopia Resorts - شاليهات يوتوبيا,leisure,resort,24.8578603,46.6148531,,,,,,
Utopia Resorts,leisure,resort,24.8579167,46.6152477,,"Al Aarid, Riyadh 13334, 13334",+966505602997,https://instagram.com/utopia_resorts?igshid=hhtbc4ntmxba,,
الاتحاد السعودي للرياضات اللاسلكية والتحكم عن بعد والروبوت,leisure,pitch,24.9413867,46.5829191,الاتحاد السعودي للرياضات اللاسلكية والتحكم عن بعد والروبوت,,,http://www.tahakoom.gov.sa/,,
Unnamed,leisure,swimming_pool,24.7748699,46.5111115,,,,,,
Unnamed,leisure,swimming_pool,24.7748007,46.510145,,,,,,
Unnamed,leisure,swimming_pool,24.774893,46.5086951,,,,,,
Unnamed,leisure,swimming_pool,24.7813347,46.5260234,,,,,,
Vitality Club,leisure,fitness_centre,24.7940125,46.6551284,نادي ڨيتاليتي,,,https://www.vitalityclub.co,,
Padel Me,leisure,pitch,24.8140623,46.471187,,,,,,
Rebel,leisure,fitness_centre,24.7884164,46.6469279,,,,,,
Round ladies,leisure,fitness_centre,24.8185482,46.644459,راوند سيدات,,,,,
Unnamed,leisure,playground,24.8555648,46.5837098,,,,,,
Unnamed,leisure,playground,24.8656466,46.5714112,,,,,,
Unnamed,leisure,playground,24.866188,46.5723139,,,,,,
Unnamed,leisure,playground,24.8670625,46.5716675,,,,,,
Unnamed,leisure,playground,24.8664934,46.5707686,,,,,,
Unnamed,leisure,pitch,24.8611577,46.7406336,,,,,,
Dorat Najd Resort,leisure,resort,24.8088858,46.5188892,,,,,,
Unnamed,leisure,pitch,24.5216928,46.9553652,,,,,,
Unnamed,leisure,pitch,24.522165,46.9537668,,,,,,
Unnamed,leisure,pitch,24.5226414,46.9549702,,,,,,
Unnamed,leisure,pitch,24.5231219,46.9561781,,,,,,
Unnamed,leisure,pitch,24.5225703,46.9572024,,,,,,
Unnamed,leisure,pitch,24.5240914,46.9547268,,,,,,
Unnamed,leisure,pitch,24.5249096,46.9536869,,,,,,
Unnamed,leisure,pitch,24.5259167,46.9529613,,,,,,
Unnamed,leisure,pitch,24.5268944,46.9522723,,,,,,
Unnamed,leisure,pitch,24.5251007,46.9560736,,,,,,
Unnamed,leisure,outdoor_seating,24.7314615,46.6485802,,,,,,
Unnamed,leisure,outdoor_seating,24.7314228,46.6484844,,,,,,
Unnamed,leisure,outdoor_seating,24.7313796,46.6483835,,,,,,
Unnamed,leisure,outdoor_seating,24.7315531,46.6482933,,,,,,
Unnamed,leisure,outdoor_seating,24.7315976,46.6484041,,,,,,
Unnamed,leisure,outdoor_seating,24.7316376,46.6484936,,,,,,
Unnamed,leisure,outdoor_seating,24.73164,46.6487383,,,,,,
Unnamed,leisure,outdoor_seating,24.7313795,46.6481563,,,,,,
Unnamed,leisure,outdoor_seating,24.7312987,46.648622,,,,,,
Unnamed,leisure,outdoor_seating,24.7315053,46.6491705,,,,,,
Unnamed,leisure,outdoor_seating,24.7310917,46.6481152,,,,,,
Unnamed,leisure,outdoor_seating,24.7315716,46.647949,,,,,,
Unnamed,leisure,outdoor_seating,24.7317686,46.6483832,,,,,,
Unnamed,leisure,outdoor_seating,24.7319527,46.6488237,,,,,,
Unnamed,leisure,outdoor_seating,24.732057,46.6490772,,,,,,
Unnamed,leisure,playground,24.7265983,46.6457658,,,,,,
Lucaland,leisure,dog_park,24.7688219,46.605399,,,,,,
Takenda,leisure,amusement_arcade,24.7677317,46.6055159,,,,,,
Bob's Famous,leisure,bowling_alley,24.7674008,46.6050895,,,,,,
Invisibilia,leisure,amusement_arcade,24.7666569,46.6048755,,,,,,
Merwas,leisure,amusement_arcade,24.7664728,46.6046261,,,,,,
Odyseey VR,leisure,amusement_arcade,24.7675686,46.6050343,,,,,,
Doos Karting,leisure,amusement_arcade,24.7695211,46.6042414,,,,,,
Garden,leisure,amusement_arcade,24.7706083,46.6043989,,,,,,
Firstaiment,leisure,sports_centre,24.7711812,46.604618,,,,,,
حديقة دوار الكويت,leisure,park,24.666211,46.72823,حديقة دوار الكويت,,,,,
Unnamed,leisure,stadium,24.6984845,46.6767664,,شاكر بن مكي,,,,
Unnamed,leisure,sports_centre,24.6857798,46.6754093,,طريق التخصصي,,,,
Unnamed,leisure,sports_centre,24.6908422,46.6735414,,الجهاد,,,,
Unnamed,leisure,sports_centre,24.6895211,46.6814447,,أبي عبدالله الموصلي,,,,
Unnamed,leisure,sports_centre,24.688957,46.6812569,,آجلي,,,,
Unnamed,leisure,sports_centre,24.6925719,46.67767,,التغلبي,,,,
Unnamed,leisure,sports_centre,24.6921145,46.6794544,,القعقاع بن عطية,,,,
بودي ماستر,leisure,fitness_centre,24.6860059,46.6753875,,طريق التخصصي,,,,
Unnamed,leisure,sports_centre,24.7070084,46.6674708,,ابن الخريف,,,,
Unnamed,leisure,sports_centre,24.6811967,46.6987564,,,,,,
Unnamed,leisure,sports_centre,24.6805909,46.6987056,,,,,,
Unnamed,leisure,sports_centre,24.6873019,46.6984864,,الحرة,,,,
Unnamed,leisure,sports_centre,24.6956849,46.6784856,,ابن شريح,,,,
Unnamed,leisure,sports_centre,24.6955944,46.6782912,,ابن شريح,,,,
Unnamed,leisure,sports_centre,24.6993341,46.6718469,,,,,,
Unnamed,leisure,swimming_pool,24.6890597,46.6796066,,,,,,
Unnamed,leisure,swimming_pool,24.8387011,46.6464247,,,,,,
Unnamed,leisure,swimming_pool,24.8465307,46.6691325,,,,,,
Unnamed,leisure,swimming_pool,24.8482767,46.6707154,,,,,,
Unnamed,leisure,sports_centre,24.7020423,46.7439017,,,,,,
Unnamed,leisure,sports_centre,24.701794,46.7434804,,,,,,
Unnamed,leisure,sports_centre,24.6972779,46.7407924,,,,,,
Unnamed,leisure,sports_centre,24.6973357,46.7404834,,,,,,
Unnamed,leisure,sports_centre,24.6972203,46.7425614,,,,,,
Unnamed,leisure,sports_centre,24.697712,46.743233,,,,,,
Unnamed,leisure,sports_centre,24.6984101,46.7403426,,,,,,
Unnamed,leisure,sports_centre,24.6982184,46.7445874,,,,,,
Unnamed,leisure,sports_centre,24.7009468,46.7456368,,,,,,
Unnamed,leisure,sports_centre,24.7005117,46.7455917,,,,,,
Unnamed,leisure,sports_centre,24.6981671,46.7449706,,,,,,
Unnamed,leisure,sports_centre,24.6892077,46.7507395,,,,,,
Unnamed,leisure,sports_centre,24.6925088,46.7460017,,,,,,
Unnamed,leisure,swimming_pool,24.7030916,46.7028834,,,,,,
Unnamed,leisure,swimming_pool,24.7037268,46.7044823,,,,,,
Unnamed,leisure,sports_centre,24.6873779,46.7458542,,,,,,
Unnamed,leisure,swimming_pool,24.7010151,46.7010396,,,,,,
Unnamed,leisure,swimming_pool,24.7008092,46.7005457,,,,,,
Unnamed,leisure,swimming_pool,24.7012856,46.6982428,,,,,,
Unnamed,leisure,swimming_pool,24.6985639,46.7020436,,,,,,
Unnamed,leisure,swimming_pool,24.6991275,46.6990435,,,,,,
Unnamed,leisure,swimming_pool,24.7001973,46.6991454,,,,,,
Unnamed,leisure,swimming_pool,24.7010136,46.6976575,,,,,,
Unnamed,leisure,swimming_pool,24.7008392,46.6972408,,,,,,
Unnamed,leisure,swimming_pool,24.7277117,46.6737795,,,,,,
Unnamed,leisure,swimming_pool,24.7275225,46.6729729,,,,,,
Unnamed,leisure,swimming_pool,24.7268181,46.6716884,,,,,,
حديقة حي النخيل,leisure,park,24.7468932,46.6495901,,,,,,
Unnamed,leisure,pitch,24.7472456,46.6494503,,,,,,
Unnamed,leisure,swimming_pool,24.730025,46.6728468,,,,,,
Unnamed,leisure,sports_centre,24.7499818,46.6454526,,,,,,
Unnamed,leisure,sports_centre,24.7628111,46.7111211,,,,,,
Unnamed,leisure,sports_centre,24.7632558,46.712189,,,,,,
Unnamed,leisure,pitch,24.7634595,46.7120826,,,,,,
Unnamed,leisure,pitch,24.7629368,46.7110531,,,,,,
Unnamed,leisure,pitch,24.7639213,46.7131605,,,,,,
Unnamed,leisure,swimming_pool,24.7616182,46.6774607,,,,,,
Unnamed,leisure,park,24.7760205,46.7389439,,,,,,
Unnamed,leisure,sports_centre,24.8267141,46.5805195,,,,,,
حديقة السعودية,leisure,park,25.0051742,46.6439506,,,,,,
Fitness Time Xpress - وقت اللياقة اكسبرس,leisure,fitness_centre,24.654376,46.793362,,Second Street 2942,9200 03131,https://www.fitnesstime.com.sa/en-us/gyms/jazirah-xpress,"Mo-Th, Sa, Su 06:00-00:00; Fr 13:30-22:00",
Sports Boulevard - المسار الرياضي,leisure,park,24.755431,46.5868573,,,,https://sportsboulevard.sa,24/7,
وقت اللياقة,leisure,fitness_centre,24.755788,46.6556439,وقت اللياقة,,,,,وقت اللياقة
9Round,leisure,fitness_centre,24.8109801,46.6701893,,,,,,9Round
منتجع السلاطين,leisure,park,24.7993749,46.4121777,,العمارية 1,,,24/7,
Riyadh Golf Course,leisure,golf_course,24.9602095,46.5792682,,P.O. Box 84329,+966 55 739 9900,https://www.riyadhgolfcourses.com/,,
مشروع درة الرياض,leisure,park,25.0069669,46.496329,,,,https://www.durratarriyadh.com.sa,,
Unnamed,leisure,pitch,24.7081492,46.753532,,,,,,
Unnamed,leisure,pitch,24.7064515,46.7508397,,,,,,
Unnamed,leisure,pitch,24.7063481,46.7549724,,,,,,
Unnamed,leisure,pitch,24.7067019,46.7557005,,,,,,
Unnamed,leisure,pitch,24.7070976,46.7539144,,,,,,
Unnamed,leisure,pitch,24.7077292,46.7538792,,,,,,
Unnamed,leisure,pitch,24.7060302,46.7530923,,,,,,
Unnamed,leisure,pitch,24.7077819,46.7640422,,,,,,
Unnamed,leisure,pitch,24.7077625,46.7640636,,,,,,
Unnamed,leisure,pitch,24.7079925,46.7625745,,,,,,
حديقة الفوطة,leisure,park,24.6397246,46.7091517,,,,,,
ملعب الصايغ,leisure,pitch,24.6552084,46.7316007,,,,,,
حديقة الروضة,leisure,park,24.7313131,46.7749173,,,,,,
Al Naseem Park,leisure,park,24.730975,46.8141435,,,,,,
حديقة الورود,leisure,park,24.7189529,46.6763564,,,,,,
King Fahad Library Park,leisure,park,24.6862158,46.6878724,,,,,,
حديقة جبل أبو مخروق,leisure,park,24.67339,46.725696,,,,,,
ملعب مدينة الأمير فيصل بن فهد الرياضية,leisure,stadium,24.6626195,46.7398477,,,,,,
حديقة السلام,leisure,park,24.6209799,46.708525,,,,,,
Al Thager Park,leisure,park,24.7000315,46.6788328,,,,,,
Al Rayan Park,leisure,park,24.7109596,46.7803227,,,,,,
Unnamed,leisure,park,24.6908387,46.7817624,,,,,,
Al Rawdah Amusement Park,leisure,park,24.7423459,46.7676195,,,,,,
Unnamed,leisure,park,24.7075323,46.7050248,,,,,,
حديقة خزان الروضة,leisure,park,24.7224931,46.7624541,,Rawdah Park,,,,
Unnamed,leisure,park,24.7240049,46.7953044,,,,,,
Unnamed,leisure,pitch,24.5698476,46.9012295,,,,,,
Unnamed,leisure,park,24.5848502,46.6824746,,,,,,
Unnamed,leisure,playground,24.5848451,46.6822172,,,,,,
Unnamed,leisure,park,24.7075988,46.5812911,,,,,,
Unnamed,leisure,park,24.7076122,46.582841,,,,,,
Unnamed,leisure,park,24.7099225,46.5803123,,,,,,
Unnamed,leisure,park,24.7086161,46.5814838,,,,,,
Unnamed,leisure,park,24.7066903,46.5792213,,,,,,
Unnamed,leisure,park,24.7089272,46.5798777,,,,,,
Unnamed,leisure,park,24.7066018,46.5805196,,,,,,
إستاد الملك فهد الدولي,leisure,stadium,24.7885534,46.8391438,إستاد الملك فهد الدولي,,,,,
Unnamed,leisure,park,24.7869186,46.8388882,,,,,,
Unnamed,leisure,park,24.7882291,46.8373828,,,,,,
Unnamed,leisure,park,24.7872657,46.8379811,,,,,,
Unnamed,leisure,park,24.7892552,46.8374757,,,,,,
Unnamed,leisure,park,24.7898914,46.8382869,,,,,,
Unnamed,leisure,park,24.7872165,46.8400676,,,,,,
Unnamed,leisure,park,24.7901763,46.8394495,,,,,,
Unnamed,leisure,park,24.787864,46.8408265,,,,,,
Unnamed,leisure,pitch,24.7885541,46.8391472,,,,,,
Unnamed,leisure,pitch,24.5794428,46.8580625,,,,,,
Unnamed,leisure,swimming_pool,24.5780318,46.8611379,,,,,,
Driving Range,leisure,golf_course,24.5783856,46.8583367,,,,,,
Unnamed,leisure,park,24.5879578,46.8564737,,,,,,
حديقة العليا,leisure,park,24.6806171,46.6827278,,,,,,
Unnamed,leisure,park,24.5766259,46.861396,,,,,,
Unnamed,leisure,park,24.5757138,46.8618612,,,,,,
Unnamed,leisure,park,24.5767695,46.8625449,,,,,,
Unnamed,leisure,park,24.5810496,46.8632867,,,,,,
Unnamed,leisure,park,24.5804485,46.8587848,,,,,,
Unnamed,leisure,park,24.5851825,46.8585001,,,,,,
Unnamed,leisure,pitch,24.4536484,46.8136054,,,,,,
Unnamed,leisure,park,24.4532891,46.8144486,,,,,,
Unnamed,leisure,park,24.7503517,46.8566559,,,,,,
Gymnasium,leisure,sports_centre,24.7286289,46.6280364,,,,,,
صالة رياضية,leisure,sports_centre,24.7271127,46.6222248,صالة رياضية,,,,,
Swimming Pool,leisure,sports_centre,24.7288684,46.6267871,,,,,,
Unnamed,leisure,fitness_centre,24.7107874,46.6259182,,,,,,
Unnamed,leisure,pitch,24.7881764,46.8548352,,,,,,
Unnamed,leisure,pitch,24.9625644,46.7981342,,,,,,
Camel Racing Start,leisure,pitch,24.9800041,46.8070013,,,,,,
Unnamed,leisure,pitch,24.7436435,46.8941138,,,,,,
Unnamed,leisure,pitch,24.7432555,46.893952,,,,,,
Unnamed,leisure,pitch,24.7440983,46.89475,,,,,,
Unnamed,leisure,pitch,24.7433164,46.8941894,,,,,,
Unnamed,leisure,stadium,24.7427421,46.8948151,,,,,,
Unnamed,leisure,pitch,24.7436208,46.8939508,,,,,,
Unnamed,leisure,pitch,24.7427433,46.8954374,,,,,,
Unnamed,leisure,track,24.7427476,46.895434,,,,,,
Unnamed,leisure,pitch,24.7436409,46.8942478,,,,,,
Unnamed,leisure,pitch,24.7440941,46.8945724,,,,,,
Unnamed,leisure,park,24.7407294,46.8917151,,,,,,
Unnamed,leisure,park,24.7415221,46.8903215,,,,,,
Unnamed,leisure,stadium,24.6788013,46.7369125,,,,,,
Unnamed,leisure,stadium,24.6787137,46.7369374,,,,,,
Unnamed,leisure,stadium,24.6786754,46.7367191,,,,,,
Unnamed,leisure,stadium,24.6787571,46.7366995,,,,,,
Unnamed,leisure,stadium,24.6785854,46.7367134,,,,,,
Unnamed,leisure,pitch,24.8097207,46.7017693,,,,,,
Unnamed,leisure,pitch,24.8094069,46.7025617,,,,,,
Unnamed,leisure,pitch,24.8091662,46.7022763,,,,,,
Unnamed,leisure,pitch,24.8091114,46.7024483,,,,,,
Unnamed,leisure,pitch,24.8088751,46.7021694,,,,,,
Unnamed,leisure,pitch,24.8094574,46.7024022,,,,,,
Unnamed,leisure,pitch,24.8088168,46.7023339,,,,,,
Unnamed,leisure,pitch,24.8086601,46.7028986,,,,,,
Unnamed,leisure,pitch,24.8087678,46.7026003,,,,,,
Unnamed,leisure,swimming_pool,24.8056315,46.7007437,,,,,,
حديقة العقيق,leisure,park,24.7817356,46.6254663,,,,,,
Unnamed,leisure,pitch,24.5639785,46.6879031,,,,,,
Unnamed,leisure,pitch,24.5758764,46.7080591,,,,,,
Unnamed,leisure,pitch,24.4550003,46.8043964,,,,,,
Unnamed,leisure,pitch,24.680826,46.9195117,,,,,,
Unnamed,leisure,park,24.7868617,46.7307441,,,,,,
Unnamed,leisure,pitch,24.9921224,46.5258358,,,,,,
Unnamed,leisure,pitch,24.9922276,46.5259907,,,,,,
Unnamed,leisure,pitch,24.9925591,46.5257292,,,,,,
Unnamed,leisure,pitch,24.9927057,46.5259456,,,,,,
Unnamed,leisure,pitch,24.8593718,46.7285777,,,,,,
Unnamed,leisure,pitch,24.5942966,46.697846,,,,,,
منتزه السويدي,leisure,park,24.5970273,46.6949937,,,,,,
Unnamed,leisure,pitch,24.5896764,46.7029688,,,,,,
Unnamed,leisure,pitch,24.5900827,46.7035572,,,,,,
Unnamed,leisure,pitch,24.5897638,46.7037413,,,,,,
الملعب الاخضر,leisure,pitch,24.5881029,46.7011026,,,,,,
Unnamed,leisure,garden,24.6899367,46.6844488,,,,,,
Unnamed,leisure,pitch,24.7218078,46.6410288,,,,,,
Unnamed,leisure,pitch,24.6651285,46.6708148,,,,,,
حديقة المروج,leisure,park,24.7578289,46.6708213,,محمد أبي حمزة,,,,
وقت اللياقة فرع رجال,leisure,fitness_centre,24.5688788,46.6162343,,Western Ring Road 14925,9200 03131,https://www.fitnesstime.com.sa/,Sa-Th 10:00-24:00; Fr 13:00-23:00,
نادي الهلال,leisure,sports_centre,24.6058796,46.6255373,,,,,,
Unnamed,leisure,park,24.5947115,46.6315996,,,,,,
نادي النصر,leisure,sports_centre,24.5804805,46.558699,,,,,,
حديقة الملز,leisure,park,24.6659019,46.7328831,,صلاح الدين الأيوبي,,,,
Al Manakh Park,leisure,park,24.6172196,46.7724563,,,,,,
Unnamed,leisure,park,24.5943016,46.7750841,,,,,,
Unnamed,leisure,park,24.5919773,46.7803841,,,,,,
حديقة مركز الملك عبد العزيز التاريخي,leisure,park,24.6475444,46.7097939,حديقة مركز الملك عبد العزيز التاريخي,,,,,
حديقة الوطن,leisure,park,24.6445551,46.7104828,حديقة الوطن,,,,,
حديقة,leisure,park,24.6169351,46.6452163,,,,,,
حديقة العريجاء الوسطى,leisure,park,24.6126147,46.6375827,,,,,,
حديقة الدريهمية,leisure,park,24.5868211,46.6883282,,,,,,
مركز الرجل القوي الرياضي,leisure,sports_centre,24.5844234,46.6431968,,,,,,
Al Nasriyah Park,leisure,park,24.656304,46.683914,,,,,,
Unnamed,leisure,park,24.6233645,46.6714398,,,,,,
Unnamed,leisure,park,24.7081568,46.57958,,,,,,
Unnamed,leisure,park,24.707562,46.579584,,,,,,
Unnamed,leisure,park,24.7073973,46.5790953,,,,,,
Unnamed,leisure,park,24.7076766,46.5791808,,,,,,
Unnamed,leisure,park,24.709814,46.5811733,,,,,,
Unnamed,leisure,park,24.6740699,46.655294,,,,,,
Unnamed,leisure,pitch,24.9626176,46.5797138,,,,,,
Unnamed,leisure,pitch,24.9640845,46.5806378,,,,,,
Unnamed,leisure,pitch,24.9630407,46.5789211,,,,,,
Unnamed,leisure,pitch,24.9648792,46.5848159,,,,,,
Unnamed,leisure,pitch,24.9667716,46.5839359,,,,,,
Unnamed,leisure,pitch,24.9649226,46.5799048,,,,,,
Unnamed,leisure,pitch,24.9636237,46.5864569,,,,,,
Unnamed,leisure,park,24.6939899,46.7885197,,,,,,
Unnamed,leisure,pitch,24.7032041,46.782878,,,,,,
Unnamed,leisure,swimming_pool,24.700621,46.7815964,,,,,,
Unnamed,leisure,pitch,24.7018823,46.7837687,,,,,,
Unnamed,leisure,swimming_pool,24.7021626,46.7839662,,,,,,
Unnamed,leisure,swimming_pool,24.7031572,46.7855909,,,,,,
Unnamed,leisure,pitch,24.6903567,46.7635322,,,,,,
Unnamed,leisure,park,24.6873468,46.759715,,,,,,
Al Nahda Park North,leisure,park,24.695741,46.7500098,,,,,,
Unnamed,leisure,pitch,24.7000245,46.7473835,,,,,,
Unnamed,leisure,pitch,24.6774338,46.7982732,,,,,,
Unnamed,leisure,playground,24.704207,46.7827419,,,,,,
Unnamed,leisure,pitch,24.7029883,46.7860361,,,,,,
Unnamed,leisure,pitch,24.7032705,46.7864784,,,,,,
Unnamed,leisure,pitch,24.6641268,46.7406593,,,,,,
Unnamed,leisure,pitch,24.5606489,46.520068,,,,,,
Unnamed,leisure,pitch,24.6768878,46.7369668,,,,,,
Unnamed,leisure,pitch,24.6332926,46.6638432,,,,,,
Iskan Park,leisure,park,24.574856,46.8473506,,,,,,
Unnamed,leisure,pitch,24.5750881,46.8476782,,,,,,
Unnamed,leisure,park,24.5681668,46.8381679,,,,,,
Unnamed,leisure,park,24.5691706,46.8366149,,,,,,
Unnamed,leisure,pitch,24.5628831,46.8457289,,,,,,
Unnamed,leisure,pitch,24.8603096,46.7241056,,,,,,
Unnamed,leisure,pitch,24.8602571,46.7236829,,,,,,
Unnamed,leisure,pitch,24.8599008,46.7237425,,,,,,
Unnamed,leisure,pitch,24.8599544,46.7241638,,,,,,
Unnamed,leisure,pitch,24.8595377,46.7238012,,,,,,
Unnamed,leisure,pitch,24.8595937,46.7242266,,,,,,
Unnamed,leisure,pitch,24.8600548,46.7247402,,,,,,
Unnamed,leisure,pitch,24.8598462,46.7231764,,,,,,
Unnamed,leisure,pitch,24.8598018,46.7229255,,,,,,
Unnamed,leisure,pitch,24.8600875,46.7249887,,,,,,
Unnamed,leisure,pitch,24.8613219,46.7293414,,,,,,
Unnamed,leisure,pitch,24.8583509,46.7291555,,,,,,
Unnamed,leisure,pitch,24.8576368,46.7292951,,,,,,
Unnamed,leisure,pitch,24.8569486,46.7294752,,,,,,
Unnamed,leisure,pitch,24.8569254,46.7293033,,,,,,
Unnamed,leisure,pitch,24.857253,46.7288652,,,,,,
Unnamed,leisure,pitch,24.8577055,46.7299102,,,,,,
Unnamed,leisure,pitch,24.861221,46.7287001,,,,,,
Unnamed,leisure,pitch,24.8614616,46.7281845,,,,,,
Unnamed,leisure,pitch,24.8618875,46.7285043,,,,,,
Unnamed,leisure,pitch,24.8619127,46.7286689,,,,,,
Unnamed,leisure,pitch,24.8605018,46.7288053,,,,,,
Unnamed,leisure,track,24.8593719,46.7285739,,,,,,
Unnamed,leisure,garden,24.8375289,46.7192508,,,,,,
Unnamed,leisure,garden,24.8382826,46.7245616,,,,,,
Unnamed,leisure,pitch,24.8584005,46.7089815,,,,,,
Unnamed,leisure,track,24.8583987,46.7089797,,,,,,
Unnamed,leisure,pitch,24.8566827,46.7087043,,,,,,
Unnamed,leisure,pitch,24.8568493,46.7098264,,,,,,
Unnamed,leisure,pitch,24.8557602,46.7100034,,,,,,
Unnamed,leisure,pitch,24.8552943,46.7089397,,,,,,
Unnamed,leisure,pitch,24.855587,46.70889,,,,,,
Unnamed,leisure,pitch,24.8558666,46.7085401,,,,,,
Unnamed,leisure,pitch,24.8559063,46.7088434,,,,,,
Unnamed,leisure,pitch,24.8559481,46.7091331,,,,,,
Unnamed,leisure,pitch,24.8547019,46.7085907,,,,,,
Unnamed,leisure,garden,24.8536379,46.7166008,,,,,,
Unnamed,leisure,garden,24.8456849,46.7179119,,,,,,
Unnamed,leisure,garden,24.8513255,46.7130641,,,,,,
Unnamed,leisure,garden,24.8505854,46.7146405,,,,,,
Unnamed,leisure,garden,24.8504257,46.7134983,,,,,,
Unnamed,leisure,garden,24.8507126,46.7157804,,,,,,
Unnamed,leisure,garden,24.8524383,46.7143377,,,,,,
Unnamed,leisure,garden,24.8523129,46.7131878,,,,,,
Unnamed,leisure,garden,24.8526019,46.7154641,,,,,,
Unnamed,leisure,garden,24.8541824,46.7140321,,,,,,
Unnamed,leisure,garden,24.8540007,46.7128996,,,,,,
Unnamed,leisure,garden,24.8543331,46.7151824,,,,,,
Unnamed,leisure,garden,24.8549207,46.7124695,,,,,,
Unnamed,leisure,garden,24.8560418,46.7137303,,,,,,
Unnamed,leisure,garden,24.8558981,46.7125931,,,,,,
Unnamed,leisure,garden,24.8562291,46.7148646,,,,,,
Unnamed,leisure,garden,24.8465218,46.725679,,,,,,
Unnamed,leisure,garden,24.8464888,46.7254265,,,,,,
Unnamed,leisure,garden,24.846987,46.7253338,,,,,,
Unnamed,leisure,garden,24.8470298,46.7256093,,,,,,
Unnamed,leisure,garden,24.8537319,46.7220143,,,,,,
النادي الرياضي لاعضاء هيئة التدريس الرجالي,leisure,sports_centre,24.8579986,46.7283736,,,,,,
Unnamed,leisure,garden,24.8482974,46.7228967,,,,,,
Unnamed,leisure,park,24.8460103,46.7205565,,,,,,
Unnamed,leisure,garden,24.8444949,46.723539,,,,,,
Unnamed,leisure,pitch,24.8407854,46.7510661,,,,,,
Unnamed,leisure,pitch,24.839604,46.7516638,,,,,,
Unnamed,leisure,pitch,24.8400813,46.7514383,,,,,,
Unnamed,leisure,pitch,24.8413335,46.7507947,,,,,,
Unnamed,leisure,golf_course,24.8103515,46.7247141,,,,,,
Unnamed,leisure,pitch,24.8110784,46.7298468,,,,,,
Unnamed,leisure,pitch,24.8128585,46.7288745,,,,,,
Unnamed,leisure,pitch,24.8164289,46.7180067,,,,,,
Unnamed,leisure,pitch,24.8199849,46.7203253,,,,,,
Unnamed,leisure,pitch,24.8061464,46.7239744,,,,,,
Unnamed,leisure,pitch,24.8060521,46.7237566,,,,,,
Unnamed,leisure,park,24.8046601,46.7203494,,,,,,
Unnamed,leisure,pitch,24.8118252,46.7265642,,,,,,
Unnamed,leisure,pitch,24.8118846,46.7267036,,,,,,
Unnamed,leisure,pitch,24.8114613,46.7264189,,,,,,
Unnamed,leisure,swimming_pool,24.810916,46.7270929,,,,,,
Unnamed,leisure,pitch,24.8124287,46.7155971,,,,,,
Unnamed,leisure,pitch,24.8124823,46.7154352,,,,,,
Unnamed,leisure,pitch,24.8125414,46.7152638,,,,,,
Unnamed,leisure,swimming_pool,24.8122868,46.7158745,,,,,,
Unnamed,leisure,pitch,24.8131978,46.7165466,,,,,,
Unnamed,leisure,swimming_pool,24.8135778,46.7143499,,,,,,
Unnamed,leisure,swimming_pool,24.8091692,46.7298654,,,,,,
Unnamed,leisure,swimming_pool,24.8097929,46.7308417,,,,,,
Unnamed,leisure,swimming_pool,24.8102052,46.7318432,,,,,,
Unnamed,leisure,swimming_pool,24.8084434,46.7293375,,,,,,
Unnamed,leisure,swimming_pool,24.8097242,46.7328079,,,,,,
Unnamed,leisure,swimming_pool,24.8072612,46.7333416,,,,,,
Unnamed,leisure,swimming_pool,24.8068295,46.7323712,,,,,,
Unnamed,leisure,swimming_pool,24.8065494,46.7311659,,,,,,
Unnamed,leisure,swimming_pool,24.8066533,46.7302555,,,,,,
Unnamed,leisure,swimming_pool,24.8082038,46.7335513,,,,,,
Unnamed,leisure,pitch,24.8059626,46.7422777,,,,,,
Unnamed,leisure,pitch,24.8058778,46.7420909,,,,,,
حديقة قرطبة,leisure,park,24.8160686,46.7382792,حديقة قرطبة,,,,,
Unnamed,leisure,pitch,24.7976537,46.7461615,,,,,,
Unnamed,leisure,pitch,24.7978361,46.7463379,,,,,,
Unnamed,leisure,pitch,24.8737942,46.709241,,,,,,
Unnamed,leisure,pitch,24.8738303,46.709422,,,,,,
Unnamed,leisure,pitch,24.8738683,46.7095992,,,,,,
Unnamed,leisure,pitch,24.8739333,46.7106786,,,,,,
Unnamed,leisure,pitch,24.8740236,46.7119776,,,,,,
Unnamed,leisure,pitch,24.8743403,46.7103896,,,,,,
Unnamed,leisure,pitch,24.8744128,46.7107155,,,,,,
Unnamed,leisure,swimming_pool,24.8727156,46.7107827,,,,,,
Unnamed,leisure,park,24.8730545,46.7101634,,,,,,
Unnamed,leisure,park,24.8701429,46.7077673,,,,,,
Unnamed,leisure,park,24.8733602,46.7139963,,,,,,
Unnamed,leisure,park,24.8650048,46.6253004,,,,,,
Unnamed,leisure,pitch,24.8031366,46.6288107,,,,,,
Unnamed,leisure,pitch,24.8038083,46.6268713,,,,,,
Unnamed,leisure,pitch,24.8035358,46.6270076,,,,,,
Unnamed,leisure,pitch,24.8051457,46.6273708,,,,,,
Unnamed,leisure,park,24.8085127,46.6771245,,,,,,
Unnamed,leisure,park,24.800219,46.6798997,,,,,,
Unnamed,leisure,pitch,24.8024053,46.6577985,,,,,,
Unnamed,leisure,pitch,24.8024745,46.6579594,,,,,,
Unnamed,leisure,pitch,24.8025422,46.6581197,,,,,,
Unnamed,leisure,pitch,24.8022633,46.6582613,,,,,,
Unnamed,leisure,pitch,24.8024316,46.6587376,,,,,,
Unnamed,leisure,swimming_pool,24.8032884,46.658394,,,,,,
Unnamed,leisure,swimming_pool,24.8033088,46.6585256,,,,,,
Unnamed,leisure,pitch,24.8018602,46.6555697,,,,,,
Unnamed,leisure,pitch,24.8015193,46.6557337,,,,,,
Falah Park حديقة الفلاح,leisure,park,24.7920129,46.7063797,,,,,,
IMSIU Stadium,leisure,stadium,24.8063122,46.7035005,,,,,,
Unnamed,leisure,pitch,24.8063254,46.7035552,,,,,,
Unnamed,leisure,pitch,24.8086295,46.7016172,,,,,,
Unnamed,leisure,pitch,24.8087181,46.7013633,,,,,,
Unnamed,leisure,pitch,24.8088047,46.7011082,,,,,,
Unnamed,leisure,pitch,24.7821624,46.725103,,,,,,
Unnamed,leisure,swimming_pool,24.7818759,46.7248842,,,,,,
Unnamed,leisure,pitch,24.7835925,46.7244797,,,,,,
Unnamed,leisure,park,24.7777123,46.7190559,,,,,,
Unnamed,leisure,pitch,24.7616955,46.7212583,,,,,,
Unnamed,leisure,pitch,24.761804,46.7215121,,,,,,
Unnamed,leisure,pitch,24.7620546,46.7212342,,,,,,
Unnamed,leisure,park,24.7567931,46.7233987,,,,,,
Unnamed,leisure,park,24.7418026,46.6876058,,,,,,
حديقة الواحة,leisure,park,24.7360337,46.7198868,,,,,,
Unnamed,leisure,pitch,24.74715,46.7197179,,,,,,
Unnamed,leisure,pitch,24.7500097,46.7397603,,,,,,
Unnamed,leisure,pitch,24.7492812,46.7398872,,,,,,
Unnamed,leisure,pitch,24.7492777,46.7397206,,,,,,
Unnamed,leisure,pitch,24.7492877,46.7395297,,,,,,
Unnamed,leisure,garden,24.7501845,46.7252921,,,,,,
Unnamed,leisure,garden,24.7500628,46.7255131,,,,,,
Unnamed,leisure,garden,24.7502061,46.7255655,,,,,,
Unnamed,leisure,pitch,24.7408046,46.7390181,,,,,,
Unnamed,leisure,track,24.7407967,46.7390144,,,,,,
Unnamed,leisure,park,24.7278458,46.7435366,,,,,,
Unnamed,leisure,swimming_pool,24.7304778,46.7418934,,,,,,
Unnamed,leisure,park,24.7281847,46.7472707,,,,,,
Unnamed,leisure,garden,24.7267176,46.7524171,,,,,,
Unnamed,leisure,pitch,24.7212291,46.7435083,,,,,,
Unnamed,leisure,pitch,24.721776,46.7433959,,,,,,
Unnamed,leisure,pitch,24.7139583,46.7437027,,,,,,
Unnamed,leisure,pitch,24.7144006,46.7441299,,,,,,
Unnamed,leisure,garden,24.715155,46.7448708,,,,,,
Unnamed,leisure,pitch,24.71723,46.7450924,,,,,,
Unnamed,leisure,pitch,24.7175461,46.7481072,,,,,,
Unnamed,leisure,garden,24.7140069,46.7479645,,,,,,
Unnamed,leisure,pitch,24.7178725,46.7472632,,,,,,
Unnamed,leisure,pitch,24.721877,46.7484743,,,,,,
Unnamed,leisure,pitch,24.7207406,46.7452038,,,,,,
Unnamed,leisure,garden,24.7211756,46.7450306,,,,,,
Unnamed,leisure,garden,24.7195908,46.7447821,,,,,,
Unnamed,leisure,garden,24.7205975,46.7444359,,,,,,
Unnamed,leisure,park,24.719633,46.7514834,,,,,,
Unnamed,leisure,pitch,24.7342112,46.7070354,,,,,,
Unnamed,leisure,pitch,24.7288919,46.7022949,,,,,,
Unnamed,leisure,pitch,24.7355618,46.696866,,,,,,
Unnamed,leisure,pitch,24.7354449,46.6965944,,,,,,
Unnamed,leisure,pitch,24.7353461,46.6963372,,,,,,
Unnamed,leisure,pitch,24.7356616,46.6971122,,,,,,
Unnamed,leisure,pitch,24.7357266,46.6972666,,,,,,
Unnamed,leisure,pitch,24.7358365,46.6975336,,,,,,
Unnamed,leisure,pitch,24.7359278,46.6977474,,,,,,
Unnamed,leisure,pitch,24.7339072,46.7059612,,,,,,
Unnamed,leisure,pitch,24.7359409,46.7067615,,,,,,
منتجع وسبا الوصيل,leisure,resort,24.8683905,46.4496661,,,,,,
Unnamed,leisure,pitch,24.845069,46.4746245,,,,,,
Unnamed,leisure,garden,24.8380255,46.4741735,,,,,,
Unnamed,leisure,pitch,24.8719702,46.4536077,,,,,,
Unnamed,leisure,pitch,24.8726583,46.4538243,,,,,,
Unnamed,leisure,golf_course,24.8700575,46.4545258,,,,,,
Unnamed,leisure,pitch,24.8692165,46.4550341,,,,,,
Unnamed,leisure,pitch,24.869601,46.4550931,,,,,,
Unnamed,leisure,pitch,24.8702272,46.4548946,,,,,,
Unnamed,leisure,swimming_pool,24.8725485,46.4543362,,,,,,
Unnamed,leisure,pitch,24.7271542,46.6931411,,,,,,
Unnamed,leisure,swimming_pool,24.7275224,46.6947115,,,,,,
Unnamed,leisure,pitch,24.731883,46.7180945,,,,,,
Unnamed,leisure,pitch,24.7116789,46.7528681,,,,,,
Unnamed,leisure,park,24.7023873,46.7383172,,,,,,
Unnamed,leisure,track,24.7060268,46.7530873,,,,,,
Unnamed,leisure,pitch,24.7072018,46.7542097,,,,,,
Unnamed,leisure,swimming_pool,24.7053368,46.7514565,,,,,,
Unnamed,leisure,pitch,24.7047508,46.7520816,,,,,,
Unnamed,leisure,pitch,24.7060011,46.7511651,,,,,,
Unnamed,leisure,track,24.7063383,46.7549731,,,,,,
Unnamed,leisure,pitch,24.7073997,46.7524175,,,,,,
Unnamed,leisure,garden,24.7096795,46.7527512,,,,,,
Unnamed,leisure,park,24.7799762,46.6327697,,,,,,
Unnamed,leisure,pitch,24.7721068,46.561835,,,,,,
Unnamed,leisure,pitch,24.7725586,46.5628327,,,,,,
Unnamed,leisure,pitch,24.7565719,46.5652209,,,,,,
Unnamed,leisure,pitch,24.7561012,46.5656308,,,,,,
Unnamed,leisure,playground,24.7562766,46.567223,,,,,,
Unnamed,leisure,playground,24.7558592,46.5672268,,,,,,
Unnamed,leisure,pitch,24.7535634,46.5674351,,,,,,
Unnamed,leisure,pitch,24.7519258,46.5659257,,,,,,
Unnamed,leisure,pitch,24.7500944,46.569298,,,,,,
Unnamed,leisure,playground,24.74879,46.5700231,,,,,,
Unnamed,leisure,pitch,24.7520686,46.5805888,,,,,,
Unnamed,leisure,pitch,24.7523719,46.5811783,,,,,,
Unnamed,leisure,pitch,24.7521696,46.5811992,,,,,,
Unnamed,leisure,park,24.7428361,46.5777107,,,,,,
Unnamed,leisure,park,24.7482085,46.5820954,,,,,,
Unnamed,leisure,park,24.7505615,46.5780053,,,,,,
Unnamed,leisure,park,24.7544226,46.5739814,,,,,,
Unnamed,leisure,park,24.7572028,46.5705437,,,,,,
Unnamed,leisure,pitch,24.9392653,46.4664383,,,,,,
Unnamed,leisure,pitch,24.9387132,46.4673503,,,,,,
Unnamed,leisure,park,24.9310757,46.4395875,,,,,,
Unnamed,leisure,playground,24.9079677,46.4425544,,,,,,
Unnamed,leisure,pitch,24.9081627,46.443134,,,,,,
Unnamed,leisure,pitch,24.9080959,46.4429407,,,,,,
Unnamed,leisure,park,24.8985938,46.4408404,,,,,,
Unnamed,leisure,pitch,24.8989601,46.4403765,,,,,,
Unnamed,leisure,pitch,24.8990647,46.4405512,,,,,,
Unnamed,leisure,pitch,24.9006026,46.4533002,,,,,,
Unnamed,leisure,pitch,24.8899447,46.4983613,,,,,,
Unnamed,leisure,pitch,24.8885109,46.5007669,,,,,,
Unnamed,leisure,pitch,24.8891346,46.4990258,,,,,,
Unnamed,leisure,pitch,24.8887775,46.4990543,,,,,,
Unnamed,leisure,garden,24.8829537,46.5601348,,,,,,
Unnamed,leisure,pitch,24.8742772,46.5619771,,,,,,
Unnamed,leisure,pitch,24.8745109,46.5620244,,,,,,
Unnamed,leisure,pitch,24.8751314,46.5602673,,,,,,
Unnamed,leisure,pitch,24.8741698,46.5601097,,,,,,
Unnamed,leisure,pitch,24.8739254,46.5600784,,,,,,
Unnamed,leisure,pitch,24.8798583,46.5653762,,,,,,
Unnamed,leisure,track,24.8848758,46.5647072,,,,,,
Unnamed,leisure,track,24.8852643,46.5645126,,,,,,
Unnamed,leisure,track,24.8839293,46.5647288,,,,,,
Unnamed,leisure,track,24.8825786,46.5649436,,,,,,
Unnamed,leisure,pitch,24.8680693,46.5590634,,,,,,
Unnamed,leisure,pitch,24.8760947,46.5595816,,,,,,
Unnamed,leisure,swimming_pool,24.8770178,46.5594053,,,,,,
Unnamed,leisure,pitch,24.8789468,46.5588699,,,,,,
Unnamed,leisure,pitch,24.8795484,46.5608306,,,,,,
Unnamed,leisure,park,24.8688642,46.5698354,,,,,,
Unnamed,leisure,pitch,24.8627182,46.5918803,,,,,,
Unnamed,leisure,pitch,24.8629811,46.5827027,,,,,,
Unnamed,leisure,pitch,24.8723381,46.5875912,,,,,,
Unnamed,leisure,pitch,24.8664631,46.5823831,,,,,,
Unnamed,leisure,pitch,24.8666101,46.5823082,,,,,,
Unnamed,leisure,swimming_pool,24.8666405,46.5825624,,,,,,
Unnamed,leisure,track,24.8627142,46.5918413,,,,,,
Unnamed,leisure,pitch,24.8631846,46.5922694,,,,,,
Unnamed,leisure,pitch,24.8627001,46.5925033,,,,,,
Unnamed,leisure,park,24.8627179,46.593614,,,,,,
Unnamed,leisure,park,24.8639248,46.5930102,,,,,,
منتزة الملك سلمان البري,leisure,park,25.003182,46.6005945,,,,,,
Unnamed,leisure,pitch,25.0102984,46.5681545,,,,,,
Unnamed,leisure,pitch,25.0104146,46.5675522,,,,,,
Unnamed,leisure,pitch,25.010755,46.5683298,,,,,,
Unnamed,leisure,pitch,25.0106048,46.5674565,,,,,,
Unnamed,leisure,playground,25.011,46.5682958,,,,,,
Unnamed,leisure,track,25.0086302,46.5694814,,,,,,
Banban Resort,leisure,sports_centre,25.0094924,46.5689104,,,,,,
Unnamed,leisure,pitch,24.9589908,46.5778344,,,,,,
Soccer,leisure,pitch,24.9584841,46.5776765,,,,,,
Adult's,leisure,swimming_pool,24.9587385,46.5775189,,,,,,
Children's,leisure,swimming_pool,24.9589804,46.577568,,,,,,
Unnamed,leisure,pitch,24.9594477,46.577645,,,,,,
Unnamed,leisure,pitch,24.9587126,46.5778323,,,,,,
Miniature Golf,leisure,golf_course,24.9581157,46.577595,,,,,,
Unnamed,leisure,pitch,24.9601515,46.5764127,,,,,,
Unnamed,leisure,pitch,24.9620622,46.5763334,,,,,,
Unnamed,leisure,pitch,24.9600007,46.5757391,,,,,,
Unnamed,leisure,pitch,24.9641023,46.5842459,,,,,,
Unnamed,leisure,pitch,24.9646616,46.5790935,,,,,,
Unnamed,leisure,pitch,24.9577557,46.5761645,,,,,,
Unnamed,leisure,pitch,24.9542004,46.5761832,,,,,,
Unnamed,leisure,pitch,24.958529,46.5739838,,,,,,
Unnamed,leisure,pitch,24.9612549,46.5723584,,,,,,
Unnamed,leisure,pitch,24.9623491,46.5737451,,,,,,
Unnamed,leisure,pitch,24.9618961,46.5739378,,,,,,
Unnamed,leisure,park,24.8729888,46.6430414,,,,,,
Unnamed,leisure,park,24.8705742,46.6333863,,,,,,
Unnamed,leisure,pitch,24.8365862,46.6055267,,,,,,
Unnamed,leisure,pitch,24.8368136,46.6060866,,,,,,
Unnamed,leisure,pitch,24.7956053,46.6268601,,,,,,
Unnamed,leisure,pitch,24.7875959,46.6306233,,,,,,
Unnamed,leisure,park,24.7851953,46.6289666,,,,,,
Unnamed,leisure,park,24.8001086,46.6124309,,,,,,
Unnamed,leisure,swimming_pool,24.8020782,46.627855,,,,,,
Unnamed,leisure,park,24.7854708,46.5988986,,,,,,
Unnamed,leisure,park,24.7939879,46.5783855,,,,,,
Unnamed,leisure,pitch,24.6183579,46.4993657,,,,,,
Unnamed,leisure,pitch,24.6179929,46.4996323,,,,,,
Unnamed,leisure,pitch,24.6177348,46.4998568,,,,,,
Unnamed,leisure,park,24.6375755,46.5675275,,,,,,
Unnamed,leisure,pitch,24.6766797,46.6310888,,,,,,
Unnamed,leisure,pitch,24.6739936,46.6278535,,,,,,
Unnamed,leisure,pitch,24.6808419,46.6292439,,,,,,
Unnamed,leisure,pitch,24.6807048,46.6292636,,,,,,
Unnamed,leisure,pitch,24.6804181,46.6292785,,,,,,
Unnamed,leisure,pitch,24.6802791,46.6292959,,,,,,
Unnamed,leisure,swimming_pool,24.681205,46.6301569,,,,,,
Unnamed,leisure,pitch,24.6802836,46.6287253,,,,,,
Unnamed,leisure,park,24.6639342,46.6366786,,,,,,
Unnamed,leisure,park,24.6624697,46.6377546,,,,,,
Unnamed,leisure,park,24.656623,46.6417417,,,,,,
Unnamed,leisure,park,24.6502284,46.642996,,,,,,
Unnamed,leisure,swimming_pool,24.650249,46.6429542,,,,,,
Al Hada Park,leisure,park,24.6587689,46.6270526,,,,,,
Unnamed,leisure,pitch,24.6481588,46.6499952,,,,,,
Unnamed,leisure,pitch,24.6478341,46.650913,,,,,,
Unnamed,leisure,pitch,24.6476602,46.6486676,,,,,,
Unnamed,leisure,pitch,24.6467273,46.6479473,,,,,,
Bowling Center,leisure,sports_centre,24.6488232,46.6518644,,,,,,
Badminton Square,leisure,sports_centre,24.6483286,46.6521564,,,,,,
Crown Prince Park,leisure,park,24.6577288,46.6785626,,,,,,
Unnamed,leisure,pitch,24.6840778,46.6183484,,,,,,
Unnamed,leisure,pitch,24.6843474,46.6169104,,,,,,
Unnamed,leisure,pitch,24.6847798,46.6168876,,,,,,
Unnamed,leisure,pitch,24.681283,46.6201772,,,,,,
Unnamed,leisure,swimming_pool,24.6812317,46.61988,,,,,,
Unnamed,leisure,pitch,24.6792534,46.6309284,,,,,,
Unnamed,leisure,pitch,24.6794308,46.6304976,,,,,,
Unnamed,leisure,pitch,24.6791084,46.6319732,,,,,,
Unnamed,leisure,pitch,24.6792162,46.6314754,,,,,,
Unnamed,leisure,pitch,24.6837703,46.6296952,,,,,,
Unnamed,leisure,pitch,24.6881312,46.6237421,,,,,,
Unnamed,leisure,pitch,24.688119,46.6277284,,,,,,
Unnamed,leisure,pitch,24.6870622,46.6247563,,,,,,
Unnamed,leisure,pitch,24.6861331,46.6232622,,,,,,
Unnamed,leisure,pitch,24.6738,46.6218639,,,,,,
Unnamed,leisure,swimming_pool,24.6880133,46.6187225,,,,,,
Unnamed,leisure,pitch,24.6889311,46.6294939,,,,,,
Unnamed,leisure,swimming_pool,24.6868034,46.624892,,,,,,
Unnamed,leisure,swimming_pool,24.6870481,46.6257986,,,,,,
Unnamed,leisure,swimming_pool,24.6869638,46.6251829,,,,,,
Unnamed,leisure,swimming_pool,24.6880199,46.6275919,,,,,,
Unnamed,leisure,swimming_pool,24.6886212,46.628944,,,,,,
Unnamed,leisure,pitch,24.6839425,46.6262593,,,,,,
Unnamed,leisure,swimming_pool,24.684297,46.6279394,,,,,,
Unnamed,leisure,pitch,24.6814501,46.6253424,,,,,,
Unnamed,leisure,pitch,24.6729822,46.6186223,,,,,,
Unnamed,leisure,pitch,24.6801501,46.6162122,,,,,,
Unnamed,leisure,pitch,24.6821068,46.6330512,,,,,,
Al A'arid Garden,leisure,park,24.6824772,46.6329784,,,,,,
Unnamed,leisure,park,24.6761707,46.6283388,,,,,,
Unnamed,leisure,swimming_pool,24.6734131,46.6261599,,,,,,
Unnamed,leisure,swimming_pool,24.673821,46.6280396,,,,,,
Unnamed,leisure,track,24.6840718,46.6182826,,,,,,
Unnamed,leisure,park,24.6811966,46.6163028,,,,,,
Unnamed,leisure,park,24.6914562,46.6278653,,,,,,
Unnamed,leisure,pitch,24.6942275,46.6230697,,,,,,
Unnamed,leisure,pitch,24.6818522,46.6276329,,,,,,
Unnamed,leisure,park,24.6865879,46.6215799,,,,,,
Hai Al Safarat Sports Facilities,leisure,park,24.6802285,46.6304471,,,,,,
Unnamed,leisure,swimming_pool,24.6882086,46.6199211,,,,,,
Unnamed,leisure,park,24.8589093,46.7811663,,,,,,
Unnamed,leisure,park,24.8628814,46.8099658,,,,,,
Unnamed,leisure,park,24.8511575,46.8337316,,,,,,
Unnamed,leisure,park,24.8411475,46.8333419,,,,,,
Unnamed,leisure,pitch,24.8686472,46.8909821,,,,,,
Unnamed,leisure,pitch,24.8885187,46.9204269,,,,,,
Unnamed,leisure,park,24.8840005,46.9172665,,,,,,
Unnamed,leisure,park,24.8849762,46.9165275,,,,,,
Unnamed,leisure,swimming_pool,24.6872003,46.6225447,,,,,,
Unnamed,leisure,swimming_pool,24.6880212,46.6236234,,,,,,
Unnamed,leisure,swimming_pool,24.6882229,46.6252297,,,,,,
Unnamed,leisure,swimming_pool,24.6883099,46.6275823,,,,,,
Unnamed,leisure,pitch,24.8680596,46.8892388,,,,,,
Unnamed,leisure,pitch,24.8680666,46.8888413,,,,,,
Unnamed,leisure,pitch,24.8684216,46.8888516,,,,,,
Unnamed,leisure,pitch,24.8687363,46.8888527,,,,,,
Unnamed,leisure,pitch,24.8686552,46.8892348,,,,,,
Unnamed,leisure,pitch,24.8680672,46.8890304,,,,,,
Unnamed,leisure,pitch,24.8701578,46.8854718,,,,,,
Unnamed,leisure,track,24.8686406,46.8909999,,,,,,
Unnamed,leisure,garden,24.8246802,46.8700715,,,,,,
Unnamed,leisure,pitch,24.7980868,46.8888987,,,,,,
Unnamed,leisure,pitch,24.810648,46.8659828,,,,,,
Unnamed,leisure,pitch,24.8147569,46.8541157,,,,,,
Unnamed,leisure,pitch,24.8151378,46.8535998,,,,,,
Unnamed,leisure,pitch,24.8149446,46.8538547,,,,,,
Unnamed,leisure,track,24.9475941,46.9801072,,,,,,
Unnamed,leisure,pitch,24.9473928,46.9697117,,,,,,
Unnamed,leisure,pitch,24.9473668,46.9699383,,,,,,
Unnamed,leisure,park,24.9492866,46.974136,,,,,,
Unnamed,leisure,pitch,24.7383412,46.8857978,,,,,,
Unnamed,leisure,pitch,24.7284895,46.8701867,,,,,,
Unnamed,leisure,pitch,24.7284627,46.8737808,,,,,,
Unnamed,leisure,pitch,24.7355709,46.8857561,,,,,,
Unnamed,leisure,pitch,24.7356335,46.8865265,,,,,,
Unnamed,leisure,track,24.7381629,46.8806778,,,,,,
Unnamed,leisure,pitch,24.7346373,46.8857682,,,,,,
Unnamed,leisure,pitch,24.734812,46.8867531,,,,,,
Unnamed,leisure,pitch,24.7346235,46.8855879,,,,,,
Unnamed,leisure,pitch,24.7348381,46.8870913,,,,,,
Unnamed,leisure,pitch,24.7381629,46.8806778,,,,,,
Unnamed,leisure,pitch,24.7210723,46.8818739,,,,,,
Unnamed,leisure,pitch,24.7214574,46.8821715,,,,,,
Unnamed,leisure,pitch,24.7211387,46.882373,,,,,,
Unnamed,leisure,pitch,24.721567,46.8823596,,,,,,
Unnamed,leisure,pitch,24.7212442,46.8825775,,,,,,
Unnamed,leisure,park,24.7545249,46.8515484,,,,,,
Unnamed,leisure,park,24.7531926,46.8524978,,,,,,
Unnamed,leisure,garden,24.7535162,46.8536077,,,,,,
Unnamed,leisure,garden,24.7538993,46.8541963,,,,,,
Unnamed,leisure,park,24.7616404,46.866743,,,,,,
Unnamed,leisure,garden,24.7603365,46.8676232,,,,,,
Unnamed,leisure,park,24.7652091,46.8677596,,,,,,
Unnamed,leisure,park,24.7659917,46.866781,,,,,,
Unnamed,leisure,pitch,24.7966471,46.8999017,,,,,,
Unnamed,leisure,pitch,24.7962899,46.8996349,,,,,,
Unnamed,leisure,pitch,24.7964723,46.8997672,,,,,,
Unnamed,leisure,playground,24.79641,46.8990399,,,,,,
Unnamed,leisure,park,24.7957718,46.9004269,,,,,,
Unnamed,leisure,park,24.7888226,46.8999031,,,,,,
Unnamed,leisure,park,24.8106176,46.8795302,,,,,,
Unnamed,leisure,pitch,24.8122752,46.8785492,,,,,,
Unnamed,leisure,pitch,24.773527,46.8614006,,,,,,
Unnamed,leisure,track,24.7735286,46.8614005,,,,,,
Unnamed,leisure,pitch,24.7660948,46.7981709,,,,,,
Unnamed,leisure,pitch,24.7662736,46.7984629,,,,,,
Unnamed,leisure,playground,24.7664752,46.798785,,,,,,
Unnamed,leisure,park,24.7656632,46.7991083,,,,,,
Unnamed,leisure,garden,24.7646133,46.799123,,,,,,
Unnamed,leisure,garden,24.7670404,46.8010769,,,,,,
Unnamed,leisure,garden,24.7699633,46.8032827,,,,,,
Unnamed,leisure,pitch,24.7774479,46.8018134,,,,,,
Seder Pool,leisure,swimming_pool,24.7776992,46.8025593,,,,,,
Unnamed,leisure,pitch,24.7771737,46.8019888,,,,,,
Unnamed,leisure,pitch,24.7772119,46.8022855,,,,,,
Unnamed,leisure,swimming_pool,24.7934151,46.80568,,,,,,
Unnamed,leisure,pitch,24.7930015,46.8046573,,,,,,
Unnamed,leisure,pitch,24.7923719,46.8051531,,,,,,
Unnamed,leisure,pitch,24.7922995,46.8049922,,,,,,
Unnamed,leisure,pitch,24.7955579,46.8100915,,,,,,
Unnamed,leisure,park,24.8037035,46.8087912,,,,,,
Unnamed,leisure,park,24.7943157,46.7895295,,,,,,
Unnamed,leisure,pitch,24.8229076,46.7999927,,,,,,
Unnamed,leisure,pitch,24.8231172,46.8003399,,,,,,
Unnamed,leisure,pitch,24.822558,46.8007498,,,,,,
Unnamed,leisure,pitch,24.8223469,46.8004025,,,,,,
Unnamed,leisure,park,24.8239503,46.8100333,,,,,,
Unnamed,leisure,pitch,24.7576135,46.8432935,,,,,,
Unnamed,leisure,pitch,24.7562494,46.8439865,,,,,,
Unnamed,leisure,pitch,24.7551954,46.8447003,,,,,,
Unnamed,leisure,pitch,24.7534017,46.8459901,,,,,,
Unnamed,leisure,pitch,24.7521954,46.8468593,,,,,,
Unnamed,leisure,pitch,24.7513557,46.8474382,,,,,,
Unnamed,leisure,pitch,24.7451827,46.8465628,,,,,,
Unnamed,leisure,pitch,24.7454433,46.8469683,,,,,,
Unnamed,leisure,pitch,24.7452251,46.846831,,,,,,
Unnamed,leisure,pitch,24.745424,46.8466789,,,,,,
Unnamed,leisure,playground,24.745603,46.8465511,,,,,,
Unnamed,leisure,pitch,24.7457654,46.8474741,,,,,,
Unnamed,leisure,park,24.7462587,46.8483167,,,,,,
Unnamed,leisure,pitch,24.7575774,46.838185,,,,,,
Unnamed,leisure,pitch,24.7566408,46.8367439,,,,,,
Unnamed,leisure,pitch,24.7577212,46.8358985,,,,,,
Unnamed,leisure,pitch,24.7577613,46.8346269,,,,,,
Unnamed,leisure,pitch,24.7584887,46.8373161,,,,,,
Unnamed,leisure,pitch,24.7594883,46.8364803,,,,,,
Unnamed,leisure,pitch,24.7551656,46.8375152,,,,,,
Unnamed,leisure,pitch,24.7554771,46.8364072,,,,,,
Unnamed,leisure,park,24.7498183,46.8388796,,,,,,
Unnamed,leisure,pitch,24.7435543,46.8345597,,,,,,
Unnamed,leisure,pitch,24.7402235,46.8365932,,,,,,
Unnamed,leisure,pitch,24.7423262,46.8326754,,,,,,
Unnamed,leisure,pitch,24.7308739,46.8397466,,,,,,
Unnamed,leisure,pitch,24.6433792,46.94009,,,,,,
Unnamed,leisure,pitch,24.6862851,46.9272871,,,,,,
Unnamed,leisure,swimming_pool,24.6935573,46.8998816,,,,,,
Unnamed,leisure,stadium,24.6941115,46.8941285,,,,,,
Unnamed,leisure,pitch,24.696759,46.8987702,,,,,,
Unnamed,leisure,pitch,24.6921371,46.8974341,,,,,,
Unnamed,leisure,pitch,24.6926796,46.8985103,,,,,,
Unnamed,leisure,pitch,24.7048547,46.886558,,,,,,
Unnamed,leisure,pitch,24.7094995,46.8837173,,,,,,
Unnamed,leisure,pitch,24.7017976,46.8916274,,,,,,
Unnamed,leisure,park,24.6917701,46.8615908,,,,,,
Unnamed,leisure,park,24.6947973,46.8596492,,,,,,
Unnamed,leisure,park,24.6996756,46.8670967,,,,,,
Unnamed,leisure,park,24.6966447,46.8677933,,,,,,
Unnamed,leisure,park,24.6951825,46.8681312,,,,,,
Unnamed,leisure,pitch,24.6981338,46.8631639,,,,,,
Unnamed,leisure,track,24.6967522,46.8988204,,,,,,
Old soccer pitch,leisure,pitch,24.6790025,46.9014426,,,,,,
Unnamed,leisure,pitch,24.6815451,46.9000366,,,,,,
Unnamed,leisure,pitch,24.6817815,46.900037,,,,,,
Unnamed,leisure,swimming_pool,24.6817154,46.8997241,,,,,,
Unnamed,leisure,pitch,24.6764683,46.9039704,,,,,,
Unnamed,leisure,swimming_pool,24.6765989,46.9044604,,,,,,
Unnamed,leisure,pitch,24.6618939,46.8986854,,,,,,
Unnamed,leisure,pitch,24.6649098,46.8990685,,,,,,
Unnamed,leisure,pitch,24.7622907,46.8627454,,,,,,
Unnamed,leisure,pitch,24.7514344,46.8715359,,,,,,
Unnamed,leisure,pitch,24.753633,46.8667012,,,,,,
Unnamed,leisure,swimming_pool,24.7544718,46.8654776,,,,,,
MC Park,leisure,park,24.7549512,46.866779,,,,,,
Unnamed,leisure,pitch,24.7552853,46.8655375,,,,,,
Multipurpose Court,leisure,sports_centre,24.7550362,46.8657755,,,,,,
Unnamed,leisure,pitch,24.7522885,46.8748504,,,,,,
Unnamed,leisure,pitch,24.7556141,46.8772412,,,,,,
Unnamed,leisure,pitch,24.7545892,46.8748268,,,,,,
Unnamed,leisure,pitch,24.7568458,46.8805105,,,,,,
Unnamed,leisure,pitch,24.7569513,46.8781502,,,,,,
Unnamed,leisure,pitch,24.7569346,46.8772395,,,,,,
Unnamed,leisure,pitch,24.752622,46.8807803,,,,,,
Unnamed,leisure,swimming_pool,24.7557567,46.8838985,,,,,,
Unnamed,leisure,pitch,24.7552895,46.8834703,,,,,,
Unnamed,leisure,pitch,24.7557938,46.8834716,,,,,,
Unnamed,leisure,pitch,24.7555497,46.8827821,,,,,,
Unnamed,leisure,park,24.7487402,46.8572599,,,,,,
Unnamed,leisure,track,25.0881252,46.7676848,,,,,,
Unnamed,leisure,park,25.0912337,46.6686788,,,,,,
Unnamed,leisure,pitch,25.0645492,46.6461167,,,,,,
Unnamed,leisure,track,25.0587095,46.6664531,,,,,,
Unnamed,leisure,pitch,25.0597487,46.6761165,,,,,,
Unnamed,leisure,swimming_pool,25.080267,46.6164909,,,,,,
Unnamed,leisure,swimming_pool,25.0803654,46.6164957,,,,,,
Unnamed,leisure,pitch,25.0805289,46.6173242,,,,,,
Unnamed,leisure,playground,25.014244,46.593764,,,,,,
Unnamed,leisure,playground,25.0134864,46.5965775,,,,,,
Unnamed,leisure,playground,25.0123387,46.5950383,,,,,,
Unnamed,leisure,playground,25.0108788,46.5961253,,,,,,
Unnamed,leisure,pitch,25.0037769,46.597965,,,,,,
Unnamed,leisure,playground,24.9997685,46.5983279,,,,,,
Unnamed,leisure,swimming_pool,24.9257939,46.5664391,,,,,,
Unnamed,leisure,playground,24.6395271,46.7904338,,,,,,
Unnamed,leisure,pitch,24.6390164,46.7900164,,,,,,
Unnamed,leisure,pitch,24.6388775,46.7903644,,,,,,
Unnamed,leisure,pitch,24.6391353,46.7903783,,,,,,
Unnamed,leisure,playground,24.6183516,46.7727567,,,,,,
Unnamed,leisure,playground,24.6184061,46.7734113,,,,,,
Unnamed,leisure,playground,24.6174635,46.7719776,,,,,,
Unnamed,leisure,playground,24.6164841,46.7725512,,,,,,
Unnamed,leisure,pitch,24.6170006,46.7705301,,,,,,
Unnamed,leisure,pitch,24.6161194,46.7727654,,,,,,
Unnamed,leisure,playground,24.6166173,46.7735453,,,,,,
Unnamed,leisure,pitch,24.6095478,46.7843415,,,,,,
Unnamed,leisure,swimming_pool,24.6088846,46.7859093,,,,,,
Unnamed,leisure,swimming_pool,24.6113864,46.7838146,,,,,,
Unnamed,leisure,pitch,24.6084711,46.785694,,,,,,
Unnamed,leisure,sports_centre,24.611255,46.7840568,,,,,,
Unnamed,leisure,park,24.5839215,46.7838949,,,,,,
Unnamed,leisure,pitch,24.5770185,46.8414531,,,,,,
Unnamed,leisure,pitch,24.5764635,46.8479332,,,,,,
Unnamed,leisure,pitch,24.5838075,46.8456078,,,,,,
Unnamed,leisure,pitch,24.5846223,46.8492696,,,,,,
Unnamed,leisure,pitch,24.584285,46.849073,,,,,,
Unnamed,leisure,pitch,24.5895878,46.8477267,,,,,,
Unnamed,leisure,pitch,24.5891763,46.8499597,,,,,,
Unnamed,leisure,pitch,24.5890512,46.8502151,,,,,,
Unnamed,leisure,park,24.5874075,46.8493067,,,,,,
Unnamed,leisure,pitch,24.5878363,46.8503212,,,,,,
Unnamed,leisure,park,24.5914416,46.840495,,,,,,
Unnamed,leisure,pitch,24.5913126,46.8411781,,,,,,
Unnamed,leisure,swimming_pool,24.5910995,46.8417399,,,,,,
Unnamed,leisure,pitch,24.591591,46.8286104,,,,,,
Unnamed,leisure,pitch,24.594581,46.8232577,,,,,,
Unnamed,leisure,pitch,24.5946604,46.8230401,,,,,,
Unnamed,leisure,pitch,24.594488,46.8242065,,,,,,
Unnamed,leisure,track,24.5916162,46.8286059,,,,,,
Bootcamp,leisure,track,24.595554,46.8133142,,,,,,
Unnamed,leisure,pitch,24.5949669,46.8130781,,,,,,
Unnamed,leisure,pitch,24.595515,46.8142912,,,,,,
Unnamed,leisure,pitch,24.5950402,46.814748,,,,,,
Unnamed,leisure,pitch,24.594887,46.8140731,,,,,,
Unnamed,leisure,pitch,24.5942044,46.816493,,,,,,
Unnamed,leisure,pitch,24.5933303,46.8187226,,,,,,
Unnamed,leisure,pitch,24.5937887,46.8163028,,,,,,
Unnamed,leisure,pitch,24.5937105,46.8165132,,,,,,
Unnamed,leisure,swimming_pool,24.5936122,46.8158103,,,,,,
Unnamed,leisure,park,24.5961893,46.8648821,,,,,,
Unnamed,leisure,pitch,24.5733317,46.8514853,,,,,,
Unnamed,leisure,pitch,24.5793555,46.852622,,,,,,
Bootcamp,leisure,track,24.580781,46.8530522,,,,,,
Unnamed,leisure,pitch,24.5812899,46.8511422,,,,,,
Unnamed,leisure,track,24.5803408,46.8579719,,,,,,
Unnamed,leisure,pitch,24.5786162,46.860274,,,,,,
Unnamed,leisure,pitch,24.5784727,46.8597077,,,,,,
Unnamed,leisure,pitch,24.5781587,46.8601781,,,,,,
Unnamed,leisure,pitch,24.5779498,46.8600187,,,,,,
Unnamed,leisure,pitch,24.5822278,46.863425,,,,,,
Unnamed,leisure,park,24.5526737,46.8634677,,,,,,
Unnamed,leisure,park,24.5234505,46.8676062,,,,,,
Unnamed,leisure,park,24.5219904,46.8666214,,,,,,
Unnamed,leisure,park,24.5571696,46.805614,,,,,,
Unnamed,leisure,park,24.5544383,46.8103447,,,,,,
Unnamed,leisure,park,24.5527127,46.8023369,,,,,,
Unnamed,leisure,park,24.5534398,46.8110213,,,,,,
Unnamed,leisure,pitch,24.5621397,46.7768904,,,,,,
Unnamed,leisure,pitch,24.5618969,46.7759249,,,,,,
Unnamed,leisure,pitch,24.5620214,46.7761857,,,,,,
Unnamed,leisure,pitch,24.562401,46.7767207,,,,,,
Unnamed,leisure,pitch,24.5625135,46.7769791,,,,,,
Unnamed,leisure,pitch,24.5622661,46.7771526,,,,,,
Unnamed,leisure,pitch,24.5038742,46.5039593,,,,,,
Unnamed,leisure,pitch,24.5037702,46.503392,,,,,,
Unnamed,leisure,pitch,24.5032109,46.5034536,,,,,,
Unnamed,leisure,pitch,24.5033256,46.5035905,,,,,,
Unnamed,leisure,pitch,24.5035192,46.504098,,,,,,
Unnamed,leisure,swimming_pool,24.5034807,46.5028242,,,,,,
Unnamed,leisure,pitch,24.5667813,46.595161,,,,,,
Unnamed,leisure,pitch,24.5667929,46.5956447,,,,,,
Unnamed,leisure,pitch,24.5539168,46.5930968,,,,,,
Unnamed,leisure,pitch,24.5535812,46.593101,,,,,,
Unnamed,leisure,pitch,24.5532743,46.5931048,,,,,,
Unnamed,leisure,pitch,24.5529918,46.5931084,,,,,,
Unnamed,leisure,pitch,24.5526015,46.593255,,,,,,
Unnamed,leisure,pitch,24.5527148,46.5930605,,,,,,
Al Marwah Park,leisure,park,24.5224756,46.6762775,,,,,,
Unnamed,leisure,park,24.5209983,46.6688776,,,,,,
Unnamed,leisure,park,24.5253233,46.6698069,,,,,,
Unnamed,leisure,park,24.5249763,46.6747613,,,,,,
Unnamed,leisure,park,24.5213746,46.6813004,,,,,,
Unnamed,leisure,park,24.5194097,46.6716948,,,,,,
Unnamed,leisure,park,24.4493809,46.6127521,,,,,,
Unnamed,leisure,pitch,24.484668,46.5965858,,,,,,
Unnamed,leisure,pitch,24.484729,46.5967304,,,,,,
Unnamed,leisure,swimming_pool,24.484526,46.5971203,,,,,,
Unnamed,leisure,pitch,24.4776082,46.5965969,,,,,,
Unnamed,leisure,pitch,24.4772694,46.5972201,,,,,,
Unnamed,leisure,pitch,24.4788896,46.5915214,,,,,,
Unnamed,leisure,pitch,24.4782987,46.5910506,,,,,,
Unnamed,leisure,pitch,24.4775071,46.5905283,,,,,,
Unnamed,leisure,pitch,24.4785601,46.5916975,,,,,,
Unnamed,leisure,pitch,24.4771968,46.5919799,,,,,,
Unnamed,leisure,pitch,24.4722839,46.5983018,,,,,,
Unnamed,leisure,park,24.4915293,46.5996425,,,,,,
Unnamed,leisure,pitch,24.4999384,46.6228512,,,,,,
Unnamed,leisure,park,24.5012105,46.6260068,,,,,,
Unnamed,leisure,pitch,24.5578097,46.6723223,,,,,,
Unnamed,leisure,park,24.5599841,46.6724354,,,,,,
Unnamed,leisure,pitch,24.5597095,46.6715179,,,,,,
Unnamed,leisure,pitch,24.538558,46.6875,,,,,,
Unnamed,leisure,pitch,24.5332315,46.6960025,,,,,,
Unnamed,leisure,pitch,24.5330999,46.6961924,,,,,,
Unnamed,leisure,pitch,24.5328847,46.6959904,,,,,,
Unnamed,leisure,pitch,24.5330243,46.6957902,,,,,,
Unnamed,leisure,park,24.5401746,46.7015337,,,,,,
Unnamed,leisure,park,24.5291764,46.6846553,,,,,,
Unnamed,leisure,park,24.5423843,46.7030007,,,,,,
Unnamed,leisure,park,24.5556535,46.7208319,,,,,,
Unnamed,leisure,park,24.5528884,46.7390879,,,,,,
Unnamed,leisure,park,24.5706424,46.7227781,,,,,,
Unnamed,leisure,pitch,24.5790382,46.7232284,,,,,,
Unnamed,leisure,park,24.6119415,46.754317,,,,,,
Unnamed,leisure,park,24.6152843,46.7640475,,,,,,
Unnamed,leisure,playground,24.5980198,46.7707064,,,,,,
Unnamed,leisure,playground,24.550134,46.7244589,,,,,,
Unnamed,leisure,pitch,24.5877192,46.7020206,,,,,,
Unnamed,leisure,pitch,24.5875596,46.7017576,,,,,,
Unnamed,leisure,pitch,24.5874128,46.7014618,,,,,,
Unnamed,leisure,park,24.5719029,46.688352,,,,,,
حديقة الدوح,leisure,park,24.5803293,46.586651,,,,,,
Unnamed,leisure,garden,24.6263322,46.6214747,,,,,,
Unnamed,leisure,pitch,24.6275329,46.6458754,,,,,,
Unnamed,leisure,pitch,24.6275997,46.6463661,,,,,,
Unnamed,leisure,pitch,24.6280115,46.6474453,,,,,,
Unnamed,leisure,pitch,24.6283175,46.647868,,,,,,
Unnamed,leisure,pitch,24.6278201,46.6468708,,,,,,
Unnamed,leisure,pitch,24.6291902,46.6536542,,,,,,
Unnamed,leisure,pitch,24.6293882,46.6539512,,,,,,
Unnamed,leisure,pitch,24.7364927,46.5780614,,,,,,
Al Mareh,leisure,park,24.7339386,46.5778476,,,,,,
Unnamed,leisure,pitch,24.7477741,46.5454538,,,,,,
Unnamed,leisure,pitch,24.7326885,46.5133214,,,,,,
Unnamed,leisure,pitch,24.7527235,46.5585327,,,,,,
Unnamed,leisure,park,24.7513995,46.5596171,,,,,,
Unnamed,leisure,pitch,24.7567973,46.5484066,,,,,,
Unnamed,leisure,pitch,24.7001275,46.6110311,,,,,,
Unnamed,leisure,track,24.7001301,46.6110257,,,,,,
Unnamed,leisure,garden,24.6993415,46.6125259,,,,,,
Unnamed,leisure,park,24.7055996,46.6130579,,,,,,
Unnamed,leisure,park,24.7077716,46.6082081,,,,,,
Unnamed,leisure,pitch,24.6957789,46.6050497,,,,,,
Unnamed,leisure,park,24.6950216,46.602474,,,,,,
Unnamed,leisure,track,24.7155311,46.5673276,,,,,,
Unnamed,leisure,park,24.6899563,46.5807397,,,,,,
Unnamed,leisure,park,24.6866749,46.5865329,,,,,,
Unnamed,leisure,park,24.6896482,46.5983372,,,,,,
Unnamed,leisure,park,24.6891412,46.595984,,,,,,
Unnamed,leisure,pitch,24.6202563,46.9293485,,,,,,
Unnamed,leisure,garden,24.6262404,46.8614656,,,,,,
Unnamed,leisure,park,24.4272909,46.8520242,,,,,,
Unnamed,leisure,park,24.4211614,46.8351751,,,,,,
Unnamed,leisure,park,24.4009084,46.8356956,,,,,,
Unnamed,leisure,pitch,24.4208427,46.8362054,,,,,,
Unnamed,leisure,pitch,24.4207779,46.8359359,,,,,,
شاليهات بحيرة اليمامة,leisure,resort,24.4552569,46.9840303,,Al Kharj,,,,
Unnamed,leisure,park,24.5723427,46.6699677,,,,,,
Unnamed,leisure,park,24.594295,46.697587,,,,,,
حديقة اليمامة,leisure,park,24.5884489,46.7133022,,,,,,
Unnamed,leisure,park,24.5880098,46.7113228,,,,,,
Unnamed,leisure,swimming_pool,24.7888942,46.7541717,,,,,,
منتزه الشهداء,leisure,park,24.7910623,46.7423311,منتزه الشهداء,,,,,
Unnamed,leisure,park,24.7864006,46.7600809,,,,,,
Unnamed,leisure,park,24.7814412,46.7613172,,,,,,
Unnamed,leisure,park,24.7792707,46.7816167,,,,,,
Unnamed,leisure,swimming_pool,24.6933919,46.8218089,,,,,,
Unnamed,leisure,pitch,24.6934149,46.8227642,,,,,,
Unnamed,leisure,pitch,24.6923797,46.8222594,,,,,,
Unnamed,leisure,swimming_pool,24.6937045,46.8256553,,,,,,
Unnamed,leisure,park,24.6959982,46.8273616,,,,,,
Unnamed,leisure,park,24.6971687,46.8291581,,,,,,
Unnamed,leisure,park,24.6932304,46.8313903,,,,,,
Unnamed,leisure,swimming_pool,24.6938829,46.8291756,,,,,,
Unnamed,leisure,swimming_pool,24.6943473,46.8290008,,,,,,
Unnamed,leisure,swimming_pool,24.694193,46.8293008,,,,,,
Unnamed,leisure,pitch,24.6938163,46.8293523,,,,,,
Unnamed,leisure,pitch,24.6937704,46.8295111,,,,,,
Unnamed,leisure,pitch,24.6946997,46.828701,,,,,,
Unnamed,leisure,pitch,24.6948443,46.8287505,,,,,,
Unnamed,leisure,pitch,24.6950038,46.8288058,,,,,,
Unnamed,leisure,garden,24.6945275,46.8280328,,,,,,
Unnamed,leisure,garden,24.6934387,46.8286845,,,,,,
Unnamed,leisure,pitch,24.681107,46.8279953,,,,,,
Unnamed,leisure,swimming_pool,24.6814631,46.8275381,,,,,,
Unnamed,leisure,pitch,24.6809485,46.8276564,,,,,,
Unnamed,leisure,pitch,24.681024,46.8278193,,,,,,
Unnamed,leisure,pitch,24.6808748,46.8274973,,,,,,
Unnamed,leisure,park,24.6804091,46.8292911,,,,,,
Unnamed,leisure,park,24.6864504,46.8404248,,,,,,
Unnamed,leisure,pitch,24.687669,46.8400872,,,,,,
Unnamed,leisure,swimming_pool,24.6869733,46.8398138,,,,,,
Unnamed,leisure,pitch,24.6910892,46.8411744,,,,,,
Al Shalal Park,leisure,park,24.6778915,46.8172417,,,,,,
Unnamed,leisure,park,24.6792024,46.7818824,,,,,,
Unnamed,leisure,pitch,24.6734764,46.7928645,,,,,,
Unnamed,leisure,pitch,24.6741307,46.7896058,,,,,,
Unnamed,leisure,park,24.6723857,46.8086175,,,,,,
Unnamed,leisure,playground,24.6692023,46.80424,,,,,,
Unnamed,leisure,pitch,24.6696771,46.8042281,,,,,,
Unnamed,leisure,pitch,24.6702618,46.8038837,,,,,,
Unnamed,leisure,pitch,24.67004,46.80421,,,,,,
Unnamed,leisure,pitch,24.6699528,46.8038642,,,,,,
Unnamed,leisure,pitch,24.6698286,46.8039353,,,,,,
Unnamed,leisure,park,24.6697833,46.8041233,,,,,,
Unnamed,leisure,pitch,24.6683381,46.7985906,,,,,,
Unnamed,leisure,swimming_pool,24.6801195,46.8111732,,,,,,
Unnamed,leisure,pitch,24.6796958,46.8102702,,,,,,
Unnamed,leisure,pitch,24.6799413,46.8107973,,,,,,
Unnamed,leisure,garden,24.6798344,46.8105626,,,,,,
Unnamed,leisure,park,24.6772796,46.8118774,,,,,,
Cricket Ground,leisure,pitch,24.6687778,46.8024678,,,,,,
Unnamed,leisure,park,24.6668842,46.8059973,,,,,,
Unnamed,leisure,park,24.744598,46.7524685,,,,,,
Unnamed,leisure,park,24.7692955,46.7392397,,,,,,
Unnamed,leisure,swimming_pool,24.7920208,46.729502,,,,,,
Unnamed,leisure,pitch,24.792446,46.7298574,,,,,,
Unnamed,leisure,track,24.7924529,46.7298635,,,,,,
Unnamed,leisure,pitch,24.7918779,46.7273539,,,,,,
Unnamed,leisure,pitch,24.7918657,46.7275155,,,,,,
Unnamed,leisure,swimming_pool,24.7914651,46.7271231,,,,,,
Unnamed,leisure,swimming_pool,24.7909052,46.7277385,,,,,,
Unnamed,leisure,pitch,24.7920803,46.7262172,,,,,,
Unnamed,leisure,swimming_pool,24.7923848,46.7264299,,,,,,
Unnamed,leisure,swimming_pool,24.7900453,46.7257844,,,,,,
Unnamed,leisure,swimming_pool,24.7929217,46.7271822,,,,,,
Unnamed,leisure,swimming_pool,24.7939482,46.7285449,,,,,,
Unnamed,leisure,track,24.7922264,46.7300213,,,,,,
Unnamed,leisure,pitch,24.7921665,46.7298952,,,,,,
Unnamed,leisure,stadium,24.6571434,46.6880692,,,,,,
حديقة غبيرة,leisure,park,24.6174826,46.7314804,,,,,,
حديقة العود,leisure,park,24.6277546,46.7203957,,,,,,
Unnamed,leisure,pitch,24.6141809,46.7277258,,,,,,
Unnamed,leisure,pitch,24.6145409,46.7285494,,,,,,
Unnamed,leisure,pitch,24.6404166,46.7094724,,,,,,
Unnamed,leisure,pitch,24.5770991,46.9030349,,,,,,
Unnamed,leisure,pitch,24.5767821,46.9025228,,,,,,
Unnamed,leisure,pitch,24.5774175,46.9035532,,,,,,
Unnamed,leisure,pitch,24.576801,46.9018769,,,,,,
Unnamed,leisure,pitch,24.5762683,46.9021721,,,,,,
Unnamed,leisure,pitch,24.5763504,46.9023184,,,,,,
Unnamed,leisure,track,24.5771034,46.9029756,,,,,,
Unnamed,leisure,swimming_pool,24.5757486,46.9024758,,,,,,
Unnamed,leisure,pitch,24.5755149,46.904595,,,,,,
Unnamed,leisure,pitch,24.5752039,46.903736,,,,,,
Unnamed,leisure,pitch,24.574596,46.9040727,,,,,,
Unnamed,leisure,pitch,24.5746768,46.9042153,,,,,,
Unnamed,leisure,swimming_pool,24.5733311,46.9041775,,,,,,
Unnamed,leisure,pitch,24.5767487,46.8940168,,,,,,
Unnamed,leisure,pitch,24.5768137,46.8941915,,,,,,
Unnamed,leisure,pitch,24.5756271,46.8958863,,,,,,
Unnamed,leisure,pitch,24.5763646,46.8964188,,,,,,
Unnamed,leisure,pitch,24.5764078,46.896598,,,,,,
Unnamed,leisure,pitch,24.5745162,46.8983263,,,,,,
Unnamed,leisure,pitch,24.5744781,46.8985036,,,,,,
Unnamed,leisure,swimming_pool,24.5820789,46.9074516,,,,,,
Unnamed,leisure,pitch,24.5839838,46.9083498,,,,,,
Unnamed,leisure,pitch,24.5835931,46.9050256,,,,,,
Unnamed,leisure,pitch,24.5837486,46.9078482,,,,,,
Unnamed,leisure,pitch,24.5800673,46.9090367,,,,,,
Unnamed,leisure,pitch,24.5783146,46.904758,,,,,,
Unnamed,leisure,pitch,24.588067,46.7114367,,,,,,
Unnamed,leisure,pitch,24.6402868,46.7087758,,,,,,
Unnamed,leisure,pitch,24.5879453,46.7111285,,,,,,
Unnamed,leisure,pitch,24.6405076,46.7087825,,,,,,
Unnamed,leisure,playground,24.5948809,46.6974158,,,,,,
Unnamed,leisure,track,24.5935324,46.6976961,,,,,,
Unnamed,leisure,track,24.5934497,46.6977587,,,,,,
Unnamed,leisure,park,24.6491974,46.7116688,,,,,,
Unnamed,leisure,pitch,24.6787762,46.7133697,,,,,,
Unnamed,leisure,pitch,24.6476704,46.6488915,,,,,,
Unnamed,leisure,pitch,24.6795469,46.7140725,,,,,,
Unnamed,leisure,pitch,24.4682788,46.6052117,,,,,,
Unnamed,leisure,pitch,24.4682869,46.6045577,,,,,,
Unnamed,leisure,pitch,24.6476805,46.6491157,,,,,,
Unnamed,leisure,pitch,24.6476908,46.6493392,,,,,,
Unnamed,leisure,pitch,24.4779263,46.5907887,,,,,,
Unnamed,leisure,pitch,24.6792265,46.7140773,,,,,,
Unnamed,leisure,park,24.7712022,46.7435609,,,,,,
Unnamed,leisure,pitch,24.7759519,46.7365782,,,,,,
Unnamed,leisure,pitch,24.7711218,46.7436005,,,,,,
Unnamed,leisure,pitch,24.7623674,46.7728543,,,,,,
Unnamed,leisure,park,24.7627854,46.7725064,,,,,,
Unnamed,leisure,park,24.7748444,46.7924697,,,,,,
Unnamed,leisure,park,24.7618031,46.7480994,,,,,,
Unnamed,leisure,park,24.7643498,46.7587556,,,,,,
Unnamed,leisure,pitch,24.6139405,46.7119408,,,,,,
Unnamed,leisure,playground,24.780997,46.7174198,,,,,,
Unnamed,leisure,pitch,24.7805285,46.7177679,,,,,,
Unnamed,leisure,pitch,24.7804915,46.7175532,,,,,,
Unnamed,leisure,pitch,24.7803141,46.7176478,,,,,,
Unnamed,leisure,park,24.7825401,46.7104903,,,,,,
ساحة البلدية بحي اليرموك,leisure,park,24.8099153,46.7737884,,,,,,
حديقة اليرموك,leisure,park,24.8125315,46.8022292,,,,,,
Unnamed,leisure,pitch,24.8069656,46.7699021,,,,,,
حديقة المونسية,leisure,park,24.8155354,46.7748965,,,,,,
Unnamed,leisure,pitch,24.8099542,46.7737839,,,,,,
Unnamed,leisure,playground,24.8095525,46.7736297,,,,,,
Unnamed,leisure,playground,24.8016524,46.7842911,,,,,,
Unnamed,leisure,playground,24.8067361,46.7841248,,,,,,
Unnamed,leisure,park,24.8000472,46.7694692,,,,,,
Unnamed,leisure,park,24.8006078,46.7820032,,,,,,
Unnamed,leisure,park,24.7980781,46.7793103,,,,,,
Unnamed,leisure,park,24.7985138,46.7733987,,,,,,
Unnamed,leisure,park,24.7959937,46.7747424,,,,,,
Unnamed,leisure,park,24.8003156,46.7726557,,,,,,
Unnamed,leisure,park,24.7981651,46.764835,,,,,,
Fitnesstime - Yarmouk ladies FT,leisure,fitness_centre,24.8142678,46.7753728,,"Dammam Branch Rd, Al Yarmuk",+966920003131,https://www.fitnesstime.com.sa/,Mo-Sa 07:00-20:00,
Unnamed,leisure,garden,24.7888643,46.7237968,,,,,,
Unnamed,leisure,garden,24.789658,46.7241053,,,,,,
Unnamed,leisure,garden,24.7902571,46.7214979,,,,,,
Unnamed,leisure,garden,24.7918667,46.7193578,,,,,,
Unnamed,leisure,garden,24.7927627,46.7197601,,,,,,
Unnamed,leisure,garden,24.7942505,46.720951,,,,,,
Unnamed,leisure,garden,24.7932911,46.7245854,,,,,,
Unnamed,leisure,garden,24.7934835,46.7254141,,,,,,
Unnamed,leisure,garden,24.7945914,46.7262671,,,,,,
Unnamed,leisure,garden,24.7935175,46.7235527,,,,,,
Unnamed,leisure,garden,24.7941506,46.7233086,,,,,,
Unnamed,leisure,garden,24.7945354,46.723652,,,,,,
Unnamed,leisure,garden,24.8032035,46.7475129,,,,,,
Unnamed,leisure,park,24.7756701,46.7517711,,,,,,
Unnamed,leisure,park,24.8533634,46.6368023,,,,,,
Unnamed,leisure,swimming_pool,24.8516471,46.6372727,,,,,,
Unnamed,leisure,swimming_pool,24.850862,46.637533,,,,,,
Unnamed,leisure,garden,24.8631222,46.648202,,,,,,
Unnamed,leisure,garden,24.5995034,46.6945834,,,,,,
Unnamed,leisure,garden,24.5992498,46.6947899,,,,,,
Unnamed,leisure,garden,24.599162,46.6950877,,,,,,
Unnamed,leisure,garden,24.5993083,46.6954202,,,,,,
Unnamed,leisure,park,24.5942027,46.6372402,,,,,,
Unnamed,leisure,park,24.7354212,46.573623,,,,,,
Unnamed,leisure,park,24.7359948,46.5742615,,,,,,
Unnamed,leisure,pitch,24.6292245,46.8908698,,,,,,
Unnamed,leisure,pitch,24.629098,46.8908543,,,,,,
Unnamed,leisure,playground,24.7924102,46.8073822,,,,,,
Unnamed,leisure,garden,24.6304347,46.8915943,,,,,,
Unnamed,leisure,park,24.6119404,46.7263475,,,,,,
Unnamed,leisure,pitch,24.6453092,46.7061022,,,,,,
Unnamed,leisure,playground,24.6670924,46.7042424,,,,,,
Unnamed,leisure,track,24.6571457,46.6880489,,,,,,
Unnamed,leisure,pitch,24.6571591,46.6880664,,,,,,
Unnamed,leisure,pitch,24.6855604,46.6995389,,,,,,
Unnamed,leisure,pitch,24.6856116,46.6993779,,,,,,
Unnamed,leisure,swimming_pool,24.6859466,46.699467,,,,,,
Unnamed,leisure,pitch,24.6721193,46.7033866,,,,,,
Unnamed,leisure,pitch,24.7279257,46.6664495,,,,,,
Unnamed,leisure,pitch,24.7279808,46.6665805,,,,,,
Unnamed,leisure,pitch,24.7277361,46.6666253,,,,,,
Unnamed,leisure,pitch,24.6985249,46.6802985,,,,,,
Unnamed,leisure,park,24.6407508,46.7272179,,,,,,
Unnamed,leisure,garden,24.6448735,46.7076598,,,,,,
Unnamed,leisure,pitch,24.7067926,46.7049432,,,,,,
Unnamed,leisure,garden,24.6718849,46.7162616,,,,,,
Unnamed,leisure,garden,24.6721143,46.7167819,,,,,,
Unnamed,leisure,garden,24.6724162,46.7167851,,,,,,
Unnamed,leisure,pitch,24.6727749,46.7163974,,,,,,
Unnamed,leisure,garden,24.6722535,46.7167867,,,,,,
Unnamed,leisure,garden,24.6722695,46.7165149,,,,,,
Unnamed,leisure,pitch,24.6719523,46.7166682,,,,,,
Unnamed,leisure,garden,24.6724255,46.7164836,,,,,,
Unnamed,leisure,garden,24.6724957,46.7158343,,,,,,
Unnamed,leisure,garden,24.6720213,46.7158184,,,,,,
Unnamed,leisure,garden,24.672038,46.7164456,,,,,,
Unnamed,leisure,garden,24.6729189,46.7167215,,,,,,
Unnamed,leisure,track,24.6095424,46.7479767,,,,,,
Unnamed,leisure,pitch,24.6095431,46.7479814,,,,,,
Unnamed,leisure,swimming_pool,24.8061184,46.7773364,,,,,,
Unnamed,leisure,swimming_pool,24.8061841,46.7775215,,,,,,
Unnamed,leisure,park,24.8065396,46.7782685,,,,,,
Unnamed,leisure,park,24.8055999,46.7767598,,,,,,
Unnamed,leisure,park,24.8063549,46.7772207,,,,,,
Unnamed,leisure,swimming_pool,24.7917458,46.7523618,,,,,,
Unnamed,leisure,swimming_pool,24.7917677,46.7515377,,,,,,
Unnamed,leisure,swimming_pool,24.79115,46.7509314,,,,,,
Unnamed,leisure,park,24.7898363,46.7543349,,,,,,
Unnamed,leisure,swimming_pool,24.7873991,46.7541197,,,,,,
Unnamed,leisure,swimming_pool,24.7881272,46.7558041,,,,,,
Unnamed,leisure,park,24.7881732,46.7551409,,,,,,
Unnamed,leisure,park,24.7879565,46.7544717,,,,,,
Unnamed,leisure,park,24.8378595,46.7596917,,,,,,
Unnamed,leisure,park,24.8410824,46.7576522,,,,,,
خضيراء,leisure,park,24.7758738,46.7784443,,,,,,
Unnamed,leisure,park,24.628763,46.6825135,,,,,,
Unnamed,leisure,nature_reserve,24.6414647,46.7086998,,,,,,
Qurtubah Playground,leisure,playground,24.8059291,46.7421965,,,,,,
Unnamed,leisure,pitch,24.7877329,46.8662414,,,,,,
Unnamed,leisure,pitch,24.7998831,46.8455046,,,,,,
Unnamed,leisure,pitch,24.7997011,46.8451506,,,,,,
Unnamed,leisure,track,24.7893659,46.8464772,,,,,,
Unnamed,leisure,track,24.7897457,46.8471553,,,,,,
Unnamed,leisure,pitch,24.7876834,46.8529779,,,,,,
Unnamed,leisure,pitch,24.7877182,46.8531913,,,,,,
Unnamed,leisure,pitch,24.7874119,46.8528306,,,,,,
Unnamed,leisure,pitch,24.7878211,46.8525503,,,,,,
Unnamed,leisure,pitch,24.7808712,46.8498793,,,,,,
Unnamed,leisure,pitch,24.7806417,46.8497626,,,,,,
Unnamed,leisure,pitch,24.7794041,46.8481183,,,,,,
Unnamed,leisure,pitch,24.7796283,46.8482293,,,,,,
Unnamed,leisure,pitch,24.7797724,46.8479965,,,,,,
Unnamed,leisure,pitch,24.8441874,46.8036092,,,,,,
Unnamed,leisure,pitch,24.843735,46.8025263,,,,,,
Unnamed,leisure,pitch,24.806815,46.7693896,,,,,,
حديقة الضحى,leisure,park,24.7295025,46.67514,,قيسان,,,,
Unnamed,leisure,pitch,24.9884495,46.5197454,,,,,,
Unnamed,leisure,pitch,24.9895821,46.5193021,,,,,,
Unnamed,leisure,pitch,24.9884281,46.5194359,,,,,,
ميدان الملك سلمان بالدرعية,leisure,park,24.7366358,46.5844395,,,,,,
وقت اللياقة,leisure,fitness_centre,24.8014171,46.6943185,وقت اللياقة,,,,,وقت اللياقة
Unnamed,leisure,park,24.8016141,46.6928835,,,,,,
Unnamed,leisure,playground,24.691578,46.6047502,,,,,,
"Irqa , Children playground",leisure,playground,24.6921458,46.6061634,,,,,,
Unnamed,leisure,playground,24.7731144,46.6713899,,,,,,
حديقة السحر,leisure,park,24.674867,46.7457569,,,,,,
Unnamed,leisure,pitch,24.4162569,46.5969415,,,,,,
Unnamed,leisure,sports_centre,24.4168161,46.5928864,,,,,,
حلبة ديراب,leisure,sports_centre,24.4611416,46.5808481,,,,,,
Unnamed,leisure,sports_centre,24.5805721,46.5576465,,,,,,
Unnamed,leisure,track,24.9711184,46.8104469,,,,,,
Unnamed,leisure,track,24.7443417,46.8963987,,,,,,
Unnamed,leisure,park,24.5500702,46.7002538,,,,,,
Riyadh Marathon Village,leisure,track,24.7821624,46.6099643,,,,,,
Unnamed,leisure,park,24.7866845,46.7008136,,,,,,
Unnamed,leisure,park,24.7957467,46.7242726,,,,,,
حديقة الملك عبدالعزيز,leisure,park,24.8528943,46.6964126,,,,,,
Unnamed,leisure,garden,25.094096,46.8115103,,,,,,
Unnamed,leisure,park,24.7581487,46.7492528,,,,,,
Unnamed,leisure,park,24.7587368,46.7423306,,,,,,
Unnamed,leisure,sports_centre,24.8145431,46.8452201,,,,,,
Unnamed,leisure,park,24.8012787,46.8614581,,,,,,
Cricket Fields,leisure,sports_centre,24.5278518,46.9510286,,,,,,
Unnamed,leisure,pitch,24.6626128,46.7397579,,,,,,
حديقة الاول,leisure,stadium,24.7291776,46.6237744,,,,,,
Unnamed,leisure,pitch,24.7291791,46.623807,,,,,,
Unnamed,leisure,pitch,24.7298538,46.62594,,,,,,
Unnamed,leisure,pitch,24.7301607,46.6269887,,,,,,
Unnamed,leisure,park,24.7467979,46.7930348,,,,,,
استراحة,leisure,park,24.7420625,46.7965086,,,,,,
Unnamed,leisure,park,24.7871339,46.7275564,,,,,,
Unnamed,leisure,park,24.7405067,46.796349,,,,,,
Unnamed,leisure,park,24.7443326,46.794385,,,,,,
Unnamed,leisure,park,24.5545872,46.5508509,,,,,,
Unnamed,leisure,park,24.5540897,46.5745995,,,,,,
Unnamed,leisure,park,24.5532652,46.5930852,,,,,,
Unnamed,leisure,park,24.6648668,46.61572,,,,,,
Unnamed,leisure,park,24.6843165,46.6143038,,,,,,
Unnamed,leisure,park,24.6764766,46.6134324,,,,,,
Unnamed,leisure,park,24.6759372,46.6202981,,,,,,
Unnamed,leisure,park,24.6762217,46.6177832,,,,,,
Unnamed,leisure,park,24.6584837,46.6053692,,,,,,
Unnamed,leisure,park,24.6355397,46.6727913,,,,,,
Unnamed,leisure,park,24.6514371,46.6581092,,,,,,
Unnamed,leisure,pitch,24.6817375,46.5916357,,,,,,
Unnamed,leisure,park,24.7106129,46.6369424,,,,,,
Unnamed,leisure,park,24.6891634,46.6263981,,,,,,
Unnamed,leisure,park,24.7425601,46.537009,,,,,,
Unnamed,leisure,pitch,24.6945645,46.8950233,,,,,,
Unnamed,leisure,pitch,24.6938125,46.8955585,,,,,,
Unnamed,leisure,pitch,24.6942551,46.8961079,,,,,,
Unnamed,leisure,pitch,24.693711,46.8964206,,,,,,
Unnamed,leisure,pitch,24.6940914,46.8941043,,,,,,
Unnamed,leisure,pitch,24.6884618,46.9049301,,,,,,
Unnamed,leisure,pitch,24.6779884,46.9158798,,,,,,
Unnamed,leisure,pitch,24.6782139,46.9230084,,,,,,
Unnamed,leisure,pitch,24.6755908,46.9235051,,,,,,
Unnamed,leisure,pitch,24.6720565,46.9277199,,,,,,
Unnamed,leisure,pitch,24.6695974,46.9242204,,,,,,
Unnamed,leisure,pitch,24.6813537,46.9270334,,,,,,
Unnamed,leisure,pitch,24.6838565,46.9247259,,,,,,
Unnamed,leisure,pitch,24.6795175,46.6403465,,,,,,
Unnamed,leisure,pitch,24.6855432,46.6516159,,,,,,
Unnamed,leisure,pitch,24.7442748,46.6242231,,,,,,
Al Natha Park South,leisure,park,24.6807009,46.7574346,,,,,,
Unnamed,leisure,park,24.6254236,46.7131929,,,,,,
Unnamed,leisure,pitch,24.8492171,46.6331372,,,,,,
Unnamed,leisure,pitch,24.8037907,46.6263807,,,,,,
Unnamed,leisure,pitch,24.804049,46.6274451,,,,,,
Unnamed,leisure,pitch,24.8044047,46.6283162,,,,,,
Unnamed,leisure,sports_centre,24.8027947,46.6274679,,,,,,
Unnamed,leisure,park,24.7511911,46.6106769,,,,,,
Unnamed,leisure,park,24.7462226,46.5763468,,,,,,
Unnamed,leisure,park,24.7492103,46.5784118,,,,,,
Unnamed,leisure,park,24.7455821,46.5737416,,,,,,
Unnamed,leisure,park,24.7609192,46.5758637,,,,,,
Unnamed,leisure,golf_course,24.6702556,46.6896867,,,,,,
Unnamed,leisure,park,24.6294773,46.6775685,,,,,,
Unnamed,leisure,park,24.6507566,46.6789287,,,,,,
Unnamed,leisure,garden,24.6510781,46.6779839,,,,,,
Unnamed,leisure,park,24.6340133,46.6802432,,,,,,
Unnamed,leisure,park,24.6338685,46.6781342,,,,,,
Unnamed,leisure,park,24.6338132,46.6790673,,,,,,
Unnamed,leisure,playground,24.6491464,46.6989643,,,,,,
Unnamed,leisure,pitch,24.6514786,46.6917294,,,,,,
Unnamed,leisure,stadium,24.6548734,46.6925759,,,,,,
Unnamed,leisure,garden,24.6536422,46.6931452,,,,,,
Unnamed,leisure,pitch,24.6536718,46.6975085,,,,,,
Unnamed,leisure,pitch,24.6591029,46.6765248,,,,,,
Unnamed,leisure,stadium,24.6588837,46.6939633,,,,,,
Unnamed,leisure,park,24.6127865,46.6847932,,,,,,
Unnamed,leisure,pitch,24.6060277,46.6257128,,,,,,
Unnamed,leisure,park,24.5900885,46.6159424,,,,,,
Unnamed,leisure,park,24.722142,46.7526067,,,,,,
Unnamed,leisure,stadium,24.7007939,46.7155269,,,,,,
Unnamed,leisure,sports_centre,24.7002673,46.7159803,,الملك عبدالعزيز,,,,
Unnamed,leisure,park,24.676578,46.7099641,,,,,,
Unnamed,leisure,stadium,24.6802277,46.6580496,,,,,,
Unnamed,leisure,park,24.6528909,46.6430895,,,,,,
Unnamed,leisure,garden,24.6610455,46.6431187,,,,,,
Prince Faisal Bin Fahd Olympic Complex,leisure,sports_centre,24.6460031,46.6494234,,,,,,
Unnamed,leisure,park,24.7313221,46.8693717,,,,,,
Unnamed,leisure,track,24.7423699,46.8703668,,,,,,
Unnamed,leisure,track,24.7423625,46.8703761,,,,,,
Unnamed,leisure,pitch,24.752854,46.8733912,,,,,,
Unnamed,leisure,park,24.7535794,46.8701602,,,,,,
Unnamed,leisure,park,24.7535745,46.8711232,,,,,,
Unnamed,leisure,park,24.7535763,46.8718238,,,,,,
Unnamed,leisure,pitch,24.7545563,46.8721652,,,,,,
Unnamed,leisure,pitch,24.7545561,46.8725742,,,,,,
Unnamed,leisure,park,24.7522646,46.8725442,,,,,,
Unnamed,leisure,pitch,24.7546336,46.8701193,,,,,,
Unnamed,leisure,pitch,24.7493829,46.8834873,,,,,,
Unnamed,leisure,park,24.8259785,46.5450259,,,,,,
Unnamed,leisure,park,24.6806336,46.7090602,,,,,,
Unnamed,leisure,park,24.6774583,46.720218,,,,,,
Unnamed,leisure,park,24.6774927,46.7214037,,,,,,
Unnamed,leisure,park,24.6753714,46.7176433,,,,,,
Unnamed,leisure,pitch,24.6759048,46.7147215,,,,,,
Unnamed,leisure,pitch,24.6759091,46.7151929,,,,,,
Unnamed,leisure,pitch,24.6546105,46.7143138,,,,,,
Unnamed,leisure,park,24.6472673,46.73276,,,,,,
Unnamed,leisure,pitch,24.6205237,46.7611828,,,,,,
Unnamed,leisure,pitch,24.5822333,46.7714154,,,,,,
Unnamed,leisure,pitch,24.5812486,46.7706539,,,,,,
Unnamed,leisure,pitch,24.5817413,46.7701187,,,,,,
حديقة,leisure,park,24.5835007,46.7749163,,,,,,
Unnamed,leisure,pitch,24.5828984,46.7816537,,,,,,
Unnamed,leisure,park,24.5775935,46.7830079,,,,,,
Unnamed,leisure,park,24.5537361,46.787914,,,,,,
Unnamed,leisure,pitch,24.5363557,46.7705739,,,,,,
Unnamed,leisure,pitch,24.4345837,46.4901834,,,,,,
Unnamed,leisure,golf_course,24.4297649,46.4901232,,,,,,
Unnamed,leisure,park,24.6031866,46.7337253,,,,,,
Unnamed,leisure,pitch,24.688014,46.7011846,,,,,,
Unnamed,leisure,park,24.687791,46.7112956,,,,,,
Unnamed,leisure,park,24.6865035,46.7030629,,,,,,
Unnamed,leisure,park,24.7232937,46.7882106,,,,,,
Unnamed,leisure,park,24.7297716,46.795596,,,,,,
Unnamed,leisure,park,24.7264406,46.7887477,,,,,,
Unnamed,leisure,pitch,24.7189001,46.7938627,,,,,,
Unnamed,leisure,park,24.719012,46.8106518,,,,,,
Unnamed,leisure,park,24.7133177,46.8098607,,,,,,
Unnamed,leisure,park,24.7103098,46.8120845,,,,,,
Unnamed,leisure,pitch,24.7262734,46.8063753,,,,,,
Unnamed,leisure,park,24.7230444,46.8084771,,,,,,
Unnamed,leisure,pitch,24.7158205,46.7805033,,,,,,
Unnamed,leisure,park,24.7099729,46.7832228,,,,,,
Unnamed,leisure,park,24.7097105,46.7866474,,,,,,
Unnamed,leisure,pitch,24.7042537,46.7870244,,,,,,
Unnamed,leisure,swimming_pool,24.7063937,46.7974812,,,,,,
Unnamed,leisure,pitch,24.7127429,46.7971192,,,,,,
Unnamed,leisure,track,24.7093012,46.7993915,,,,,,
Unnamed,leisure,track,24.7093037,46.7993686,,,,,,
Unnamed,leisure,park,24.7148533,46.7943658,,,,,,
Unnamed,leisure,park,24.7148417,46.7888009,,,,,,
Unnamed,leisure,park,24.7013804,46.7928076,,,,,,
AlRaja Park,leisure,park,24.6976574,46.7660238,,,,,,
Unnamed,leisure,park,24.6979951,46.7630298,,,,,,
Unnamed,leisure,park,24.7067682,46.7629275,,,,,,
Unnamed,leisure,park,24.6912714,46.7497606,,النعيم,,,,
منتزة الجبل الشهباء,leisure,park,24.6768592,46.7509793,,,,,,
منتزة الهدا,leisure,park,24.6785075,46.7520591,,أبي المهند,,,,
حديقة الزمرد,leisure,park,24.6840088,46.7526396,,أبي الدر الرومي,,,,
الحديقة العلمية,leisure,park,24.7391472,46.6969128,,,,,,
Unnamed,leisure,park,24.7532178,46.7308283,,,,,,
Unnamed,leisure,park,24.6131316,46.6873411,,,,,,
Unnamed,leisure,park,24.604876,46.6488521,,,,,,
Unnamed,leisure,pitch,24.7607223,46.861334,,,,,,
Unnamed,leisure,pitch,24.7453639,46.682555,,,,,,
Unnamed,leisure,pitch,24.7194541,46.6290051,,,,,,
Unnamed,leisure,pitch,24.7186279,46.6292886,,,,,,
Unnamed,leisure,pitch,24.7180377,46.6314359,,,,,,
Unnamed,leisure,pitch,24.7101496,46.6275724,,,,,,
Unnamed,leisure,pitch,24.7999111,46.7210339,,,,,,
Unnamed,leisure,pitch,24.7900051,46.7323243,,,,,,
Unnamed,leisure,pitch,24.7906091,46.7326537,,,,,,
Unnamed,leisure,pitch,24.8777014,46.5908498,,,,,,
Unnamed,leisure,pitch,24.8773638,46.5910241,,,,,,
Unnamed,leisure,pitch,24.8778253,46.5915151,,,,,,
Unnamed,leisure,pitch,24.8775701,46.5916397,,,,,,
Unnamed,leisure,pitch,24.5802895,46.5588398,,,,,,
Unnamed,leisure,pitch,24.5811987,46.5602037,,,,,,
Unnamed,leisure,pitch,24.5796962,46.5600199,,,,,,
Unnamed,leisure,pitch,24.5806643,46.5605068,,,,,,
Unnamed,leisure,pitch,24.5801892,46.5604589,,,,,,
Unnamed,leisure,pitch,24.5815373,46.5569839,,,,,,
Unnamed,leisure,pitch,24.5815276,46.5571418,,,,,,
Unnamed,leisure,pitch,24.5815214,46.5573242,,,,,,
Unnamed,leisure,pitch,24.5815109,46.5574534,,,,,,
وقت اللياقة,leisure,fitness_centre,24.5816959,46.6331684,,,,,,
وقت اللياقة النسائي,leisure,fitness_centre,24.5820151,46.6337045,,,,,,
Unnamed,leisure,pitch,24.5686785,46.6164368,,,,,,
Unnamed,leisure,park,24.5716291,46.6294492,,,,,,
Unnamed,leisure,pitch,24.5996981,46.5956167,,,,,,
Unnamed,leisure,park,24.598736,46.5967023,,,,,,
Unnamed,leisure,pitch,24.5994705,46.5993812,,,,,,
Unnamed,leisure,pitch,24.5992916,46.5992558,,,,,,
Unnamed,leisure,pitch,24.6071937,46.6012688,,,,,,
Unnamed,leisure,pitch,24.6031418,46.6192996,,,,,,
Unnamed,leisure,park,24.5871217,46.6325589,,,,,,
Unnamed,leisure,park,24.5939293,46.6416263,,,,,,
Unnamed,leisure,pitch,24.5948752,46.644758,,,,,,
Unnamed,leisure,park,24.5791327,46.6544558,,,,,,
Unnamed,leisure,pitch,24.5747752,46.6807491,,,,,,
بودي ماسترز,leisure,fitness_centre,24.5800221,46.6855284,,,,,,
Unnamed,leisure,pitch,24.5799081,46.6856091,,,,,,
Unnamed,leisure,pitch,24.5817797,46.6804158,,,,,,
Unnamed,leisure,pitch,24.5821956,46.6812935,,,,,,
نادي شركة المياه الوطنية,leisure,sports_centre,24.5898889,46.702849,,,,,,
وقت اللياقة,leisure,fitness_centre,24.5693307,46.661233,,,,,,
Unnamed,leisure,pitch,24.5693778,46.6615656,,,,,,
Unnamed,leisure,pitch,24.544855,46.6717667,,,,,,
Unnamed,leisure,pitch,24.5445979,46.6715575,,,,,,
ساحة البلدية,leisure,park,24.5448989,46.6717319,,,,,,
وقت اللياقة,leisure,fitness_centre,24.5458572,46.6668417,,,,,,
Unnamed,leisure,pitch,24.5854914,46.5516298,,,,,,
Unnamed,leisure,park,24.5723616,46.5827472,,,,,,
Unnamed,leisure,pitch,24.5747572,46.5897477,,,,,,
متوسطة الإمام الطحاوي,leisure,sports_centre,24.5781347,46.5924938,,,,,,
Unnamed,leisure,pitch,24.6912296,46.895459,,,,,,
Unnamed,leisure,pitch,24.6021735,46.6233926,,,,,,
Unnamed,leisure,pitch,24.5913803,46.6022032,,,,,,
Unnamed,leisure,pitch,24.588495,46.6015998,,,,,,
Unnamed,leisure,pitch,24.5884343,46.6054206,,,,,,
Unnamed,leisure,park,24.5883389,46.5989427,,,,,,
وقت اللياقة,leisure,fitness_centre,24.5830265,46.6135863,وقت اللياقة,,,,,وقت اللياقة
Unnamed,leisure,pitch,24.5827649,46.6137798,,,,,,
ملعب العيينة,leisure,park,24.912711,46.4418082,,,,,,
Unnamed,leisure,garden,24.7294064,46.638751,,,,,,
Unnamed,leisure,garden,24.7298757,46.6382623,,,,,,
King Saud University Indoor Arena,leisure,stadium,24.7260252,46.6221323,,,,,,
Unnamed,leisure,pitch,24.7285448,46.6253885,,,,,,
Unnamed,leisure,pitch,24.7284748,46.6251547,,,,,,
Unnamed,leisure,pitch,24.7280972,46.6254212,,,,,,
Unnamed,leisure,pitch,24.7281019,46.6251472,,,,,,
Unnamed,leisure,pitch,24.7277194,46.62571,,,,,,
Unnamed,leisure,pitch,24.7277183,46.6255444,,,,,,
Unnamed,leisure,pitch,24.7277114,46.6253793,,,,,,
Unnamed,leisure,pitch,24.727354,46.6254378,,,,,,
Unnamed,leisure,pitch,24.7273586,46.6252096,,,,,,
Unnamed,leisure,pitch,24.7274336,46.624994,,,,,,
Unnamed,leisure,pitch,24.7277409,46.6251985,,,,,,
Unnamed,leisure,pitch,24.7277406,46.6250704,,,,,,
Unnamed,leisure,pitch,24.7277474,46.6249435,,,,,,
Unnamed,leisure,pitch,24.6049549,46.6253459,,,,,,
Unnamed,leisure,pitch,24.6048012,46.6252219,,,,,,
Unnamed,leisure,pitch,24.6047181,46.6250951,,,,,,
Unnamed,leisure,pitch,24.6065039,46.6267103,,,,,,
Unnamed,leisure,pitch,24.6090401,46.6312594,,,,,,
Unnamed,leisure,pitch,24.5749276,46.6166698,,,,,,
حديقة السويدي الغربي الرابعة,leisure,park,24.5728679,46.6145583,,,,,,
واحة الملك سلمان للعلوم,leisure,park,24.5797047,46.5873409,,,,,,
واحة الملك سلمان للعلوم,leisure,park,24.5995032,46.6949717,,,,,,
Unnamed,leisure,pitch,24.6704514,46.6746878,,,,,,
Unnamed,leisure,pitch,24.6702309,46.6745013,,,,,,
Unnamed,leisure,pitch,24.6698145,46.6745258,,,,,,
Unnamed,leisure,pitch,24.6700439,46.674161,,,,,,
Unnamed,leisure,swimming_pool,24.6700213,46.6751584,,,,,,
Unnamed,leisure,pitch,24.6746227,46.6751861,,,,,,
Unnamed,leisure,park,24.6945652,46.7119563,,,,,,
Unnamed,leisure,pitch,24.6880584,46.7010371,,,,,,
بودي ماسترز,leisure,fitness_centre,24.5967491,46.6337034,,,,,,
Unnamed,leisure,park,24.6005997,46.6303387,,,,,,
حديقة البهاء,leisure,park,24.7441695,46.6474522,,,,,,
Unnamed,leisure,park,24.770348,46.7102929,,,,,,
حديقة الازدهار الثانية,leisure,park,24.77145,46.7157409,,,,,,
Unnamed,leisure,park,24.7831593,46.7794324,,,,,,
Unnamed,leisure,park,24.7483016,46.750227,,,,,,
Unnamed,leisure,park,24.7434623,46.7496908,,,,,,
Unnamed,leisure,park,24.7350024,46.7555134,,,,,,
Unnamed,leisure,park,24.8154244,46.7026278,,,,,,
Unnamed,leisure,park,24.8148034,46.7012132,,,,,,
Unnamed,leisure,park,24.814037,46.7041724,,,,,,
Unnamed,leisure,park,24.8134941,46.7028917,,,,,,
Unnamed,leisure,park,24.8144294,46.6995829,,,,,,
Unnamed,leisure,park,24.816068,46.7002903,,,,,,
Unnamed,leisure,park,24.816507,46.7013293,,,,,,
Unnamed,leisure,park,24.8169441,46.7023749,,,,,,
Unnamed,leisure,pitch,24.7895582,46.7187087,,,,,,
Unnamed,leisure,pitch,24.7894842,46.7185091,,,,,,
Unnamed,leisure,pitch,24.7894072,46.7183182,,,,,,
Unnamed,leisure,sports_hall,24.789802,46.7180956,,,,,,
Unnamed,leisure,swimming_pool,24.7900063,46.7184105,,,,,,
حديقة المعالم,leisure,park,24.762293,46.7358141,,,,,,
Unnamed,leisure,pitch,24.7622388,46.7556823,,,,,,
Al Ghata Garden,leisure,park,24.6876989,46.6244899,,,,,,
Unnamed,leisure,park,24.7352137,46.6462564,,,,,,
Unnamed,leisure,park,24.7386053,46.7521391,,,,,,
Unnamed,leisure,park,24.7136094,46.611335,,,,,,
Unnamed,leisure,park,24.7512444,46.7496919,,,,,,
Unnamed,leisure,park,24.7644632,46.7061415,,,,,,
حديقة العلا,leisure,park,24.7630101,46.7050828,,,,,,
Unnamed,leisure,park,24.7488441,46.6429588,,,,,,
Unnamed,leisure,park,24.7764565,46.7124613,,,,,,
Unnamed,leisure,park,24.755529,46.6987324,,,,,,
وقت اللياقة,leisure,fitness_centre,24.6028327,46.7423305,,,,,,
حديقة البطين,leisure,park,24.7630686,46.6964984,,,,,,
حديقة عمر بن الخطاب,leisure,park,24.6484107,46.7216048,,,,,,
حديقة العمل,leisure,park,24.6447865,46.7224637,,,,,,
Unnamed,leisure,pitch,24.7914414,46.7426828,,,,,,
Unnamed,leisure,pitch,24.7910578,46.7429468,,,,,,
Unnamed,leisure,pitch,24.7909801,46.7427541,,,,,,
Unnamed,leisure,pitch,24.7912373,46.7427866,,,,,,
Unnamed,leisure,track,24.791247,46.7427866,,,,,,
Unnamed,leisure,playground,24.7907127,46.7418752,,,,,,
Unnamed,leisure,playground,24.791084,46.7420417,,,,,,
Unnamed,leisure,garden,24.5517573,46.911817,,,,,,
Unnamed,leisure,garden,24.5528979,46.9110593,,,,,,
Unnamed,leisure,garden,24.5528235,46.9121764,,,,,,
Unnamed,leisure,garden,24.5524997,46.9125316,,,,,,
Unnamed,leisure,garden,24.5527567,46.909475,,,,,,
Unnamed,leisure,fitness_centre,24.7066361,46.8061652,,,,,,
Unnamed,leisure,pitch,24.6745447,46.6243034,,,,,,
Unnamed,leisure,playground,24.8298641,46.7395757,,,,,,
Unnamed,leisure,pitch,24.829879,46.7396103,,,,,,
Unnamed,leisure,park,24.8298615,46.7395767,,,,,,
Unnamed,leisure,track,24.4550009,46.8043979,,,,,,
Unnamed,leisure,pitch,24.7098325,46.6272771,,,,,,
Unnamed,leisure,pitch,24.7097101,46.6271796,,,,,,
Unnamed,leisure,park,24.6031316,46.6222731,,,,,,
Unnamed,leisure,pitch,24.5880909,46.6041805,,,,,,
Unnamed,leisure,park,24.7598637,46.6552146,,,,,,
Unnamed,leisure,pitch,24.6189126,46.6465087,,,,,,
Unnamed,leisure,pitch,24.6195832,46.6519389,,,,,,
Unnamed,leisure,pitch,24.5783084,46.66634,,,,,,
Unnamed,leisure,swimming_pool,24.8015104,46.6901801,,,,,,
حديقة الصحافة الثانية,leisure,park,24.8002008,46.6347203,,,,,,
حديقة ظهرة لبن,leisure,park,24.6554298,46.5714055,,,,,,
Unnamed,leisure,park,24.8390319,46.5913092,,,,,,
Unnamed,leisure,pitch,24.7259627,46.5576981,,,,,,
حديقة الأعشى,leisure,garden,24.6084164,46.7131245,,,,,,
Unnamed,leisure,pitch,25.0124035,46.4893904,,,,,,
Unnamed,leisure,playground,24.8176713,46.6994725,,,,,,
Unnamed,leisure,playground,24.8172475,46.7001712,,,,,,
Unnamed,leisure,playground,24.8163361,46.6992809,,,,,,
Unnamed,leisure,playground,24.8180099,46.6980572,,,,,,
Unnamed,leisure,pitch,24.8243061,46.6875858,,,,,,
Unnamed,leisure,park,24.7496586,46.5749027,,,,,,
Unnamed,leisure,pitch,24.7478566,46.5797739,,,,,,
Unnamed,leisure,pitch,24.7477904,46.5795561,,,,,,
Unnamed,leisure,park,24.7390819,46.5741353,,,,,,
Unnamed,leisure,park,24.7463835,46.581041,,,,,,
Unnamed,leisure,park,24.7479958,46.5781281,,,,,,
Neighborhood park,leisure,park,24.7478807,46.5811363,,,,,,
Unnamed,leisure,park,24.7333214,46.5796068,,,,,,
Unnamed,leisure,park,24.7326814,46.5768409,,,,,,
Unnamed,leisure,park,24.7351333,46.5769913,,,,,,
Unnamed,leisure,park,24.7086135,46.5753244,,,,,,
Unnamed,leisure,park,24.7068228,46.578173,,,,,,
Unnamed,leisure,park,24.7080189,46.5834487,,,,,,
Unnamed,leisure,park,24.7074974,46.5835667,,,,,,
Unnamed,leisure,park,24.7084123,46.5826831,,,,,,
Unnamed,leisure,park,24.7088551,46.582757,,,,,,
Unnamed,leisure,park,24.7089749,46.5833999,,,,,,
Unnamed,leisure,park,24.7084956,46.5833837,,,,,,
Unnamed,leisure,park,24.706863,46.5818362,,,,,,
Unnamed,leisure,park,24.7075592,46.5847318,,,,,,
Unnamed,leisure,pitch,24.6588935,46.6981589,,,,,,
Unnamed,leisure,pitch,24.6831526,46.9144336,,,,,,
Unnamed,leisure,pitch,24.6834078,46.9142126,,,,,,
Unnamed,leisure,pitch,24.730392,46.7746147,,,,,,
Unnamed,leisure,pitch,24.7302896,46.7744472,,,,,,
Unnamed,leisure,pitch,24.420767,46.8732122,,,,,,
Unnamed,leisure,pitch,24.4175127,46.8725721,,,,,,
Unnamed,leisure,pitch,24.4164476,46.8716,,,,,,
Unnamed,leisure,pitch,24.4161659,46.8712811,,,,,,
Unnamed,leisure,pitch,24.417262,46.8701449,,,,,,
Unnamed,leisure,pitch,24.4175403,46.8704566,,,,,,
Unnamed,leisure,pitch,24.4153418,46.872729,,,,,,
Unnamed,leisure,pitch,24.4150719,46.8724086,,,,,,
Unnamed,leisure,pitch,24.4139732,46.8735481,,,,,,
Unnamed,leisure,pitch,24.4142482,46.8738677,,,,,,
Unnamed,leisure,pitch,24.4175274,46.8752495,,,,,,
Unnamed,leisure,pitch,24.4177992,46.8755701,,,,,,
Unnamed,leisure,pitch,24.5014317,46.7692431,,,,,,
Unnamed,leisure,pitch,24.501134,46.768824,,,,,,
Unnamed,leisure,pitch,24.5814685,46.7715872,,,,,,
Unnamed,leisure,pitch,24.6150604,46.7635396,,,,,,
Unnamed,leisure,pitch,24.6064557,46.7052044,,,,,,
Unnamed,leisure,pitch,24.6308662,46.6966953,,,,,,
Unnamed,leisure,pitch,24.6517402,46.691115,,,,,,
Unnamed,leisure,pitch,24.6531552,46.6912904,,,,,,
Unnamed,leisure,pitch,24.6549076,46.6967462,,,,,,
Unnamed,leisure,pitch,24.6581116,46.6999702,,,,,,
Unnamed,leisure,pitch,24.6690379,46.6885868,,,,,,
Unnamed,leisure,pitch,24.7160641,46.7797529,,,,,,
Unnamed,leisure,pitch,24.6902781,46.7829743,,,,,,
Unnamed,leisure,pitch,24.7133082,46.8096128,,,,,,
Unnamed,leisure,pitch,24.7402021,46.8742129,,,,,,
Unnamed,leisure,pitch,24.7491343,46.8839392,,,,,,
Unnamed,leisure,pitch,24.6946311,46.8966172,,,,,,
Unnamed,leisure,pitch,24.6945209,46.8963815,,,,,,
بودي موشنز,leisure,fitness_centre,24.5927114,46.5931604,,,,https://bodymastersksa.com/,,
بودي موشنز,leisure,fitness_centre,24.5994339,46.6452033,,,,https://bodymastersksa.com/,,
Unnamed,leisure,pitch,24.6933263,46.8956945,,,,,,
Unnamed,leisure,pitch,24.6934263,46.8959154,,,,,,
Unnamed,leisure,pitch,24.69319,46.8954029,,,,,,
Unnamed,leisure,pitch,24.6930852,46.8951751,,,,,,
اكس فت السويدي,leisure,fitness_centre,24.5613962,46.6425298,,,,https://www.xfit.sa/,,
Unnamed,leisure,swimming_pool,24.7471641,46.5456842,,,,,,
Unnamed,leisure,swimming_pool,24.7520449,46.5484299,,,,,,
Unnamed,leisure,pitch,24.7408979,46.5640822,,,,,,
Unnamed,leisure,pitch,24.4723609,46.5678724,,,,,,
Unnamed,leisure,pitch,24.474073,46.56505,,,,,,
Unnamed,leisure,pitch,24.4749774,46.5635686,,,,,,
Unnamed,leisure,pitch,24.4753761,46.562952,,,,,,
Unnamed,leisure,pitch,24.4759235,46.5633076,,,,,,
Unnamed,leisure,pitch,24.597443,46.657261,,,,,,
Unnamed,leisure,garden,24.7471044,46.6494671,,,,,,
Unnamed,leisure,pitch,24.6704027,46.5654059,,,,,,
Unnamed,leisure,pitch,24.6801704,46.6025262,,,,,,
Unnamed,leisure,pitch,24.6811399,46.6043615,,,,,,
Unnamed,leisure,pitch,24.8079935,46.5209322,,,,,,
Unnamed,leisure,pitch,24.8089023,46.5213903,,,,,,
Unnamed,leisure,park,24.9142449,46.4445147,,,,,,
Unnamed,leisure,track,24.8843968,46.5624904,,,,,,
Unnamed,leisure,pitch,24.74682,46.5228198,,,,,,
Unnamed,leisure,park,24.5630559,46.501716,,,,,,
Unnamed,leisure,pitch,24.4755999,46.5638321,,,,,,
Unnamed,leisure,pitch,24.4754604,46.5640705,,,,,,
Unnamed,leisure,pitch,24.4746905,46.5653308,,,,,,
Unnamed,leisure,pitch,24.4745613,46.5655522,,,,,,
Unnamed,leisure,pitch,24.4729647,46.5681637,,,,,,
Unnamed,leisure,pitch,24.4728407,46.5683964,,,,,,
Unnamed,leisure,pitch,24.4827373,46.6243569,,,,,,
Unnamed,leisure,pitch,24.7901419,46.8433263,,,,,,
Unnamed,leisure,track,24.7873833,46.8504627,,,,,,
Unnamed,leisure,park,24.7724031,46.8548035,,,,,,
Unnamed,leisure,pitch,24.7655402,46.8629492,,,,,,
Unnamed,leisure,park,24.8250119,46.8318216,,,,,,
Unnamed,leisure,park,24.8326673,46.8349595,,,,,,
Unnamed,leisure,pitch,24.8112192,46.8474198,,,,,,
Al-Narjes Park,leisure,park,24.8563476,46.6505294,,,,,,
حديقة الملك سلمان,leisure,park,24.7227176,46.7196601,,,,https://kingsalmanpark.sa,,
Unnamed,leisure,pitch,24.9237671,46.712481,,,,,,
Unnamed,leisure,pitch,24.9238617,46.7126641,,,,,,
Unnamed,leisure,pitch,24.9497878,46.7906058,,,,,,
Unnamed,leisure,pitch,24.9498469,46.7907296,,,,,,
Unnamed,leisure,pitch,24.9499072,46.7908566,,,,,,
Unnamed,leisure,pitch,24.9912037,46.546162,,,,,,
Unnamed,leisure,pitch,24.7876639,46.5327715,,,,,,
Unnamed,leisure,pitch,24.7876521,46.532588,,,,,,
Unnamed,leisure,pitch,24.7889766,46.7545664,,,,,,
Unnamed,leisure,pitch,24.7890767,46.7544698,,,,,,
Unnamed,leisure,pitch,24.7892303,46.7544062,,,,,,
Unnamed,leisure,pitch,24.7891315,46.7547237,,,,,,
Unnamed,leisure,pitch,24.8064696,46.5364153,,,,,,
Unnamed,leisure,pitch,24.7091659,46.6021836,,,,,,
Unnamed,leisure,pitch,24.6736049,46.6714178,,,,,,
Unnamed,leisure,pitch,24.6676979,46.6780258,,,,,,
Unnamed,leisure,pitch,24.6682939,46.6809306,,,,,,
Unnamed,leisure,pitch,24.668225,46.6807635,,,,,,
Unnamed,leisure,pitch,24.6729141,46.6810979,,,,,,
Unnamed,leisure,pitch,24.6998123,46.7155542,,,,,,
Unnamed,leisure,pitch,24.7009344,46.7163074,,,,,,
Unnamed,leisure,pitch,24.700938,46.7164522,,,,,,
مركز تدريب الاتحاد السعودي للتنس,leisure,pitch,24.6838779,46.7242159,,,,,,
Unnamed,leisure,pitch,24.6674913,46.6923732,,,,,,
Unnamed,leisure,pitch,24.6673774,46.6925739,,,,,,
Unnamed,leisure,pitch,24.6672491,46.6927698,,,,,,
Unnamed,leisure,pitch,24.658906,46.6984726,,,,,,
Unnamed,leisure,pitch,24.6023571,46.7380541,,,,,,
Unnamed,leisure,pitch,24.6021906,46.7378425,,,,,,
Unnamed,leisure,pitch,24.6583121,46.7181161,,,,,,
Unnamed,leisure,pitch,24.6582497,46.7178861,,,,,,
Unnamed,leisure,pitch,24.6930028,46.6370581,,,,,,
Unnamed,leisure,pitch,24.6930727,46.6372275,,,,,,
Unnamed,leisure,pitch,24.6929342,46.6368877,,,,,,
Unnamed,leisure,pitch,24.661127,46.6166367,,,,,,
Unnamed,leisure,pitch,24.6813553,46.6037609,,,,,,
Unnamed,leisure,pitch,24.6813751,46.6036181,,,,,,
Unnamed,leisure,pitch,24.687525,46.6175112,,,,,,
Unnamed,leisure,pitch,24.7465823,46.6979034,,,,,,
Unnamed,leisure,pitch,24.7461816,46.6981133,,,,,,
Unnamed,leisure,pitch,24.7537507,46.7308067,,,,,,
Unnamed,leisure,pitch,24.7857615,46.7087796,,,,,,
Unnamed,leisure,pitch,24.7870971,46.7108206,,,,,,
Unnamed,leisure,pitch,24.7877387,46.7142037,,,,,,
Unnamed,leisure,pitch,24.8092776,46.7198914,,,,,,
Unnamed,leisure,pitch,24.8092043,46.7197244,,,,,,
Unnamed,leisure,pitch,24.8086246,46.7316704,,,,,,
Unnamed,leisure,pitch,24.8085646,46.7315128,,,,,,
Unnamed,leisure,pitch,24.8085178,46.7313848,,,,,,
Unnamed,leisure,pitch,24.7922726,46.7501945,,,,,,
Unnamed,leisure,pitch,24.792333,46.7503495,,,,,,
Unnamed,leisure,pitch,24.7940201,46.7529591,,,,,,
Unnamed,leisure,pitch,24.7941764,46.7528816,,,,,,
Unnamed,leisure,pitch,24.7950637,46.7566274,,,,,,
Unnamed,leisure,pitch,24.79528,46.7565151,,,,,,
Unnamed,leisure,pitch,24.7954939,46.7601526,,,,,,
Unnamed,leisure,pitch,24.7954235,46.7599919,,,,,,
Unnamed,leisure,pitch,24.7955588,46.7603146,,,,,,
Unnamed,leisure,pitch,24.7030313,46.7921178,,,,,,
Unnamed,leisure,pitch,24.6922893,46.822048,,,,,,
Unnamed,leisure,pitch,24.6922251,46.8219208,,,,,,
Unnamed,leisure,pitch,24.6939414,46.8251013,,,,,,
Unnamed,leisure,pitch,24.6940024,46.8252435,,,,,,
Unnamed,leisure,pitch,25.009636,46.5028013,,,,,,
Unnamed,leisure,pitch,25.0025696,46.5001374,,,,,,
Unnamed,leisure,pitch,25.0038067,46.4906285,,,,,,
Unnamed,leisure,pitch,25.006556,46.4961236,,,,,,
Unnamed,leisure,pitch,25.0061767,46.4959769,,,,,,
Unnamed,leisure,pitch,24.8169229,46.699429,,,,,,
Unnamed,leisure,pitch,24.8170005,46.6996074,,,,,,
Unnamed,leisure,pitch,24.8170227,46.6998394,,,,,,
Unnamed,leisure,park,24.6169258,46.7363446,,أبي حنيفة الدينوري,,,sunrise-sunset,
Unnamed,leisure,pitch,24.6850385,46.9164595,,,,,,
Unnamed,leisure,pitch,24.6847919,46.9167012,,,,,,
Unnamed,leisure,pitch,24.6859086,46.9154207,,,,,,
Unnamed,leisure,pitch,24.68422,46.9131299,,,,,,
Unnamed,leisure,pitch,24.6837337,46.9121339,,,,,,
Unnamed,leisure,pitch,24.6859492,46.9209512,,,,,,
Unnamed,leisure,pitch,24.7086117,46.9005694,,,,,,
Unnamed,leisure,pitch,24.7574242,46.7115707,,,,,,
Unnamed,leisure,pitch,25.0037648,46.490447,,,,,,
Unnamed,leisure,pitch,25.0037636,46.4910254,,,,,,
Unnamed,leisure,pitch,24.9272776,46.6779396,,,,,,
Unnamed,leisure,pitch,24.7882322,46.6980363,,,,,,
Unnamed,leisure,pitch,24.7879339,46.6982649,,,,,,
Unnamed,leisure,pitch,24.7879333,46.6979827,,,,,,
Unnamed,leisure,pitch,24.7403534,46.602676,,,,,,
Unnamed,leisure,pitch,24.7402755,46.6024814,,,,,,
Unnamed,leisure,pitch,24.7401567,46.6023192,,,,,,
Unnamed,leisure,pitch,24.7406047,46.6013198,,,,,,
حديقة النخيل,leisure,park,24.7400887,46.6019389,,,,,,
وقت اللياقة,leisure,fitness_centre,24.8408732,46.750062,وقت اللياقة,Ath Thumamah Rd,+966920003131,https://www.fitnesstime.com.sa/,24/7,وقت اللياقة
Unnamed,leisure,swimming_pool,24.9241419,46.7123855,,,,,,
وقت اللياقة,leisure,fitness_centre,24.8406213,46.7495071,وقت اللياقة,Ath Thumamah Rd,+966920003131,https://www.fitnesstime.com.sa/,24/7,وقت اللياقة
Unnamed,leisure,park,24.6139527,46.7205477,,,,,,
Unnamed,leisure,park,24.630004,46.7049199,,,,,,
Unnamed,leisure,pitch,24.5950304,46.6133369,,,,,,
Unnamed,leisure,pitch,24.5953511,46.6131263,,,,,,
Unnamed,leisure,pitch,24.7285129,46.6779497,,,,,,
Unnamed,leisure,horse_riding,24.9967324,46.7920797,,,,,,
Unnamed,leisure,horse_riding,25.0022944,46.7900514,,,,,,
Unnamed,leisure,horse_riding,25.0018293,46.7867356,,,,,,
Unnamed,leisure,horse_riding,25.0015863,46.7853956,,,,,,
Unnamed,leisure,horse_riding,25.0007692,46.7835673,,,,,,
Unnamed,leisure,horse_riding,24.9997051,46.7814665,,,,,,
Unnamed,leisure,horse_riding,24.9953783,46.7808124,,,,,,
Unnamed,leisure,horse_riding,24.9976096,46.7800562,,,,,,
Unnamed,leisure,pitch,24.9920456,46.7822175,,,,,,
Unnamed,leisure,park,24.9860276,46.7861259,,,,,,
Unnamed,leisure,park,24.9859344,46.7639228,,,,,,
Unnamed,leisure,park,24.9898319,46.76374,,,,,,
Unnamed,leisure,horse_riding,24.9621522,46.7826094,,,,,,
Unnamed,leisure,horse_riding,24.9596236,46.7781162,,,,,,
Unnamed,leisure,horse_riding,24.9659677,46.7759307,,,,,,
Unnamed,leisure,horse_riding,24.9782172,46.7667086,,,,,,
Unnamed,leisure,horse_riding,24.9786452,46.7695328,,,,,,
Unnamed,leisure,horse_riding,24.9794985,46.7688883,,,,,,
Unnamed,leisure,park,24.6635125,46.9269165,,,,,,
Unnamed,leisure,pitch,24.6634145,46.9318438,,,,,,
Unnamed,leisure,pitch,24.6643748,46.9309561,,,,,,
Unnamed,leisure,pitch,24.6644599,46.9314607,,,,,,
Unnamed,leisure,pitch,24.6638471,46.9320098,,,,,,
Unnamed,leisure,pitch,24.6635007,46.932344,,,,,,
Unnamed,leisure,pitch,24.664812,46.9311311,,,,,,
Unnamed,leisure,pitch,24.6608746,46.9348129,,,,,,
Unnamed,leisure,pitch,24.6612271,46.9344864,,,,,,
Unnamed,leisure,pitch,24.6602664,46.9353801,,,,,,
Unnamed,leisure,pitch,24.6599198,46.9357143,,,,,,
Unnamed,leisure,pitch,24.6607793,46.9342882,,,,,,
Unnamed,leisure,pitch,24.6598036,46.9352068,,,,,,
Unnamed,leisure,pitch,24.6690122,46.9270765,,,,,,
Unnamed,leisure,pitch,24.6694492,46.9272814,,,,,,
Unnamed,leisure,pitch,24.6690971,46.927611,,,,,,
Unnamed,leisure,track,24.6667863,46.9301305,,,,,,
Unnamed,leisure,pitch,24.8969107,46.928129,,,,,,
Unnamed,leisure,stadium,24.8969357,46.9280718,,,,,,
Unnamed,leisure,pitch,24.8974476,46.9290083,,,,,,
Unnamed,leisure,pitch,24.8971133,46.9288603,,,,,,
Unnamed,leisure,pitch,24.8967094,46.9287047,,,,,,
Unnamed,leisure,pitch,24.8963689,46.9285599,,,,,,
Unnamed,leisure,pitch,24.8828945,46.9313065,,,,,,
Unnamed,leisure,pitch,24.8825343,46.9314513,,,,,,
Unnamed,leisure,pitch,24.8824768,46.9311341,,,,,,
Unnamed,leisure,pitch,24.8823766,46.9304288,,,,,,
Unnamed,leisure,stadium,24.8824078,46.9303516,,,,,,
Unnamed,leisure,pitch,24.8757182,46.9216516,,,,,,
Unnamed,leisure,stadium,24.8757288,46.9216095,,,,,,
Unnamed,leisure,pitch,24.8762231,46.9225117,,,,,,
Unnamed,leisure,pitch,24.8758261,46.9223574,,,,,,
Unnamed,leisure,pitch,24.8758512,46.9226923,,,,,,
Unnamed,leisure,stadium,24.8885175,46.9204646,,,,,,
Unnamed,leisure,track,24.8807197,46.9201316,,,,,,
Unnamed,leisure,track,24.8837117,46.9312971,,,,,,
Unnamed,leisure,pitch,24.882843,46.9316156,,,,,,
Unnamed,leisure,pitch,24.9041906,46.9364536,,,,,,
Unnamed,leisure,park,24.9040135,46.9362839,,,,,,
Unnamed,leisure,track,24.8903068,46.9320975,,,,,,
Unnamed,leisure,pitch,24.8917271,46.9400253,,,,,,
Unnamed,leisure,stadium,24.8917186,46.9399648,,,,,,
Unnamed,leisure,park,24.8684285,46.8860636,,,,,,
Unnamed,leisure,stadium,24.8686594,46.8909954,,,,,,
Unnamed,leisure,pitch,24.8802911,46.886912,,,,,,
Unnamed,leisure,pitch,24.880411,46.887148,,,,,,
Unnamed,leisure,pitch,24.8761787,46.9228305,,,,,,
Unnamed,leisure,pitch,24.8913788,46.9405376,,,,,,
Unnamed,leisure,pitch,24.8912874,46.9407918,,,,,,
Unnamed,leisure,pitch,24.8916537,46.9409741,,,,,,
Unnamed,leisure,pitch,24.8917448,46.9407179,,,,,,
Unnamed,leisure,track,24.891374,46.9385623,,,,,,
Unnamed,leisure,pitch,24.8692123,46.8850908,,,,,,
Unnamed,leisure,pitch,24.6759118,46.8729847,,,,,,
Unnamed,leisure,playground,24.7799019,46.8500073,,,,,,
Unnamed,leisure,pitch,24.786302,46.8862565,,,,,,
Unnamed,leisure,pitch,24.7563175,46.8655935,,,,,,
Unnamed,leisure,playground,24.7804037,46.84787,,,,,,
Unnamed,leisure,park,24.779809,46.8353169,,,,,,
Unnamed,leisure,swimming_pool,24.8073899,46.8501086,,,,,,
Unnamed,leisure,pitch,24.807687,46.8495956,,,,,,
Unnamed,leisure,pitch,24.8078146,46.8498919,,,,,,
Unnamed,leisure,park,24.8087051,46.8489154,,,,,,
Unnamed,leisure,pitch,24.8443934,46.8624425,,,,,,
Unnamed,leisure,pitch,24.9483686,46.8942828,,,,,,
Unnamed,leisure,pitch,24.9489723,46.8947269,,,,,,
Unnamed,leisure,pitch,24.9490798,46.8944058,,,,,,
Unnamed,leisure,pitch,24.958928,46.8997799,,,,,,
Unnamed,leisure,pitch,24.9839906,46.9349318,,,,,,
Unnamed,leisure,pitch,24.9844137,46.9356627,,,,,,
Unnamed,leisure,pitch,24.9836067,46.9354569,,,,,,
Unnamed,leisure,pitch,24.9839881,46.9355654,,,,,,
Unnamed,leisure,stadium,24.9840015,46.9348512,,,,,,
Unnamed,leisure,bleachers,24.9836661,46.9343254,,,,,,
Unnamed,leisure,bleachers,24.9844888,46.9345019,,,,,,
Unnamed,leisure,park,25.0615763,46.682543,,,,,,
Unnamed,leisure,park,25.0611686,46.6838647,,,,,,
Unnamed,leisure,park,25.06326,46.6828077,,,,,,
Unnamed,leisure,bleachers,24.4537498,46.8130138,,,,,,
Unnamed,leisure,bleachers,24.4535227,46.8142165,,,,,,
محمية الإمام عبدالعزيز بن محمد الملكية,leisure,nature_reserve,25.70416,47.534561,,,+966920013306,https://iarda.gov.sa,,
Unnamed,leisure,pitch,24.7957679,46.7599143,,,,,,
Unnamed,leisure,pitch,24.7956894,46.7606078,,,,,,
Unnamed,leisure,swimming_pool,24.7966719,46.7612919,,,,,,
Unnamed,leisure,pitch,24.8993031,46.4262133,,,,,,
Unnamed,leisure,park,24.6954034,46.6040395,,,,,,
Unnamed,leisure,pitch,24.9622541,46.9355127,,,,,,
Unnamed,leisure,pitch,24.9623828,46.935767,,,,,,
Unnamed,leisure,pitch,24.9625302,46.9360502,,,,,,
Unnamed,leisure,pitch,24.9694908,46.9452336,,,,,,
Unnamed,leisure,swimming_pool,24.8086562,46.732354,,,,,,
Unnamed,leisure,swimming_pool,24.8075064,46.730519,,,,,,
Unnamed,leisure,swimming_pool,24.8073527,46.7303781,,,,,,
Unnamed,leisure,swimming_pool,24.8072926,46.7301626,,,,,,
Unnamed,leisure,swimming_pool,24.8073296,46.7299309,,,,,,
Unnamed,leisure,swimming_pool,24.8074861,46.7297746,,,,,,
Unnamed,leisure,swimming_pool,24.8075211,46.7297148,,,,,,
Unnamed,leisure,swimming_pool,24.8077494,46.7297189,,,,,,
Unnamed,leisure,swimming_pool,24.8079481,46.7298138,,,,,,
Unnamed,leisure,swimming_pool,24.8080478,46.7300301,,,,,,
Unnamed,leisure,swimming_pool,24.8080283,46.7302472,,,,,,
Unnamed,leisure,pitch,24.9959647,46.5443064,,,,,,
Unnamed,leisure,pitch,24.584743,46.785684,,,,,,
Unnamed,leisure,pitch,24.5898063,46.5718375,,,,,,
Unnamed,leisure,pitch,24.579232,46.5861845,,,,,,
Unnamed,leisure,pitch,24.5792115,46.58601,,,,,,
Unnamed,leisure,pitch,24.5787793,46.5857144,,,,,,
Unnamed,leisure,pitch,24.5787618,46.5855952,,,,,,
Unnamed,leisure,pitch,24.5832004,46.5936701,,,,,,
Unnamed,leisure,pitch,24.5869558,46.593907,,,,,,
Unnamed,leisure,park,24.5832774,46.6069521,,,,,,
Unnamed,leisure,swimming_pool,24.8054519,46.5269414,,,,,,
Unnamed,leisure,pitch,24.8098143,46.5172711,,,,,,
Unnamed,leisure,pitch,24.8088229,46.5231649,,,,,,
Unnamed,leisure,pitch,24.6628852,46.7347578,,,,,,
Unnamed,leisure,park,24.7441817,46.7201983,,,,,,
Unnamed,leisure,pitch,24.7208071,46.8914402,,,,,,
Unnamed,leisure,pitch,24.4167513,46.8695533,,,,,,
Unnamed,leisure,pitch,24.6671744,46.9211392,,,,,,
Unnamed,leisure,pitch,24.7029178,46.8877173,,,,,,
Unnamed,leisure,pitch,24.7116598,46.8969376,,,,,,
Unnamed,leisure,pitch,24.718915,46.885135,,,,,,
Unnamed,leisure,pitch,24.7266256,46.8754859,,,,,,
Unnamed,leisure,pitch,24.730562,46.8893949,,,,,,
Unnamed,leisure,pitch,24.7293116,46.8828866,,,,,,
Unnamed,leisure,park,24.7844656,46.6482375,,,,,,
Unnamed,leisure,pitch,24.7862712,46.7100782,,,,,,
Unnamed,leisure,pitch,24.7866431,46.7101475,,,,,,
Unnamed,leisure,pitch,24.7867432,46.7105048,,,,,,
Unnamed,leisure,pitch,24.7864576,46.7106458,,,,,,
Unnamed,leisure,swimming_pool,24.7860691,46.7088778,,,,,,
حديقة النرجس,leisure,park,24.8212265,46.679874,,,,,,
حديقة النرجس,leisure,park,24.8247919,46.6687098,,,,,,
Unnamed,leisure,pitch,24.8142672,46.4713604,,,,,,
Unnamed,leisure,pitch,24.6382013,46.6875622,,,,,,
بودي ماسترز,leisure,fitness_centre,24.6257658,46.6774327,بودي ماسترز,,,,,بودي ماسترز
Unnamed,leisure,pitch,24.8165519,46.544922,,,,,,
AlFayha Park,leisure,park,24.6796808,46.8029934,,,,,,
Unnamed,leisure,park,24.8554068,46.5833502,,,,,,
Unnamed,leisure,park,24.8661995,46.5722775,,,,,,
Unnamed,leisure,park,24.865664,46.5714035,,,,,,
Unnamed,leisure,park,24.8664829,46.5707801,,,,,,
Unnamed,leisure,park,24.8670244,46.5716522,,,,,,
Unnamed,leisure,pitch,24.8679637,46.5652352,,,,,,
Unnamed,leisure,pitch,24.8673853,46.5656079,,,,,,
Unnamed,leisure,pitch,24.8679174,46.5645594,,,,,,
Unnamed,leisure,pitch,24.8673518,46.5653956,,,,,,
Unnamed,leisure,pitch,24.8679399,46.564987,,,,,,
Unnamed,leisure,pitch,24.8676978,46.5645918,,,,,,
Unnamed,leisure,pitch,24.8763961,46.563083,,,,,,
Unnamed,leisure,pitch,24.8761875,46.5636371,,,,,,
Unnamed,leisure,pitch,24.8762202,46.5638274,,,,,,
Unnamed,leisure,pitch,24.8765092,46.5637797,,,,,,
Unnamed,leisure,pitch,24.8764765,46.5635894,,,,,,
Unnamed,leisure,pitch,24.8767933,46.5637292,,,,,,
Unnamed,leisure,pitch,24.8767606,46.5635389,,,,,,
Unnamed,leisure,track,24.8764935,46.5636779,,,,,,
Unnamed,leisure,pitch,24.8643214,46.5730235,,,,,,
Unnamed,leisure,park,24.8642789,46.5736198,,,,,,
Unnamed,leisure,park,24.8648853,46.5724555,,,,,,
Unnamed,leisure,pitch,24.8818568,46.5548634,,,,,,
Unnamed,leisure,pitch,24.8801838,46.5530505,,,,,,
Unnamed,leisure,pitch,24.8792148,46.5509374,,,,,,
Unnamed,leisure,pitch,24.8796806,46.5523745,,,,,,
Unnamed,leisure,pitch,24.8803968,46.5537782,,,,,,
Unnamed,leisure,pitch,24.8793716,46.5517011,,,,,,
Unnamed,leisure,pitch,24.8844559,46.5615043,,,,,,
Unnamed,leisure,pitch,24.8792945,46.5607798,,,,,,
Unnamed,leisure,pitch,24.8793327,46.5609825,,,,,,
Unnamed,leisure,pitch,24.8789995,46.5590509,,,,,,
Unnamed,leisure,pitch,24.8792077,46.5589132,,,,,,
Unnamed,leisure,pitch,24.8741264,46.5599185,,,,,,
Unnamed,leisure,pitch,24.8744569,46.5618377,,,,,,
Unnamed,leisure,park,24.893657,46.5301163,,,,,,
Unnamed,leisure,park,24.8468734,46.7349539,,,,,,
Unnamed,leisure,park,24.7624499,46.7099667,,,,,,
Unnamed,leisure,pitch,24.6575959,46.6188721,,,,,,
Unnamed,leisure,pitch,24.6569495,46.6185974,,,,,,
Unnamed,leisure,pitch,24.6570686,46.618974,,,,,,
Unnamed,leisure,pitch,24.6576677,46.6183913,,,,,,
Unnamed,leisure,pitch,24.6013864,46.6891567,,,,,,
Unnamed,leisure,pitch,24.5773105,46.668404,,,,,,
Unnamed,leisure,pitch,24.7054155,46.79072,,,,,,
Dorat Najd Resort,leisure,resort,24.8086645,46.5188749,,Al Waseel Road,,,,
Unnamed,leisure,pitch,24.7372824,46.8689525,,,,,,
Unnamed,leisure,pitch,24.7372154,46.8682448,,,,,,
Unnamed,leisure,pitch,24.7816804,46.6306101,,,,,,
Unnamed,leisure,pitch,24.6640845,46.6488183,,,,,,
Unnamed,leisure,pitch,24.8526159,46.7693563,,,,,,
Unnamed,leisure,pitch,24.8521017,46.7696263,,,,,,
Unnamed,leisure,pitch,24.9313268,46.7702766,,,,,,
Unnamed,leisure,pitch,24.9313424,46.7697802,,,,,,
Unnamed,leisure,pitch,24.9309387,46.7700211,,,,,,
Unnamed,leisure,pitch,24.9311953,46.7694935,,,,,,
Unnamed,leisure,pitch,24.9310515,46.7692031,,,,,,
Unnamed,leisure,pitch,24.9307102,46.7696062,,,,,,
Unnamed,leisure,pitch,24.8016115,46.689926,,,,,,
Unnamed,leisure,pitch,24.7057712,46.7889556,,,,,,
Unnamed,leisure,pitch,24.70505,46.790105,,,,,,
Unnamed,leisure,pitch,24.7113819,46.8151606,,,,,,
Unnamed,leisure,pitch,24.7111668,46.8146878,,,,,,
Unnamed,leisure,pitch,24.803454,46.8076652,,,,,,
Unnamed,leisure,pitch,24.8030409,46.807876,,,,,,
Unnamed,leisure,pitch,24.6602111,46.690888,,,,,,
Unnamed,leisure,pitch,24.6604681,46.6918155,,,,,,
Unnamed,leisure,pitch,24.6748336,46.7484953,,,,,,
النادي الرياضي لاعضاء هيئة التدريس النسائي,leisure,sports_centre,24.8607375,46.727942,,,,,,
حديقة النرجس,leisure,park,24.8308009,46.664945,,,,,,
Unnamed,leisure,park,24.6917739,46.7140369,,,,,,
Unnamed,leisure,pitch,24.8188271,46.6933533,,,,,,
Unnamed,leisure,playground,24.6382858,46.6993668,,,,,,
Unnamed,leisure,pitch,24.4127898,46.7443348,,,,,,
Unnamed,leisure,pitch,24.5572357,46.5736883,,,,,,
Unnamed,leisure,park,24.7779798,46.8025207,,,,,,
Unnamed,leisure,park,24.7779704,46.8031153,,,,,,
Unnamed,leisure,swimming_pool,24.7782574,46.8020728,,,,,,
Unnamed,leisure,park,24.7776732,46.8024845,,,,,,
Unnamed,leisure,park,24.7799056,46.8036161,,,,,,
Unnamed,leisure,swimming_pool,24.7777599,46.8023521,,,,,,
Unnamed,leisure,swimming_pool,24.7791662,46.8043188,,,,,,
Unnamed,leisure,pitch,24.7774581,46.8019719,,,,,,
Unnamed,leisure,pitch,24.7774665,46.8021355,,,,,,
Unnamed,leisure,fitness_centre,24.7773943,46.8023388,,,,,,
Unnamed,leisure,sports_hall,24.7775598,46.8016524,,,,,,
Unnamed,leisure,park,24.4692244,46.9865883,,,,,,
Unnamed,leisure,bleachers,24.7680763,46.6030791,,,,,,
Unnamed,leisure,pitch,24.7703824,46.6028888,,,,,,
Unnamed,leisure,pitch,24.7703415,46.6030109,,,,,,
Unnamed,leisure,pitch,24.7703008,46.6031251,,,,,,
Unnamed,leisure,pitch,24.7702609,46.6032435,,,,,,
Unnamed,leisure,pitch,24.770222,46.6033609,,,,,,
Unnamed,leisure,pitch,24.7704702,46.6034715,,,,,,
Unnamed,leisure,pitch,24.7704295,46.6035919,,,,,,
Unnamed,leisure,pitch,24.7703869,46.6037144,,,,,,
Unnamed,leisure,pitch,24.7705065,46.6033705,,,,,,
Unnamed,leisure,garden,24.7240625,46.6465813,,,,,,
Unnamed,leisure,garden,24.7241552,46.6466101,,,,,,
Unnamed,leisure,garden,24.7243048,46.6466108,,,,,,
Unnamed,leisure,garden,24.7239022,46.646338,,,,,,
Unnamed,leisure,garden,24.7240302,46.6463447,,,,,,
Unnamed,leisure,garden,24.7242443,46.6466042,,,,,,
Unnamed,leisure,garden,24.7239884,46.6464571,,,,,,
Unnamed,leisure,garden,24.7241612,46.6467416,,,,,,
Unnamed,leisure,pitch,24.7458971,46.5228591,,,,,,
Unnamed,leisure,pitch,24.7461709,46.5228931,,,,,,
Unnamed,leisure,pitch,24.7464476,46.5229236,,,,,,
Unnamed,leisure,pitch,24.7465001,46.5223447,,,,,,
Unnamed,leisure,pitch,24.7462234,46.5223173,,,,,,
Unnamed,leisure,pitch,24.7459495,46.5222776,,,,,,
Unnamed,leisure,pitch,24.7457807,46.5234507,,,,,,
Unnamed,leisure,pitch,24.7460491,46.5234782,,,,,,
Unnamed,leisure,pitch,24.746334,46.5235178,,,,,,
Unnamed,leisure,pitch,24.7466301,46.5235574,,,,,,
Unnamed,leisure,pitch,24.7469068,46.5235848,,,,,,
Unnamed,leisure,pitch,24.7471974,46.5236336,,,,,,
Unnamed,leisure,pitch,24.7471892,46.5229769,,,,,,
Unnamed,leisure,pitch,24.746993,46.5222155,,,,,,
نادي الفروسية,leisure,horse_riding,24.6636557,46.734689,,,,,,
Unnamed,leisure,garden,24.7241529,46.6466598,,,,,,
Unnamed,leisure,swimming_pool,24.8138383,46.8542614,,,,,,
Unnamed,leisure,swimming_pool,24.8150535,46.8525968,,,,,,
Unnamed,leisure,swimming_pool,24.8144868,46.8534671,,,,,,
Unnamed,leisure,pitch,24.8110669,46.8511735,,,,,,
Unnamed,leisure,pitch,24.8112664,46.8509676,,,,,,
Unnamed,leisure,pitch,24.8115501,46.8507932,,,,,,
Unnamed,leisure,swimming_pool,24.8130101,46.8518803,,,,,,
Unnamed,leisure,swimming_pool,24.8127896,46.8522695,,,,,,
Unnamed,leisure,pitch,24.8126567,46.85242,,,,,,
Unnamed,leisure,swimming_pool,24.8082322,46.7212395,,,,,,
Unnamed,leisure,swimming_pool,24.8088372,46.7225884,,,,,,
Unnamed,leisure,swimming_pool,24.8072328,46.7222994,,,,,,
Unnamed,leisure,swimming_pool,24.807854,46.723842,,,,,,
Unnamed,leisure,swimming_pool,24.8067226,46.723249,,,,,,
Unnamed,leisure,swimming_pool,24.8068679,46.723268,,,,,,
Unnamed,leisure,swimming_pool,24.8045138,46.722324,,,,,,
Unnamed,leisure,swimming_pool,24.8047389,46.7235185,,,,,,
Unnamed,leisure,swimming_pool,24.8046231,46.7235711,,,,,,
Unnamed,leisure,swimming_pool,24.8047293,46.7236563,,,,,,
Unnamed,leisure,pitch,24.8048879,46.7240082,,,,,,
Unnamed,leisure,park,24.8011995,46.7118019,,,,,,
Unnamed,leisure,garden,24.8440747,46.7344854,,,,,,
Unnamed,leisure,garden,24.8440996,46.7343669,,,,,,
Unnamed,leisure,garden,24.8438824,46.7342586,,,,,,
Unnamed,leisure,garden,24.8438448,46.7343964,,,,,,
Unnamed,leisure,garden,24.8436605,46.7343462,,,,,,
Unnamed,leisure,garden,24.8436714,46.7341897,,,,,,
Unnamed,leisure,garden,24.8433969,46.7341792,,,,,,
Unnamed,leisure,garden,24.8433634,46.7342736,,,,,,
Unnamed,leisure,garden,24.842793,46.7338725,,,,,,
Unnamed,leisure,garden,24.8426459,46.7338174,,,,,,
Unnamed,leisure,garden,24.8425559,46.7339525,,,,,,
Unnamed,leisure,garden,24.8424275,46.7337401,,,,,,
Unnamed,leisure,garden,24.8422742,46.7338524,,,,,,
Unnamed,leisure,garden,24.8422744,46.7336756,,,,,,
Unnamed,leisure,garden,24.8407913,46.7330077,,,,,,
Unnamed,leisure,garden,24.8406901,46.7331794,,,,,,
Unnamed,leisure,garden,24.840409,46.7328824,,,,,,
Unnamed,leisure,garden,24.8403357,46.7330498,,,,,,
Unnamed,leisure,garden,24.8401932,46.7329818,,,,,,
Unnamed,leisure,garden,24.8401777,46.7328434,,,,,,
Unnamed,leisure,garden,24.8394527,46.7325433,,,,,,
Unnamed,leisure,garden,24.8395011,46.7327279,,,,,,
Unnamed,leisure,garden,24.8396287,46.7326172,,,,,,
Unnamed,leisure,garden,24.8393571,46.7326478,,,,,,
Unnamed,leisure,garden,24.8392453,46.7325868,,,,,,
Unnamed,leisure,garden,24.8392514,46.7324304,,,,,,
Unnamed,leisure,garden,24.8404155,46.7331971,,,,,,
Unnamed,leisure,garden,24.8428679,46.7341546,,,,,,
Unnamed,leisure,garden,24.842732,46.7341074,,,,,,
Unnamed,leisure,garden,24.8422765,46.7339424,,,,,,
Unnamed,leisure,pitch,24.7899916,46.7174922,,,,,,
Unnamed,leisure,pitch,24.7893884,46.717626,,,,,,
Unnamed,leisure,outdoor_seating,24.7669427,46.6040419,,,,,,
Unnamed,leisure,outdoor_seating,24.7670534,46.604212,,,,,,
Unnamed,leisure,outdoor_seating,24.7669835,46.6044085,,,,,,
Unnamed,leisure,outdoor_seating,24.7667907,46.6044613,,,,,,
Unnamed,leisure,park,24.7705928,46.6044994,,,,,,
Unnamed,leisure,pitch,24.7713347,46.6046484,,,,,,
Unnamed,leisure,outdoor_seating,24.9857572,46.7840417,,,,,,
King Abdulaziz Equestrian Field,leisure,sports_centre,24.9840973,46.785933,,,,,,
Unnamed,leisure,pitch,24.9798828,46.7877503,,,,,,
Unnamed,leisure,pitch,24.9806266,46.7855194,,,,,,
Unnamed,leisure,pitch,24.9806694,46.785681,,,,,,
ملعب نادي الشباب,leisure,stadium,24.8031383,46.6288162,,,,,,
Unnamed,leisure,pitch,24.6725109,46.6655396,,,,,,
Unnamed,leisure,pitch,24.659051,46.6939993,,,,,,
Unnamed,leisure,playground,24.7428923,46.5778867,,,,,,
Unnamed,leisure,pitch,24.415672,46.8707039,,,,,,
Unnamed,leisure,pitch,24.5968426,46.6266665,,,,,,
Unnamed,leisure,pitch,24.8798806,46.8164503,,,,,,
Unnamed,leisure,pitch,24.8795985,46.8166346,,,,,,
Unnamed,leisure,pitch,24.6813871,46.6278272,,,,,,
Unnamed,leisure,pitch,24.6820757,46.6280863,,,,,,
Unnamed,leisure,pitch,24.7889171,46.7174241,,,,,,
Unnamed,leisure,pitch,24.6934634,46.7837004,,,,,,
Unnamed,leisure,pitch,24.568696,46.7022135,,,,,,
Unnamed,leisure,pitch,24.5882593,46.6137534,,,,,,
Unnamed,leisure,pitch,24.8968902,46.440116,,,,,,
Unnamed,leisure,pitch,24.926982,46.8083534,,,,,,
Unnamed,leisure,pitch,24.7733924,46.8558479,,,,,,
Unnamed,leisure,pitch,24.5972537,46.6547942,,,,,,
Unnamed,leisure,pitch,24.7891863,46.8036502,,,,,,
Unnamed,leisure,swimming_pool,24.7898635,46.8043733,,,,,,
Unnamed,leisure,pitch,24.6053224,46.7397282,,,,,,
Unnamed,leisure,pitch,24.6058022,46.7399446,,,,,,
Unnamed,leisure,pitch,24.7806621,46.6748119,,,,,,
Unnamed,leisure,pitch,24.5564671,46.7626544,,,,,,
Unnamed,leisure,pitch,24.581415,46.6635769,,,,,,
Unnamed,leisure,pitch,24.5768681,46.7722993,,,,,,
Unnamed,leisure,pitch,24.8474134,46.6353316,,,,,,
Unnamed,leisure,pitch,24.8472758,46.6353938,,,,,,
Unnamed,leisure,pitch,24.8471389,46.6354625,,,,,,
Unnamed,leisure,pitch,24.7047332,46.7926356,,,,,,
Unnamed,leisure,pitch,24.705435,46.7934399,,,,,,
Unnamed,leisure,pitch,24.7043737,46.7938922,,,,,,
Unnamed,leisure,pitch,24.7074555,46.7891973,,,,,,
Unnamed,leisure,pitch,24.7065903,46.7883831,,,,,,
Unnamed,leisure,pitch,24.7048638,46.7894457,,,,,,
Unnamed,leisure,swimming_pool,24.7027011,46.7915951,,,,,,
Unnamed,leisure,pitch,24.6745371,46.8810038,,,,,,
Unnamed,leisure,pitch,24.5872166,46.5328267,,,,,,
Unnamed,leisure,pitch,24.6765994,46.6913962,,,,,,
Unnamed,leisure,pitch,24.5972414,46.6236452,,,,,,
Unnamed,leisure,pitch,24.5707389,46.6367881,,,,,,
Unnamed,leisure,pitch,24.6925255,46.6080801,,,,,,
Unnamed,leisure,pitch,24.6924819,46.6084564,,,,,,
Unnamed,leisure,pitch,24.6856977,46.64959,,,,,,
Unnamed,leisure,pitch,24.7503162,46.5965499,,,,,,
Unnamed,leisure,pitch,24.8041267,46.6267249,,,,,,
Unnamed,leisure,pitch,24.8098227,46.8344573,,,,,,
Unnamed,leisure,pitch,24.7653123,46.7114884,,,,,,
Unnamed,leisure,pitch,24.5672245,46.8457088,,,,,,
Unnamed,leisure,pitch,24.795608,46.8632859,,,,,,
Unnamed,leisure,pitch,24.7966596,46.8618004,,,,,,
Unnamed,leisure,pitch,24.7971785,46.863175,,,,,,
Unnamed,leisure,pitch,24.7965901,46.8640793,,,,,,
Unnamed,leisure,pitch,24.5929387,46.584874,,,,,,
Unnamed,leisure,pitch,24.9020495,46.4292881,,,,,,
Unnamed,leisure,pitch,24.6005607,46.6415585,,,,,,
Unnamed,leisure,pitch,24.7935551,46.7532058,,,,,,
Unnamed,leisure,pitch,24.793836,46.7530653,,,,,,
Unnamed,leisure,pitch,24.7965217,46.4349903,,,,,,
Unnamed,leisure,pitch,24.796294,46.435235,,,,,,
Unnamed,leisure,pitch,24.8965592,46.6039281,,,,,,
Unnamed,leisure,pitch,24.7171329,46.8168898,,,,,,
Unnamed,leisure,pitch,24.6144612,46.7453518,,,,,,
Unnamed,leisure,pitch,24.7635794,46.8598889,,,,,,
Unnamed,leisure,pitch,24.6280723,46.7623873,,,,,,
Unnamed,leisure,pitch,24.5761968,46.6444154,,,,,,
Unnamed,leisure,pitch,24.7898288,46.8475829,,,,,,
Unnamed,leisure,pitch,24.6611142,46.6915754,,,,,,
Unnamed,leisure,pitch,24.6616032,46.6907745,,,,,,
Unnamed,leisure,pitch,24.6585383,46.6943952,,,,,,
Unnamed,leisure,pitch,24.6615448,46.6883301,,,,,,
Unnamed,leisure,pitch,24.6609248,46.6878191,,,,,,
Unnamed,leisure,pitch,24.6601442,46.6875986,,,,,,
Unnamed,leisure,pitch,24.6594405,46.6871467,,,,,,
Unnamed,leisure,pitch,24.6599467,46.6864128,,,,,,
Unnamed,leisure,pitch,24.6598667,46.6862154,,,,,,
Unnamed,leisure,pitch,24.6597925,46.6860187,,,,,,
Unnamed,leisure,pitch,24.6082728,46.7324872,,,,,,
Unnamed,leisure,park,24.7069105,46.6720391,,,,,,
Unnamed,leisure,swimming_pool,24.7085758,46.6800602,,,,,,
Unnamed,leisure,pitch,24.7084214,46.6801528,,,,,,
Unnamed,leisure,swimming_pool,24.7052341,46.6863302,,,,,,
Unnamed,leisure,swimming_pool,24.7060551,46.685133,,,,,,
Unnamed,leisure,swimming_pool,24.7068984,46.6861491,,,,,,
Unnamed,leisure,garden,24.7050202,46.6702583,,,,,,
حديقه العقاريه,leisure,garden,24.7073155,46.6834244,,,,,,
Unnamed,leisure,pitch,24.6887006,46.7770995,,,,,,
Unnamed,leisure,pitch,24.7028958,46.6818657,,,,,,
Unnamed,leisure,pitch,24.7044442,46.6889095,,,,,,
Unnamed,leisure,pitch,24.6984607,46.6767652,,,,,,
Unnamed,leisure,sports_centre,24.7988673,46.8474221,,,,,,
Unnamed,leisure,pitch,24.7986968,46.846855,,,,,,
Unnamed,leisure,pitch,24.798836,46.8471294,,,,,,
Unnamed,leisure,pitch,24.7990888,46.8474556,,,,,,
Unnamed,leisure,pitch,24.7988283,46.847617,,,,,,
Unnamed,leisure,pitch,24.7991641,46.8479314,,,,,,
Unnamed,leisure,pitch,24.6650438,46.6978687,,,,,,
Unnamed,leisure,swimming_pool,24.7091384,46.6821264,,,,,,
Unnamed,leisure,swimming_pool,24.7090543,46.6819172,,,,,,
Unnamed,leisure,swimming_pool,24.7102082,46.6842584,,,,,,
Unnamed,leisure,playground,24.7071896,46.6860621,,,,,,
Unnamed,leisure,pitch,24.7062545,46.6850726,,,,,,
Unnamed,leisure,pitch,24.6746032,46.7017683,,,,,,
Unnamed,leisure,pitch,24.6743845,46.7019355,,,,,,
Unnamed,leisure,garden,24.6771323,46.7004709,,,,,,
Unnamed,leisure,playground,24.6766172,46.7007512,,,,,,
Unnamed,leisure,garden,24.674841,46.7016541,,,,,,
Unnamed,leisure,garden,24.6749676,46.7015643,,,,,,
Unnamed,leisure,garden,24.6756901,46.7012239,,,,,,
Unnamed,leisure,swimming_pool,24.7078167,46.685641,,,,,,
Unnamed,leisure,swimming_pool,24.6782421,46.6975751,,,,,,
Unnamed,leisure,garden,24.7005839,46.6794232,,,,,,
Unnamed,leisure,pitch,24.7093954,46.684747,,,,,,
Unnamed,leisure,swimming_pool,24.7088062,46.6850333,,,,,,
Unnamed,leisure,playground,24.7094628,46.6849264,,,,,,
Unnamed,leisure,playground,24.7088769,46.6852148,,,,,,
Unnamed,leisure,pitch,24.8978805,46.6681486,,,,,,
Unnamed,leisure,pitch,24.7074777,46.6854103,,,,,,
Unnamed,leisure,garden,24.6798269,46.6956392,,,,,,
Unnamed,leisure,pitch,24.6798561,46.6966889,,,,,,
Unnamed,leisure,garden,24.6908725,46.6983694,,,,,,
Unnamed,leisure,swimming_pool,24.7052119,46.6812281,,,,,,
Unnamed,leisure,stadium,24.6894261,46.6911061,,,,,,
Unnamed,leisure,swimming_pool,24.6896129,46.6915676,,,,,,
Unnamed,leisure,pitch,24.7820324,46.6664952,,,,,,
Unnamed,leisure,garden,24.8250362,46.6468944,,,,,,
Unnamed,leisure,garden,24.8096399,46.6672121,,,,,,
Unnamed,leisure,pitch,24.8299853,46.6473022,,,,,,
Unnamed,leisure,pitch,24.8298826,46.6470343,,,,,,
Unnamed,leisure,pitch,24.8250462,46.6221398,,,,,,
Unnamed,leisure,garden,24.815999,46.6304583,,,,,,
Unnamed,leisure,garden,24.8168261,46.6300322,,,,,,
Unnamed,leisure,garden,24.6758546,46.7312649,,,,,,
Unnamed,leisure,swimming_pool,24.6888173,46.7272464,,,,,,
Unnamed,leisure,swimming_pool,24.6886401,46.7277503,,,,,,
Unnamed,leisure,pitch,24.6889117,46.7276963,,,,,,
Padel 101,leisure,pitch,24.8263501,46.6527633,,,,,,
Unnamed,leisure,garden,24.8206717,46.6362914,,,,,,
ملعب كرة قدم مدرسة الخطيب البغدادي المتوسطة,leisure,pitch,24.8125243,46.6547581,,,,,,
Unnamed,leisure,garden,24.8201661,46.6599875,,,,,,
Unnamed,leisure,garden,24.6843972,46.7292161,,,,,,
Unnamed,leisure,garden,24.676847,46.7373164,,,,,,
Unnamed,leisure,pitch,24.6854288,46.754733,,,,,,
الجبل,leisure,park,24.684151,46.7445814,,عمر بن عبدالعزيز,,,,
حديقة الكرامة,leisure,garden,24.67123,46.7470255,,,,,,
Unnamed,leisure,swimming_pool,24.847689,46.6693376,,,,,,
Unnamed,leisure,swimming_pool,24.6820703,46.7211382,,,,,,
الإتحاد السعودي لكرة الطاولة,leisure,pitch,24.6840734,46.7246152,,,,,,
Unnamed,leisure,pitch,24.8580749,46.6765563,,,,,,
Unnamed,leisure,garden,24.6707941,46.7502006,,,,,,
Unnamed,leisure,garden,24.6840888,46.7197869,,,,,,
منتزة جرير,leisure,park,24.6805046,46.749436,,,,,,
ملعب اطفال جرير الاول,leisure,pitch,24.6768527,46.7465995,,,,,,
Unnamed,leisure,garden,24.6804184,46.6694344,,,,,,
Unnamed,leisure,outdoor_seating,24.6974995,46.7399672,,,,,,
Unnamed,leisure,pitch,24.6975928,46.7399303,,,,,,
Unnamed,leisure,garden,24.696898,46.7401376,,,,,,
Unnamed,leisure,garden,24.697096,46.7400985,,,,,,
حديقة المعذر الشمالي,leisure,garden,24.6998516,46.6623898,,,,,,
Unnamed,leisure,pitch,24.6986562,46.7400764,,,,,,
Unnamed,leisure,pitch,24.6869075,46.7223399,,,,,,
Unnamed,leisure,pitch,24.686922,46.7224589,,,,,,
Unnamed,leisure,pitch,24.6839315,46.740943,,,,,,
Unnamed,leisure,playground,24.6976521,46.7417667,,,,,,
Unnamed,leisure,park,24.684947,46.738118,,,,,,
Unnamed,leisure,pitch,24.7016106,46.7451249,,,,,,
Unnamed,leisure,sports_centre,24.7020672,46.7451904,,,,,,
Unnamed,leisure,sports_centre,24.7019763,46.7451819,,,,,,
ملعب اطفال المعذر الشمالي الرابع,leisure,garden,24.7014844,46.6600189,,,,,,
Unnamed,leisure,garden,24.6972984,46.6600255,,,,,,
Unnamed,leisure,pitch,24.6914522,46.7498389,,,,,,
Unnamed,leisure,garden,24.6931551,46.7470406,,,,,,
Unnamed,leisure,garden,24.7054099,46.7091195,,,,,,
Unnamed,leisure,pitch,24.7044271,46.7052792,,,,,,
حديقة الثمار,leisure,garden,24.6885397,46.738586,,,,,,
ملعب الاطفال بحي الرحمانية,leisure,playground,24.7134397,46.6683221,,,,,,
حديقة البراعم,leisure,garden,24.7265475,46.68438,,,,,,
حديقة الأجيال,leisure,garden,24.7269896,46.6819764,,,,,,
حديقة الأغصان,leisure,garden,24.7316973,46.6811469,,,,,,
حديقة السنبلة,leisure,garden,24.7291878,46.6816985,,,,,,
Unnamed,leisure,swimming_pool,24.6972104,46.7111924,,,,,,
حديقة القرنفل,leisure,garden,24.6915263,46.7367282,,,,,,
Unnamed,leisure,park,24.7041846,46.6999676,,,,,,
حديقة الرحمانية,leisure,garden,24.7143955,46.6644529,,,,,,
Unnamed,leisure,pitch,24.6998135,46.7157198,,,,,,
Unnamed,leisure,pitch,24.7317822,46.6567829,,,,,,
Unnamed,leisure,pitch,24.7316353,46.6570869,,,,,,
حديقة الجوزاء,leisure,garden,24.6980448,46.6986741,,,,,,
حديقة الأنوار,leisure,garden,24.7322847,46.679469,,,,,,
Unnamed,leisure,garden,24.716339,46.6937506,,,,,,
Unnamed,leisure,pitch,24.7108372,46.6954028,,,,,,
Unnamed,leisure,pitch,24.7518035,46.6604242,,,,,,
Unnamed,leisure,pitch,24.7520435,46.6605833,,,,,,
Children’s recreation park,leisure,garden,24.7223358,46.6864748,,,,,,
صورة ملعب أطفال حي الورود الأول,leisure,garden,24.7202988,46.6840121,,,,,,
Unnamed,leisure,pitch,24.7078261,46.6935117,,,,,,
Unnamed,leisure,swimming_pool,24.7075947,46.6934521,,,,,,
Unnamed,leisure,garden,24.6849308,46.7473995,,,,,,
Unnamed,leisure,garden,24.6857895,46.7479835,,,,,,
Unnamed,leisure,pitch,24.7468041,46.6743396,,,,,,
Unnamed,leisure,pitch,24.746333,46.6745766,,,,,,
Unnamed,leisure,pitch,24.7506333,46.6409778,,,,,,
ملعب أطفال حي الورود الثالث park,leisure,garden,24.7201209,46.6846499,,,,,,
ملعب الورود السادس,leisure,park,24.7270858,46.6772161,,,,,,
Unnamed,leisure,pitch,24.7354173,46.6666837,,,,,,
Unnamed,leisure,pitch,24.751798,46.6607099,,,,,,
Unnamed,leisure,pitch,24.7954521,46.6053069,,,,,,
Unnamed,leisure,garden,24.7399518,46.68653,,,,,,
حديقة المحمدية,leisure,garden,24.7377927,46.654294,,,,,,
Unnamed,leisure,garden,24.7976868,46.6019835,,,,,,
حديقة النزهه الثانية,leisure,garden,24.7587122,46.7003902,,,,,,
حديقة الملك فهد,leisure,garden,24.7338096,46.6744577,,,,,,
Unnamed,leisure,garden,24.7243505,46.678306,,,,,,
حديقة التسامح,leisure,garden,24.7604659,46.6971176,,,,,,
Unnamed,leisure,garden,24.7930712,46.5919224,,,,,,
ملعب الأطفال,leisure,playground,24.7275346,46.6708061,,عمر بن ظفر,,,,
حديقة النزهة الثالثة,leisure,garden,24.7655519,46.7095222,,,,,,
Unnamed,leisure,pitch,24.7920348,46.6076573,,,,,,
Unnamed,leisure,garden,24.7611043,46.7143337,,,,,,
Unnamed,leisure,garden,24.7377469,46.6783242,,,,,,
Unnamed,leisure,garden,24.7356843,46.6791381,,,,,,
Unnamed,leisure,garden,24.7370748,46.6765808,,,,,,
حديقة الأراك,leisure,garden,24.7542149,46.7151142,,,,,,
Unnamed,leisure,park,24.7602288,46.7129832,,أحمد بن أبي عيسى,,,,
Unnamed,leisure,garden,24.775703,46.6930222,,,,,,
Unnamed,leisure,garden,24.7353278,46.6696422,,,,,,
Unnamed,leisure,garden,24.7636443,46.6585633,,,,,,
Unnamed,leisure,garden,24.7499597,46.7021014,,,,,,
Unnamed,leisure,pitch,24.757671,46.7114491,,,,,,
Unnamed,leisure,pitch,24.7576487,46.7117262,,,,,,
Unnamed,leisure,pitch,24.7490336,46.6732217,,,,,,
Unnamed,leisure,swimming_pool,24.7492899,46.6730888,,,,,,
Unnamed,leisure,park,24.7592603,46.6600001,,,,,,
Unnamed,leisure,park,24.7456849,46.6378638,,شارع وادي العيص,,,,
Unnamed,leisure,garden,24.7741441,46.6830197,,,,,,
Unnamed,leisure,garden,24.7491384,46.7101322,,,,,,
حديقة المصيف,leisure,garden,24.7638301,46.673035,,,,,,
Unnamed,leisure,pitch,24.7396204,46.6376784,,,,,,
وقت اللياقة,leisure,fitness_centre,24.7816427,46.7049009,وقت اللياقة,عثمان بن عفان,,,,وقت اللياقة
حديقة المرام,leisure,garden,24.7430021,46.664795,,,,,,
ملعب أطفال حي المصيف,leisure,garden,24.7638648,46.6882367,,,,,,
Unnamed,leisure,pitch,24.7482094,46.6373866,,,,,,
Unnamed,leisure,pitch,24.7687802,46.6838647,,,,,,
Unnamed,leisure,pitch,24.7527059,46.6368034,,,,,,
حديقة المرح,leisure,garden,24.7557709,46.6956563,,,,,,
Unnamed,leisure,park,24.753274,46.6376624,,شارع ابن الرطبي,,,,
Unnamed,leisure,park,24.748858,46.6319912,,,,,,
Unnamed,leisure,pitch,24.7491412,46.6317314,,,,,,
Unnamed,leisure,pitch,24.7499569,46.6317018,,,,,,
Unnamed,leisure,park,24.749178,46.6324423,,,,,,
Unnamed,leisure,park,24.7461216,46.6362958,,,,,,
حديقة الشموخ,leisure,garden,24.7518196,46.6836484,,محمد بن عبدالله بن عبداللطيف,,,,
Unnamed,leisure,pitch,24.7514166,46.6686579,,,,,,
Unnamed,leisure,track,24.7514163,46.6686568,,,,,,
حديقة السفير الشبيلي,leisure,garden,24.730866,46.6592596,,,,,,
Unnamed,leisure,garden,24.7291483,46.6601876,,,,,,
Unnamed,leisure,garden,24.7442702,46.6951397,,,,,,
Unnamed,leisure,garden,24.7451651,46.6979317,,,,,,
Unnamed,leisure,swimming_pool,24.7459998,46.6776856,,,,,,
المملكة أرينا,leisure,stadium,24.7786752,46.6059611,,شارع الحوي,,,,
Unnamed,leisure,park,24.7758177,46.7389608,,,,,,
Unnamed,leisure,pitch,24.8363912,46.6040474,,,,,,
Unnamed,leisure,pitch,24.8366215,46.604613,,,,,,
Unnamed,leisure,park,24.8000794,46.5944429,,,,,,
Unnamed,leisure,pitch,24.8023582,46.5939706,,,,,,
Unnamed,leisure,garden,24.7348671,46.6393221,,,,,,
Unnamed,leisure,pitch,24.6583535,46.7183898,,,,,,
Unnamed,leisure,swimming_pool,24.7509999,46.6750129,,,,,,
Unnamed,leisure,swimming_pool,24.7518283,46.6759563,,,,,,
Unnamed,leisure,swimming_pool,24.7466026,46.6744645,,,,,,
Unnamed,leisure,swimming_pool,24.7485792,46.6734848,,,,,,
Unnamed,leisure,swimming_pool,24.7486395,46.6733779,,,,,,
Unnamed,leisure,pitch,24.7570426,46.6706709,,,,,,
Unnamed,leisure,pitch,24.8300928,46.5830818,,,,,,
Unnamed,leisure,swimming_pool,24.7375236,46.668556,,,,,,
حديقة حي حطين,leisure,garden,24.7744281,46.6153768,,,,,,
حديقة حي النفل الثانية,leisure,garden,24.7790564,46.6796936,,,,,,
حديقة جامع الوهيبي,leisure,garden,24.8171804,46.598494,,,,,,
منتزة حي النفل,leisure,park,24.7785957,46.6696951,,الخزامين,,,,
Unnamed,leisure,garden,24.7825422,46.6799124,,,,,,
حديقة الصحافة,leisure,garden,24.8082328,46.6318966,,,,,,
Unnamed,leisure,park,24.8081965,46.5979933,,شارع الأفضلي,,,,
Unnamed,leisure,pitch,24.8068586,46.5997117,,,,,,
Unnamed,leisure,pitch,24.8068564,46.6318335,,,,,,
Unnamed,leisure,swimming_pool,24.8066709,46.6316685,,,,,,
Unnamed,leisure,park,24.7266287,46.6455818,,,,,24/7,
Unnamed,leisure,park,24.7874526,46.6561209,,,,,,
Unnamed,leisure,park,24.7840809,46.6480706,,,,,,
Unnamed,leisure,park,24.7841816,46.6483824,,,,,,
Unnamed,leisure,swimming_pool,25.0014736,46.5097799,,,,,,
Unnamed,leisure,pitch,25.0007218,46.5094975,,,,,,
Unnamed,leisure,miniature_golf,25.0007273,46.5090402,,,,,,
Unnamed,leisure,pitch,25.0034979,46.5105439,,,,,,
Unnamed,leisure,park,24.7232014,46.6469061,,Ibn Al Arabi,,,24/7,
Unnamed,leisure,park,24.8150897,46.594836,,,,,,
MDL Big Beast Stage,leisure,bandstand,24.9970615,46.5017612,,,,,,
Unnamed,leisure,park,24.5833052,46.786379,,,,,,
مشروع الرياض الخضراء,leisure,park,24.5816575,46.7849215,,,,,,
Unnamed,leisure,pitch,24.6477357,46.5487432,,,,,,
Unnamed,leisure,pitch,24.6479997,46.5491689,,,,,,
Unnamed,leisure,pitch,24.6480934,46.549322,,,,,,
Unnamed,leisure,pitch,24.6487702,46.5499907,,,,,,
Unnamed,leisure,pitch,24.6477533,46.5508474,,,,,,
Unnamed,leisure,track,24.6477543,46.5508428,,,,,,
Unnamed,leisure,pitch,24.6439433,46.6351401,,,,,,
Unnamed,leisure,swimming_pool,24.6440274,46.6348015,,,,,,
Unnamed,leisure,pitch,24.6434859,46.6356177,,,,,,
Unnamed,leisure,pitch,24.6434364,46.6357397,,,,,,
Unnamed,leisure,pitch,24.4143912,46.8596941,,,,,,
Unnamed,leisure,pitch,24.5922496,46.5884545,,,,,,
Unnamed,leisure,pitch,24.8005597,46.863444,,,,,,
Unnamed,leisure,pitch,24.7955114,46.8612869,,,,,,
Unnamed,leisure,pitch,24.8031868,46.8080659,,,,,,
Unnamed,leisure,pitch,24.8036766,46.8078538,,,,,,
Unnamed,leisure,pitch,24.7925462,46.8029162,,,,,,
Unnamed,leisure,pitch,24.7922453,46.8031444,,,,,,
Unnamed,leisure,pitch,24.7958963,46.7942612,,,,,,
Unnamed,leisure,pitch,24.7524366,46.75372,,,,,,
Unnamed,leisure,swimming_pool,24.7530037,46.7535917,,,,,,
Unnamed,leisure,pitch,24.7120815,46.7807934,,,,,,
Unnamed,leisure,pitch,24.711368,46.7948954,,,,,,
Unnamed,leisure,pitch,24.7072442,46.7954542,,,,,,
Unnamed,leisure,pitch,24.6910696,46.8078973,,,,,,
Unnamed,leisure,pitch,24.6755259,46.8149395,,,,,,
Unnamed,leisure,pitch,24.6754026,46.8154418,,,,,,
Unnamed,leisure,pitch,24.6749946,46.8152042,,,,,,
Unnamed,leisure,pitch,24.6620723,46.8054401,,,,,,
Unnamed,leisure,pitch,24.6623361,46.8048631,,,,,,
Unnamed,leisure,pitch,24.6627433,46.8051626,,,,,,
Unnamed,leisure,pitch,24.6588949,46.8006728,,,,,,
Unnamed,leisure,pitch,24.6901108,46.7826296,,,,,,
Unnamed,leisure,pitch,24.6903576,46.7831555,,,,,,
Unnamed,leisure,pitch,24.7026604,46.7637536,,,,,,
Unnamed,leisure,pitch,24.7026671,46.7632738,,,,,,
Unnamed,leisure,pitch,24.7022347,46.7640648,,,,,,
Unnamed,leisure,pitch,24.7018243,46.7625029,,,,,,
Unnamed,leisure,pitch,24.7016391,46.7620356,,,,,,
Unnamed,leisure,pitch,24.7012776,46.7610875,,,,,,
Unnamed,leisure,pitch,24.6977849,46.7421952,,,,,,
Unnamed,leisure,sports_centre,24.6973437,46.7417887,,,,,,
Unnamed,leisure,pitch,24.6748073,46.7552802,,,,,,
Unnamed,leisure,pitch,24.6773289,46.7142762,,,,,,
Unnamed,leisure,pitch,24.6778236,46.7142541,,,,,,
Unnamed,leisure,pitch,24.6765313,46.7139619,,,,,,
Unnamed,leisure,pitch,24.6766971,46.7137045,,,,,,
Unnamed,leisure,pitch,24.6763847,46.7137041,,,,,,
Unnamed,leisure,pitch,24.667501,46.7093205,,,,,,
Unnamed,leisure,pitch,24.6592865,46.6982156,,,,,,
Unnamed,leisure,pitch,24.6588942,46.6983135,,,,,,
Unnamed,leisure,swimming_pool,24.6591531,46.6988952,,,,,,
Unnamed,leisure,pitch,24.6519365,46.6984921,,,,,,
Unnamed,leisure,pitch,24.6515039,46.6971446,,,,,,
Unnamed,leisure,pitch,24.6519553,46.6885205,,,,,,
Unnamed,leisure,pitch,24.6391282,46.6923373,,,,,,
Unnamed,leisure,pitch,24.6140881,46.6927234,,,,,,
Unnamed,leisure,pitch,24.6130398,46.6987423,,,,,,
Unnamed,leisure,pitch,24.605147,46.7045849,,,,,,
Unnamed,leisure,pitch,24.6013987,46.6908828,,,,,,
Unnamed,leisure,pitch,24.6021636,46.6838592,,,,,,
Unnamed,leisure,pitch,24.5903701,46.669189,,,,,,
Unnamed,leisure,pitch,24.5902935,46.6687201,,,,,,
Unnamed,leisure,pitch,24.594037,46.6641626,,,,,,
Unnamed,leisure,pitch,24.5933767,46.6638889,,,,,,
Unnamed,leisure,pitch,24.5972558,46.6570485,,,,,,
Unnamed,leisure,pitch,24.4182929,46.8761181,,,,,,
Unnamed,leisure,pitch,24.4176508,46.8753976,,,,,,
Unnamed,leisure,pitch,24.4145583,46.8718267,,,,,,
Unnamed,leisure,pitch,24.4151921,46.8725628,,,,,,
Unnamed,leisure,pitch,24.4162981,46.8714253,,,,,,
Unnamed,leisure,pitch,24.4134723,46.8729654,,,,,,
Unnamed,leisure,pitch,24.568146,46.8456048,,,,,,
Unnamed,leisure,pitch,24.5891319,46.7890785,,,,,,
Unnamed,leisure,pitch,24.5906942,46.7842541,,,,,,
Unnamed,leisure,pitch,24.5832373,46.7823732,,,,,,
Unnamed,leisure,pitch,24.5835162,46.7830091,,,,,,
Unnamed,leisure,pitch,24.5844264,46.7849617,,,,,,
Unnamed,leisure,pitch,24.587854,46.7734002,,,,,,
Unnamed,leisure,pitch,24.5816201,46.7719007,,,,,,
Unnamed,leisure,playground,24.5820576,46.7721979,,,,,,
Unnamed,leisure,pitch,24.5613418,46.7714558,,,,,,
Unnamed,leisure,pitch,24.5494361,46.7582388,,,,,,
Unnamed,leisure,pitch,24.549078,46.7583883,,,,,,
Unnamed,leisure,pitch,24.6031876,46.7422373,,,,,,
Unnamed,leisure,pitch,24.6082931,46.7544843,,,,,,
Unnamed,leisure,pitch,24.6086668,46.75435,,,,,,
Unnamed,leisure,pitch,24.6127264,46.7573857,,,,,,
Unnamed,leisure,pitch,24.6138857,46.7584961,,,,,,
Unnamed,leisure,pitch,24.6150769,46.7637804,,,,,,
Unnamed,leisure,pitch,24.6148711,46.7636363,,,,,,
Unnamed,leisure,pitch,24.6188043,46.7635427,,,,,,
Unnamed,leisure,pitch,24.6194135,46.7456644,,,,,,
Unnamed,leisure,pitch,24.6192562,46.7462214,,,,,,
Unnamed,leisure,pitch,24.6834773,46.6986651,,,,,,
Unnamed,leisure,pitch,24.6841182,46.698327,,,,,,
Unnamed,leisure,pitch,24.6652844,46.6630312,,,,,,
Unnamed,leisure,pitch,24.6458484,46.6661838,,,,,,
Unnamed,leisure,pitch,24.6457977,46.6292052,,,,,,
Unnamed,leisure,pitch,24.6467334,46.6296615,,,,,,
Unnamed,leisure,pitch,24.6445476,46.6121021,,,,,,
Unnamed,leisure,pitch,24.7545117,46.5683301,,,,,,
Unnamed,leisure,pitch,24.8516246,46.5976674,,,,,,
Unnamed,leisure,pitch,24.8509115,46.5980456,,,,,,
Unnamed,leisure,pitch,24.8571515,46.6059652,,,,,,
Unnamed,leisure,pitch,24.8568932,46.6052576,,,,,,
Unnamed,leisure,pitch,24.8570054,46.6055198,,,,,,
Unnamed,leisure,pitch,24.7833685,46.6871353,,,,,,
Unnamed,leisure,pitch,24.7832839,46.6869321,,,,,,
Unnamed,leisure,pitch,24.5453282,46.6986386,,,,,,
Unnamed,leisure,pitch,24.5893463,46.6347323,,,,,,
Unnamed,leisure,pitch,24.5779335,46.5926372,,,,,,
Unnamed,leisure,pitch,24.5835754,46.5712605,,,,,,
Unnamed,leisure,pitch,24.5835175,46.5605146,,,,,,
Unnamed,leisure,pitch,24.5835295,46.5594244,,,,,,
Unnamed,leisure,pitch,24.5833957,46.5586268,,,,,,
Unnamed,leisure,pitch,24.5824336,46.5586003,,,,,,
Unnamed,leisure,pitch,24.5823825,46.5591592,,,,,,
Unnamed,leisure,pitch,24.5822401,46.5598199,,,,,,
Unnamed,leisure,pitch,24.5815139,46.5576061,,,,,,
Unnamed,leisure,pitch,24.5814991,46.557782,,,,,,
Unnamed,leisure,pitch,24.5814456,46.5579707,,,,,,
Unnamed,leisure,pitch,24.582669,46.5575037,,,,,,
Unnamed,leisure,pitch,24.5833683,46.5577,,,,,,
Unnamed,leisure,pitch,24.5794017,46.5517667,,,,,,
Unnamed,leisure,pitch,24.5808217,46.5417046,,,,,,
Unnamed,leisure,pitch,24.5877505,46.5383508,,,,,,
Unnamed,leisure,pitch,24.5533451,46.5234786,,,,,,
Unnamed,leisure,pitch,24.553132,46.5109552,,,,,,
Unnamed,leisure,pitch,24.5165363,46.4680828,,,,,,
Unnamed,leisure,pitch,24.5159036,46.4685535,,,,,,
Unnamed,leisure,pitch,24.5539262,46.5745929,,,,,,
Unnamed,leisure,pitch,24.5541995,46.5746251,,,,,,
Unnamed,leisure,pitch,24.617537,46.565323,,,,,,
Unnamed,leisure,pitch,24.617198,46.5653444,,,,,,
Unnamed,leisure,pitch,24.6167733,46.5653247,,,,,,
Unnamed,leisure,pitch,24.7590929,46.4324716,,,,,,
Unnamed,leisure,pitch,24.9150419,46.4568862,,,,,,
Unnamed,leisure,pitch,24.9197432,46.4472962,,,,,,
Unnamed,leisure,pitch,24.9460776,46.556694,,,,,,
Unnamed,leisure,pitch,24.9458631,46.5563427,,,,,,
Unnamed,leisure,pitch,24.9868752,46.5565494,,,,,,
Unnamed,leisure,pitch,25.0229513,46.5765903,,,,,,
Unnamed,leisure,pitch,24.7394832,46.8671141,,,,,,
Unnamed,leisure,pitch,24.7403772,46.8701618,,,,,,
Unnamed,leisure,pitch,24.7405901,46.8705998,,,,,,
Unnamed,leisure,pitch,24.7402559,46.8706438,,,,,,
Unnamed,leisure,pitch,24.7410163,46.8682709,,,,,,
Unnamed,leisure,pitch,24.740727,46.868315,,,,,,
Unnamed,leisure,pitch,24.7402206,46.8632444,,,,,,
Unnamed,leisure,pitch,24.7399711,46.863175,,,,,,
Unnamed,leisure,pitch,24.6728492,46.8794155,,,,,,
Unnamed,leisure,pitch,24.6733511,46.8791973,,,,,,
Unnamed,leisure,pitch,24.6640047,46.873785,,,,,,
Unnamed,leisure,pitch,24.6645787,46.8735383,,,,,,
Unnamed,leisure,pitch,24.6647576,46.872671,,,,,,
Unnamed,leisure,pitch,24.6631602,46.8735358,,,,,,
Unnamed,leisure,pitch,24.6632561,46.8737913,,,,,,
Unnamed,leisure,pitch,24.6630296,46.871901,,,,,,
Unnamed,leisure,swimming_pool,24.8109936,46.7512295,,,,,,
Unnamed,leisure,swimming_pool,24.8108595,46.7509508,,,,,,
Unnamed,leisure,swimming_pool,24.8108603,46.7512953,,,,,,
Unnamed,leisure,swimming_pool,24.8108004,46.7508163,,,,,,
Unnamed,leisure,swimming_pool,24.8106937,46.7509116,,,,,,
Unnamed,leisure,swimming_pool,24.8107964,46.7511564,,,,,,
Unnamed,leisure,swimming_pool,24.8109284,46.75109,,,,,,
Unnamed,leisure,swimming_pool,24.8097905,46.7455206,,,,,,
Unnamed,leisure,swimming_pool,24.809274,46.7471204,,,,,,
حديقة حي قرطبة,leisure,playground,24.8104582,46.7481778,,,,,,
حديقة حي قرطبة,leisure,playground,24.8106206,46.7481583,,,,,,
حديقة حي قرطبة,leisure,playground,24.8107585,46.7484993,,,,,,
حديقة حي قرطبة,leisure,park,24.8105762,46.7483874,,,,,,
حديقة حي قرطبة,leisure,park,24.8104676,46.7484661,,,,,,
Unnamed,leisure,swimming_pool,24.8104515,46.7493476,,,,,,
Unnamed,leisure,park,24.8097743,46.7478417,,Ahmad Bin Maisar,,,,
Unnamed,leisure,pitch,24.6988622,46.5894467,,,,,,
Unnamed,leisure,pitch,24.6976017,46.5897695,,,,,,
Unnamed,leisure,park,24.8812072,46.7391383,,,,,,
حديقة الربيع,leisure,park,24.792505,46.6518337,,,,,,
Unnamed,leisure,pitch,24.5647945,46.6756816,,,,,,
Unnamed,leisure,park,24.7554515,46.5643898,,,,,,
حديقه لبن,leisure,park,24.6368412,46.5541729,,,,,,
Unnamed,leisure,park,24.6291693,46.7152096,,,,,,
Unnamed,leisure,garden,24.6475949,46.7087397,,,,,,
حديقة سكان الماجدية,leisure,garden,24.8237274,46.6279277,,,,,,
شتاء جلاس,leisure,park,24.9166741,46.790932,,شارع أبي رفاعة العدوي الرمال 1,,,Mo-Fr 08:00-16:00,
Maze Garden,leisure,garden,24.5297528,46.4582733,,,,,,
Water Garden,leisure,garden,24.533399,46.4547237,,,,,,
Unnamed,leisure,pitch,24.730688,46.774292,,,,,,
حديقة الغروب,leisure,park,24.5975893,46.653148,,,,,,
