Name,Type,Subtype,Latitude,Longitude,Arabic Name,Address,Phone,Website,Hours,Brand
تمیمي,shop,supermarket,24.7368857,46.6839908,,,,,,
AlSadhan,shop,supermarket,24.7542175,46.770169,,,,,,
بنده الحمراء,shop,supermarket,24.7680961,46.7575916,,,,,,
Jarir Bookstore,shop,books,24.7017967,46.6807661,,,,www.jarirbookstore.com,,
Al Yemni Service Center,shop,car_repair,24.708353,46.7107249,,,,,,
Red Cap,shop,car_parts,24.7085688,46.7075894,,,,,,
jazeera supermarket,shop,supermarket,24.705956,46.6883297,اسواق الجزيرة,,,,,
Al Sadhan Hypermarket,shop,supermarket,24.7076873,46.6899131,,Mousa Bin Nusair Street,,,,
Carrefour,shop,supermarket,24.713113,46.6727167,,,,,,Carrefour
بنده,shop,supermarket,24.7198624,46.6904451,بنده,,,,,بنده
Unnamed,shop,supermarket,24.7254766,46.7965374,,,,,,
Unnamed,shop,supermarket,24.7262803,46.7970166,,,,,,
Unnamed,shop,supermarket,24.7341154,46.7945513,,,,,,
Unnamed,shop,supermarket,24.7293015,46.79037,,,,,,
Carrefour Hypermarket,shop,supermarket,24.7238199,46.7752209,,,,,,
SACO Store,shop,convenience,24.7295516,46.7840286,,,,,,
Meed,shop,supermarket,24.7305781,46.788629,,,,,,
Unnamed,shop,supermarket,24.7374188,46.7828032,,,,,,
Unnamed,shop,supermarket,24.7240122,46.7976158,,,,,,
Unnamed,shop,car_repair,24.691398,46.718688,,,,,,
Unnamed,shop,supermarket,24.691485,46.718335,,,,,,
Unnamed,shop,dry_cleaning,24.727668,46.792185,,,,,,
Unnamed,shop,supermarket,24.7230289,46.6744426,,,,,,
Halawani Market,shop,supermarket,24.7136242,46.6762344,,,,,,
Unnamed,shop,supermarket,24.710792,46.693629,,,,,,
Blue Belt,shop,audio_video,24.716211,46.681908,,,,,,
Unnamed,shop,supermarket,24.7184632,46.680691,,,,,,
Meed,shop,supermarket,24.7162022,46.6808198,,,,,,
Al Tamimi - Safeway,shop,supermarket,24.6975568,46.7019555,,,,,,
Unnamed,shop,supermarket,24.6869706,46.6932438,,,,,,
Meed,shop,supermarket,24.7126351,46.6979108,,,,,,
Unnamed,shop,supermarket,24.7023309,46.6915705,,,,,,
Unnamed,shop,supermarket,24.6876218,46.6879227,,,,,,
Unnamed,shop,supermarket,24.6668954,46.7011728,,,,,,
ميد,shop,supermarket,24.6681238,46.7002823,,,,,,
Unnamed,shop,supermarket,24.6562091,46.7354085,,,,,,
Unnamed,shop,bicycle,24.6570867,46.7357089,,,,,,
Unnamed,shop,greengrocer,24.658165,46.744734,,,,,,
Al Hamrani Nissan,shop,car,24.687777,46.733421,,,,,,
Meed,shop,supermarket,24.747742,46.797649,,,,,,
Unnamed,shop,supermarket,24.7297099,46.7906026,,,,,,
Caravan,shop,supermarket,24.7010256,46.6763062,,,,,,
Unnamed,shop,dry_cleaning,24.723403,46.797962,,,,,,
Unnamed,shop,supermarket,24.723666,46.797282,,,,,,
Unnamed,shop,hardware,24.725196,46.79665,,,,,,
السدحان هايبر ماركت,shop,supermarket,24.7282353,46.784903,,,,,,
LG showroom,shop,electronics,24.7166372,46.6740149,,,,,,
Mercedes Center,shop,car_repair,24.7084552,46.6864336,,,,,,
Samaco Agency,shop,car,24.6977579,46.6877693,,,,,,
Club Car,shop,car,24.7000388,46.6914225,,Tahliya St.,,,,
Black Fashion,shop,clothes,24.7033674,46.7008585,,,,,,
Unnamed,shop,car,24.7191857,46.7721677,,,,,,
Unnamed,shop,car,24.7337353,46.7933786,,Khurais Road,,,,
Al Hamrany Auto Dealer - Nissan,shop,car,24.719215,46.7700863,,Khurais Road,,,,
KIA motors,shop,car,24.7332773,46.7925954,,Khurais Road,,,,Kia
Global Store - Apple Premium Reseller,shop,computer,24.7019248,46.6957891,,Tahliya St.,,,,
Global Store - Apple Premium Reseller,shop,computer,24.7045711,46.6917068,,,,,,
Unnamed,shop,jewelry,24.703884,46.6808063,,,,,,
Unnamed,shop,shoes,24.6956524,46.6844863,,,,,,
Unnamed,shop,supermarket,24.6902911,46.6881663,,,,,,
Unnamed,shop,car,24.7020174,46.6950756,,,,,,
Unnamed,shop,dry_cleaning,24.7223872,46.6786122,,,,,,
Unnamed,shop,books,24.7025145,46.6793096,,,,,,
Unnamed,shop,department_store,24.7060039,46.6884291,,,,,,
Unnamed,shop,convenience,24.7059357,46.6882145,,,,,,
Unnamed,shop,shoes,24.7059796,46.6870934,,,,,,
Unnamed,shop,travel_agency,24.706521,46.6891667,,,,,,
Olayan,shop,car_parts,24.724281,46.778225,,,,,,
Unnamed,shop,car,24.7401616,46.8018543,,,,,,
Jeep - Chrysler - Dodge,shop,car,24.7406683,46.8026751,,,,,,
Drive 7,shop,car_parts,24.7251207,46.7796135,,Khurais Road,,,,
Jarir Bookstore,shop,department_store,24.7671839,46.7561388,,,,,,
Unnamed,shop,supermarket,24.7008336,46.6927224,,,,,,
VIP Barber Shop,shop,hairdresser,24.729632,46.7906755,,,,,,
Sony,shop,electronics,24.7375989,46.7975307,,,,,,Sony
Unnamed,shop,hairdresser,24.7376233,46.7976326,,,,,,
سنتر بوينت,shop,clothes,24.7345489,46.7932391,سنتر بوينت,Khurais Road,,,,
Unnamed,shop,jewelry,24.7378523,46.7982441,,,,,,
Unnamed,shop,doityourself,24.725379,46.7966026,,,,,,
Unnamed,shop,gift,24.7377987,46.7981315,,,,,,
Unnamed,shop,shoes,24.7378766,46.797933,,,,,,
Ahmad Abdul Wahad Store,shop,electronics,24.7374917,46.7974287,,,,,,
Hyper Panda,shop,convenience,24.7377061,46.7980081,,,,,,
Unnamed,shop,furniture,24.7253595,46.793856,,,,,,
Axiom Telecom,shop,mobile_phone,24.7377061,46.7977774,,,,,,
Unnamed,shop,clothes,24.7379059,46.7980939,,,,,,
Tokyo Games,shop,toys,24.7373992,46.7975628,,,,,,
SACO World,shop,convenience,24.7304778,46.7855367,,,,,,
Zahid Tractors,shop,tractors,24.7677138,46.8358514,,Khurais Road,0112319984,https://www.zahidcat.com/,Sa-Th 07:00-17:00,
Unnamed,shop,car,24.7271186,46.7831956,,,,,,
Jarir Bookstore,shop,books,24.7221951,46.7752727,,,,,,
Unnamed,shop,car,24.6977108,46.7341983,,,,,,
Unnamed,shop,car,24.70414,46.7443095,,,,,,
Sultan Garden Centre,shop,garden_centre,24.8027275,46.7162231,,Airport Road 4962,,,,
Unnamed,shop,car,24.7467769,46.7462091,,,,,,
Unnamed,shop,car,24.6978323,46.7343774,,,,,,
Unnamed,shop,WorkShop,24.6874541,46.6516636,,,,,,
Bakala Wafa,shop,convenience,24.6907051,46.6526903,,,,,,
هايبرماركت كارفور,shop,supermarket,24.7817642,46.7319678,,,,,,
Unnamed,shop,supermarket,24.6883106,46.6429197,,,,,,
Commissary,shop,supermarket,24.5822399,46.8657429,,,,,,
Unnamed,shop,convenience,24.5823857,46.8660642,,,,,,
Harley Davidson,shop,car,24.7729954,46.6773081,,,,,,
Gas station,shop,car_repair,24.74988,46.8204556,,,,,,
ردتاغ,shop,clothes,24.7508738,46.8219898,ردتاغ,,+966 11 233 8200,https://sa.redtagfashion.com/,"Fr 14:00-23:30; Mo-Th,Sa-Su 09:30-23:30",
Unnamed,shop,greengrocer,24.7499287,46.8218396,,,,,,
Unnamed,shop,gift,24.7503477,46.8228374,,,,,,
Unnamed,shop,books,24.7503574,46.8221937,,,,,,
private work shop,shop,car_repair,24.7505292,46.8165412,,,,,,
Unnamed,shop,doityourself,24.751372,46.8226244,,,,,,
Unnamed,shop,bakery,24.7507095,46.8233111,,,,,,
Petromin,shop,car_repair,24.7522391,46.8191805,,,+966 800 442 0020,https://petromin.express/,"Fr 16:00-22:00; Mo-Th,Sa-Su 08:00-23:30",
سوبرماركت الفانوس,shop,supermarket,24.7322041,46.7647036,,,,,,
Jarir Bookstore,shop,books,24.7447943,46.6794451,,,,,,
بنده النسيم,shop,supermarket,24.7420559,46.8076975,,,,,,
بنده اشبيليا,shop,supermarket,24.8078826,46.8072599,,,,,,
Chicco,shop,toys,24.6854279,46.6896284,,,,,,
Unnamed,shop,yes,24.5875444,46.6678471,,,,,,
Davide,shop,electronics,24.5974137,46.7449756,,Via Provinciale Avenza-sarzana 69,,,,
Unnamed,shop,farm,24.596332,46.745251,,,,,,
كارفور,shop,supermarket,24.5629406,46.6454805,,,,,,Carrefour
Casio dealer,shop,electronics,24.6842562,46.7253761,,,,,,
مخبز العجاجي,shop,bakery,24.6675998,46.7329667,مخبز العجاجي,,,,,
الحربي,shop,supermarket,24.6688819,46.7324088,,,,,,
Al Karama pastry,shop,pastry,24.6695205,46.7319689,,,,,,
Baby Mango,shop,beverages,24.6705832,46.7312769,,,,,,
غرناطة للرياضة,shop,sports,24.6671281,46.7310529,,,,,,
Reghef Sehe,shop,bakery,24.6681625,46.7325743,,,,,,
اسواق ساره,shop,supermarket,24.5838003,46.6901288,,,,,,
اتصالات 24,shop,supermarket,24.5835857,46.6896513,,,,,,
الروزنه النسائي,shop,supermarket,24.5850491,46.6961745,,,,,,
Wooden Bakery,shop,bakery,24.7625194,46.7162781,,Othman Bin Affan Road,,https://www.woodenbakery.com/,,
Steps,shop,shoes,24.7334177,46.6655566,,Olaya Street,,,,
العثيم مول,shop,mall,24.6857467,46.7748506,,,,,,
بساتين الفصيم,shop,supermarket,24.757096,46.6629792,,Almughirah Ibn Shubah,,,,
أسواق عبد الله العثيم,shop,supermarket,24.7582554,46.6635421,أسواق عبد الله العثيم,,,,,أسواق عبد الله العثيم
Marks & Spencer,shop,department_store,24.7446811,46.6797962,,"King Abdulaziz Road Hayat Mall, Gate 7",,,,
أسواق بلشرف,shop,supermarket,24.7641645,46.7140972,,,,,,
Simply Market,shop,supermarket,24.5690559,46.8380607,,,,,,
Unnamed,shop,yes,24.6885288,46.6187597,,,,,,
صناعية الخليج,shop,car_repair,24.7685329,46.7981128,,,,,,
Unnamed,shop,laundry,24.682347,46.8992861,,,,,,
Unnamed,shop,convenience,24.6821537,46.8995739,,,,,,
Al Rajhi Mall بنده الروابي,shop,supermarket,24.6804644,46.7835508,,,,,,
danube,shop,supermarket,24.6937442,46.6707414,,,,,,
العثيم,shop,supermarket,24.6296218,46.7182263,,,,,,
بزل للوسائل التعليمية,shop,supermarket,24.7813177,46.6850278,,Abi Bakr As Siddiq Rd,,,,
الدانوب,shop,supermarket,24.8119551,46.770555,,الأمير تركي الاول,,,,
درة العقيق,shop,supermarket,24.8056935,46.7813009,,,,,,
Unnamed,shop,supermarket,24.8086152,46.7787904,,,,,,
Unnamed,shop,supermarket,24.8139811,46.7761618,,,,,,
اسواق العثيم,shop,supermarket,24.8196843,46.7724925,,,,,,
Unnamed,shop,supermarket,24.8247382,46.7706793,,,,,,
Unnamed,shop,hardware,24.8253419,46.7703897,,,,,,
Unnamed,shop,clothes,24.7668677,46.7172599,,,,,,
Unnamed,shop,clothes,24.7693811,46.7161012,,,,,,
Unnamed,shop,deli,24.7681009,46.7156275,,,,,,
Unnamed,shop,department_store,24.7685782,46.7156704,,,,,,
Unnamed,shop,clothes,24.7678086,46.7159172,,,,,,
Unnamed,shop,department_store,24.7668539,46.7163999,,,,,,
Unnamed,shop,clothes,24.7681398,46.7163463,,,,,,
Unnamed,shop,beauty,24.7676138,46.7163463,,,,,,
Unnamed,shop,clothes,24.7669806,46.7155202,,,,,,
Unnamed,shop,hairdresser,24.8049522,46.7808158,,,,,,
Unnamed,shop,laundry,24.8029119,46.7818028,,,,,,
Unnamed,shop,convenience,24.8066711,46.7808426,,,,,,
Unnamed,shop,laundry,24.8077302,46.7802928,,,,,,
Unnamed,shop,laundry,24.8078909,46.779362,,,,,,
Unnamed,shop,bakery,24.8084582,46.7790294,,,,,,
Unnamed,shop,supermarket,24.8091643,46.778662,,,,,,
Unnamed,shop,convenience,24.8127992,46.7777366,,,,,,
Unnamed,shop,convenience,24.8080906,46.7792735,,,,,,
Unnamed,shop,convenience,24.8037324,46.7822266,,,,,,
Unnamed,shop,convenience,24.8030166,46.7817707,,,,,,
Unnamed,shop,convenience,24.8014973,46.7807715,,,,,,
Unnamed,shop,convenience,24.8008277,46.7791971,,,,,,
Unnamed,shop,convenience,24.8008009,46.7801144,,,,,,
Unnamed,shop,convenience,24.8015021,46.7781001,,,,,,
Unnamed,shop,hairdresser,24.8014266,46.7781215,,,,,,
Unnamed,shop,hairdresser,24.8014047,46.7781457,,,,,,
Unnamed,shop,clothes,24.7994369,46.7843738,,,,,,
Unnamed,shop,jewelry,24.7993662,46.7844194,,,,,,
Unnamed,shop,toys,24.8001527,46.783199,,,,,,
Unnamed,shop,hairdresser,24.8006786,46.7829281,,,,,,
Unnamed,shop,convenience,24.8007712,46.7828851,,,,,,
Unnamed,shop,toys,24.8141547,46.7761528,,,,,,
Unnamed,shop,laundry,24.8086038,46.7789638,,,,,,
Unnamed,shop,convenience,24.8021178,46.7833639,,,,,,
Unnamed,shop,department_store,24.8043432,46.7819209,,,,,,
Unnamed,shop,supermarket,24.7731958,46.5742663,,,,,,
بنشر,shop,tyres,24.7728366,46.5746319,,,,,,
Unnamed,shop,convenience,24.7926322,46.8054023,,,,,,
Unnamed,shop,convenience,24.7957381,46.7973266,,,,,,
مؤسسة محمد عبدالله مرضاح للتجارة,shop,car_parts,24.6413814,46.7390199,,الصمان مجمع الصمان,,,"Sa-We 07:30-12:00, 16:00-19:30; Th 7:30-17:30",
مركز السفريات لصيانة السيارات,shop,car_repair,24.6373991,46.7442655,,شارع الجمعية الصناعية,,,"07:00-12:00,14:00-17:00",
شركة الزاهد للتراكتورات والمعدات الثقيلة,shop,outdoor,24.6317251,46.7628675,,شارع علي بن أبي طالب Zahid Tractors & Heavy Machinery Co,0114489763,https://www.zahidcat.com/,"Su-Th 07:30-12:00, 13:00-17:30; Sa 08:00-12:00",
شركة الزاهد للتراكتورات والمعدات الثقيلة المحدودة,shop,outdoor,24.8770308,46.947435,,Khurais Road Zahid Tractors & Heavy Machinery Co,0112319984,https://www.zahidcat.com/,"Su-Th 07:00-12:00, 13:00-17:00",
Unnamed,shop,convenience,24.706367,46.699964,,,,,,
الهرم بلازا,shop,clothes,24.7132896,46.8478626,,Prince Saad Ibn Abdulrahman Alawal Al Haram Plaza,,,,
حلاق عصمان,shop,hairdresser,24.7322965,46.8485527,,Abu Al Aswad Al Doali,0580058807,,Mo-Su 09:00-23:55,
BAJA,shop,confectionery,24.7597266,46.6696587,,Ibn Sina,,,,
othaim market أسواق العثيم,shop,supermarket,24.7142611,46.6260202,,,,,,
tamimi market أسواق التميمي,shop,supermarket,24.7136763,46.6337956,,أسواق التميمي,,,,
صرافة الأهلي,shop,mobile_phone,24.7315209,46.848714,,شارع أبو الأسود الدؤلي,,,,
مجمع النيزك للاتصالات,shop,mobile_phone,24.7269558,46.8521291,,شارع أبو الأسود الدؤلي,,,,
قصة قلم,shop,books,24.6500347,46.7061435,,,,,,
Unnamed,shop,hairdresser,24.6484714,46.7065732,,,,,,
Unnamed,shop,electronics,24.6492979,46.706367,,,,,,
Unnamed,shop,hairdresser,24.6493259,46.7063598,,,,,,
Unnamed,shop,supermarket,24.6493534,46.7063527,,,,,,
Unnamed,shop,laundry,24.6493702,46.7063484,,,,,,
Unnamed,shop,hairdresser,24.6493953,46.706342,,,,,,
Unnamed,shop,hairdresser,24.6494233,46.7063348,,,,,,
Unnamed,shop,hairdresser,24.6496129,46.7062667,,,,,,
Unnamed,shop,hairdresser,24.649661,46.7062533,,,,,,
Unnamed,shop,hardware,24.6497843,46.7065124,,,,,,
Unnamed,shop,shoes,24.6498436,46.7064961,,,,,,
Unnamed,shop,supermarket,24.649952,46.7064664,,,,,,
Unnamed,shop,laundry,24.6500015,46.7064528,,,,,,
Unnamed,shop,bakery,24.6500448,46.7064409,,,,,,
Unnamed,shop,butcher,24.6501543,46.7064109,,,,,,
Unnamed,shop,supermarket,24.6501802,46.709352,,,,,,
Unnamed,shop,seafood,24.6504557,46.7092822,,,,,,
Unnamed,shop,supermarket,24.6505191,46.7092661,,,,,,
Unnamed,shop,seafood,24.6506386,46.7092527,,,,,,
سمك الشرقية الطازج,shop,seafood,24.6507726,46.7092983,,,,,,
Unnamed,shop,greengrocer,24.650129,46.7093587,,,,,,
ساحل جدة,shop,seafood,24.6508506,46.7092742,,,,,,
Unnamed,shop,supermarket,24.6509262,46.7059321,,,,,,
اسماك الوشم,shop,seafood,24.6509481,46.7092527,,,,,,
Unnamed,shop,supermarket,24.6513991,46.7072893,,,,,,
سهل,shop,yes,24.6518503,46.7060619,,,,,,
سهل,shop,supermarket,24.6519094,46.7060049,,,,,,
ثمار الرحمانية,shop,butcher,24.6395052,46.7083484,,,,,,
نظارات المدينة,shop,optician,24.6382682,46.7102187,,,,,,
دواجن,shop,butcher,24.6405296,46.7083491,,,,,,
Unnamed,shop,car_repair,24.6389104,46.70831,,,,,,
Unnamed,shop,laundry,24.6406018,46.7083508,,,,,,
Unnamed,shop,gift,24.6396341,46.7083481,,,,,,
Unnamed,shop,hairdresser,24.6406588,46.7083522,,,,,,
الحناكي للمكسرات,shop,confectionery,24.6384747,46.7101816,,,,,,
Unnamed,shop,supermarket,24.6396905,46.708348,,,,,,
ايس كريم,shop,confectionery,24.6395555,46.7083483,,,,,,
بنده,shop,supermarket,24.583423,46.6865817,,شارع الشيخ محمد بن عبد اللطيف بن عبد الرحمن 7524,920027707,http://beta.panda.com.sa/stores/riyadh/?___store=riyadh_ar,,
ميد,shop,convenience,24.5858317,46.6921697,,الطريق الدائري الجنوبي الفرعي 5450,966114778144,http://meedstores.com/,,
Unnamed,shop,clothes,24.7675504,46.7152814,,,,,,
Unnamed,shop,clothes,24.7674627,46.7156193,,,,,,
Unnamed,shop,department_store,24.7671996,46.7157963,,,,,,
Unnamed,shop,optician,24.7685976,46.716086,,,,,,
Unnamed,shop,beauty,24.7679741,46.7160109,,,,,,
Unnamed,shop,beauty,24.7666005,46.715335,,,,,,
Unnamed,shop,beauty,24.7669658,46.7159466,,,,,,
متعب الحارثي للكاميرات,shop,electronics,24.6512754,46.706128,,,,,,
Hazzazi for Shopping هزازي للتسوق,shop,convenience,24.6935515,46.6497152,,Umm Al Hamam St.,0114807333,,,
CPR1,shop,clothes,24.7050373,46.6642016,CPR1,Takhassusi St.,,,Mo-Su 09:00-23:00,
قصر مارينا للاحتفالات,shop,confectionery,24.5350956,46.6492422,,Ali Bin Al Naqeeb,0112966666,,,
Othaim Market اسواق العثيم,shop,supermarket,24.688473,46.6431992,,Prince Nawaf Bin Abdul Aziz,920000702,https://www.othaimmarkets.com/,,
Mawaseem Supermarket اسواق المواسيم,shop,supermarket,24.6893805,46.6490391,,Prince Nawaf Bin Abdul Aziz,,,,
اسواق العثيمين,shop,supermarket,24.5668117,46.5504778,,,,,,
Unnamed,shop,tyres,24.5722167,46.7788544,,,,,,
اسواق النهدي,shop,supermarket,24.5722951,46.7808324,,Arfat,,,,
محلات الاتصالات,shop,mobile_phone,24.5853795,46.7785153,,Al-'Aziziah Road,,,,
وكالة عمر الراشد للدعاية والإعلان,shop,copyshop,24.7611746,46.7971347,,Prince Bandar Ibn Abdulaziz,0534043601,,Sa-Th 09:00-22:00,
طريق التوفير,shop,clothes,24.5965359,46.7400555,,الدائري الحنوبي,,,,
اسواق العثيم,shop,supermarket,24.6012285,46.7481058,,الدائري الحنوبي,,,,
الشامل للاواني المنزلية,shop,supermarket,24.5973722,46.7414481,,,,,,
الشامل للملابس,shop,clothes,24.5979352,46.7421658,,,,,,
الهرم بلازا,shop,clothes,24.5986045,46.7434354,,,,,,
سنتربوينت,shop,clothes,24.5972213,46.7445172,,الدائري الحنوبي,,,,
مدينة الاحذية,shop,shoes,24.598856,46.7442955,,الدائري الحنوبي,,,,
سيتي ماكس,shop,clothes,24.6014323,46.7486065,,الدائري الحنوبي,,,,
Lulu Hypermarket,shop,supermarket,24.7532926,46.8228109,,,,,,
مخبز أحلى حكاية,shop,bakery,24.6479247,46.7067099,,,,,,
Unnamed,shop,supermarket,24.6464175,46.7070876,,,,,,
Shekshack Juice,shop,beverages,24.8146543,46.7984103,,,,,,
Shekshack Juice,shop,beverages,24.7782521,46.7921379,,الشيخ عبد العزيز بن عبد الرحمن بن بشر 0112391900,0112391900,,Mo-Su 14:00-01:30,
بندة السويدي,shop,supermarket,24.5985825,46.6846048,,,,,,
بندتي,shop,supermarket,24.8029202,46.7931445,,,,,,
مغاسل الجبر,shop,laundry,24.8069959,46.7925127,,,,,,
نيو بوي,shop,gift,24.6653753,46.6998151,,طريق الملك فهد,,,,
أسواق فجر المجد,shop,supermarket,24.8036955,46.7941806,,,,,,
Unnamed,shop,shoes,24.8038615,46.7937324,,,,,,
azmi home in askan Riyadh,shop,bookmaker,24.5730353,46.8424115,,,,,,
نيكاي,shop,electronics,24.6518326,46.7064284,,شارع الوشم,,,,
سوق اللحمة,shop,butcher,24.6297466,46.7185974,,,,,,
العمل,shop,convenience,24.6930487,46.7945942,,Abdullah Bin Al Abbas St.,,,,
شركة توكيلات الجزيرة للسيارات,shop,car,24.7997358,46.6460206,شركة توكيلات الجزيرة للسيارات,,+966 92 002 5678,http://www.aljazirahford.com,,
tabu nasim,shop,confectionery,24.7164754,46.834259,,,,,,
dunkin doughnuts,shop,confectionery,24.6489015,46.5568096,,,,,,
اسواق الرجبه,shop,supermarket,24.6485083,46.554464,,,,,,
صيانة الكمبيوتر,shop,hardware,24.5856018,46.777962,,,,,,
INFOFIX FUTURE TECHNOLOGIES,shop,computer,24.6814623,46.815154,,Al Bayan 112445550,0559007533,https://www.infofixksa.com/,Mo-Su 10:00-22:00,
Jeraisy Riyadh House,shop,furniture,24.7211849,46.6681611,,,,,,
بنشر,shop,tyres,24.7569568,46.7728621,,,,,,
مركز المرور للخدمات الإلكترونية,shop,car,24.7374452,46.7998681,,,,,,
هايبر ماركت النهدي,shop,supermarket,24.5486162,46.6490005,,,,,,
مغسلة الجبر للملابس,shop,laundry,24.6694423,46.750677,,,,,,
بنده,shop,supermarket,24.6658098,46.7110666,بنده,,,,,
السالم للزجاج,shop,convenience,24.6304605,46.7393266,,شارع الاربعين ( العنوز ),,,Sa-Th 08:00-23:00,
SJ Supermarket Al Batha,shop,supermarket,24.6457267,46.7183614,,,4037357,,,
مملكة السيارات,shop,car,24.6780617,46.6857521,,Mecca Road,,,,
مغسلة الدمام,shop,laundry,24.6504078,46.7116243,,,,,,
منتجات سورية فلسطينية أردنية,shop,supermarket,24.6761963,46.8020052,منتجات سورية فلسطينية أردنية,,,,,
شركة طوابق العقارية,shop,convenience,24.7960652,46.6554968,,King Abdulaziz Road,011459481,http://www.tawabq.com.sa,Su-Th 09:00-17:00,
Unnamed,shop,hardware,24.7307484,46.8170865,,,,,,
Petromin,shop,car_repair,24.585786,46.691768,,5450,+966 800 442 0020,https://petromin.express/,"Fr 16:00-22:00; Mo-Th,Sa-Su 08:00-23:30",
بنشر,shop,tyres,24.585886,46.691751,,,,,,
Tata service centre Exit 18,shop,car_repair,24.6391408,46.7978898,,,,,,
El Seif Company,shop,outdoor,24.7818687,46.7490627,,خالد ابن الوليد,,https://el-seif.com.sa,Su-Th 08:30-18:00; Sa 09:30-14:30,
T-Shoes,shop,shoes,24.6957554,46.6492176,,,,,,
hazzaz shoping market,shop,department_store,24.6962399,46.6491489,,,,,,
بنده,shop,supermarket,24.6056953,46.7075463,,طريق الملك فهد,,,,
مركز الهرم التجاري,shop,clothes,24.6055753,46.7592054,,,,,,
بنده,shop,supermarket,24.6838282,46.8149994,,شارع الامام الشافعي,,,24/7,
سوق.كوم,shop,supermarket,24.6544316,46.8340767,,,,,,
Unnamed,shop,supermarket,24.6531326,46.7068012,,,,,,
سكن,shop,tyres,24.6348253,46.6964988,,,,,,
العساف,shop,department_store,24.6449344,46.7073756,,,,,,
مشغل,shop,cosmetics,24.6460423,46.7071981,,,,,,
عصائر سما,shop,beverages,24.6484063,46.7065885,,شارع الامير عبدالله بن جلوي بن تركي,,,,
Unnamed,shop,supermarket,24.6456347,46.7073295,,,,,,
باب سريجة,shop,greengrocer,24.6463394,46.7071063,,شارع الامير عبدالله بن جلوي بن تركي,,,,
للتبريد و التكييف,shop,electronics,24.6457184,46.7072952,,,,,,
ساحل السمك,shop,seafood,24.6457979,46.7072721,,شارع الامير عبدالله بن جلوي بن تركي,,,,
Unnamed,shop,confectionery,24.6458856,46.7072495,,شارع الامير عبدالله بن جلوي بن تركي,,,,
Unnamed,shop,clothes,24.6459389,46.7072315,,,,,,
السدحان هايبر ماركت,shop,supermarket,24.6935893,46.7712074,,,,,,
العربية للعود,shop,supermarket,24.7024913,46.7783837,,,,,,
مكتبة جرير,shop,books,24.6917574,46.7661389,,Pr. Met'eb Bin Abdulaziz St.,,https://www.jarir.com/,Sa-Th 09:00-23:00,
Unnamed,shop,laundry,24.6507649,46.7059471,,,,,,
Panda Super Market - Jarir,shop,supermarket,24.6772231,46.7443213,,Fatima Az Zahra Street,,,,
SACO,shop,convenience,24.753674,46.5852823,,,,,,
مكتبة جرير,shop,books,24.7520265,46.5840627,مكتبة جرير,,,https://www.jarir.com/,Sa-Th 09:00-23:00; Fr 16:00-23:00,مكتبة جرير
مؤسسة بريق المصاعد,shop,convenience,24.8368999,46.7654483,مؤسسة بريق المصاعد,طريق الصحابة,0536140396,http://kenanaonline.com/spark787,Sa-Th 16:00-20:00,
Pros Wearhouse,shop,bookmaker,24.6180705,46.8649781,Pros Wearhouse,Abi Ubaida Bin Masood,,,,
Active,shop,cosmetics,24.7835855,46.6828702,,,,,,
متجر الاطارات,shop,car,24.5713315,46.6908071,متجر الاطارات,طريق ديراب,0114233554,,Mo-Su 08:00-23:00,
الدريس,shop,yes,24.6650081,46.8420915,,,,,,الدريس
مستودعات أسواق العثيم,shop,houseware,24.6640234,46.842235,,,,,,أسواق العثيم
العيثيم بالخزان الرياض,shop,copyshop,24.637184,46.6972828,,,,,,
Unnamed,shop,electronics,24.5226297,46.7085333,,Imam Muslim Road 1,0591589039,,,
أسواق التميمي,shop,supermarket,24.80724,46.737201,أسواق التميمي,,,,,
الخليج ستور,shop,confectionery,24.7638089,46.6710836,الخليج ستور,"Exit 5, King Abdulaziz Road - North Ring Road (west) 05",0112147925,,Mo-Su 14:00-23:30,
متجر المستهلك,shop,bakery,24.6253493,46.5533386,متجر المستهلك,الشفا,,,,
Lulu Hypermarket,shop,supermarket,24.6635784,46.7032975,,King Faisal,,,,
Lulu Hypermarket,shop,supermarket,24.663717,46.7033756,,"Prince Faisal Ibn Turki Ibn Abdulaziz, Al Murabba, Riyadh 12612, Saudi Arabia",,,Mo-Su 08:00-23:55,
الزهراني للمطابخ,shop,furniture,24.7308323,46.8233563,الزهراني للمطابخ,Osama Bin Zayed Street,0501542234,,"Sa-Th 08:00-12:00, 16:00-22:00; Fr 16:00-22:00",
أسواق العثيم,shop,supermarket,24.7277192,46.8520857,,Abu Al Aswad Al Doali,92000702,https://www.othaimmarkets.com/,Mo-Su 07:00-02:00,
مكتبة جرير,shop,books,24.8179646,46.6865958,مكتبة جرير,طريق عثمان بن عفان,,https://www.jarir.com/,Sa-Th 09:00-23:00; Fr 16:00-23:00,مكتبة جرير
White castle,shop,bookmaker,24.814891,46.7262773,White castle,,,,,
Unnamed,shop,car_parts,24.5364776,46.8835964,,,,,,
Unnamed,shop,car_parts,24.5365939,46.8834401,,,,,,
مشغل لمسة العنود,shop,beauty,24.7764293,46.7892774,مشغل لمسة العنود,,,,,
ميد,shop,supermarket,24.6446776,46.7054482,ميد,,,,24/7,
اسواق اللحيدان,shop,supermarket,24.5794316,46.7885244,,Nahawand,,,,
المديفر,shop,travel_agency,24.6479545,46.7246387,,,,,,
العزيزية جاليرى,shop,supermarket,24.5904405,46.7669571,,,,,,
مغسلة الدمام,shop,laundry,24.6501968,46.7109399,مغسلة الدمام,شارع الدلم,,,,
Unnamed,shop,computer,24.5477938,46.8685918,,,,,,
Unnamed,shop,greengrocer,24.7310907,46.8071543,,,,,,
Unnamed,shop,copyshop,24.6593588,46.7029841,,,,,,
Mohamed Yousuf Naghi Motors (BMW),shop,car,24.7545767,46.8278537,,,,,,
العاب الحسين,shop,convenience,24.7329389,46.6626692,العاب الحسين,,,,,
Al Salasi Al Taqni (Stainless Steel),shop,bookmaker,24.6370235,46.7479194,,,,,,
SAMACO (Audi and Volkswagen),shop,car,24.7547949,46.8251182,,,,,,
مركز ورق الجدران,shop,convenience,24.7623286,46.7634431,مركز ورق الجدران,,,,,
ابزون,shop,electronics,24.7628094,46.7630625,ابزون,خالد ابن الوليد,,,,
الخزف السعودي,shop,supermarket,24.7591097,46.7652215,الخزف السعودي,,,,,
الفارس,shop,convenience,24.7621805,46.7622752,الفارس,,,,,
المنيع,shop,electronics,24.7621426,46.7630135,المنيع,,,,,
Unnamed,shop,wine,24.5551686,46.592647,,,,,,
الجميح لقطع غيار السيارات,shop,car,24.6265708,46.7410838,,Al Kharj Road,,,,
Unnamed,shop,toys,24.7703662,46.822732,,,,,,
سوبر ماركت جناين,shop,supermarket,24.6899203,46.8525685,سوبر ماركت جناين,,,,,
سكاي مول,shop,clothes,24.6931004,46.8084803,,AlImmam Al-Shafi Street,,,,
الهزاز,shop,clothes,24.6925494,46.8080035,,Sa'ad Bin Abdulrahman Al Awal St.,,,,
مركز اسطنبول التجاري,shop,clothes,24.6936127,46.8085342,,AlImmam Al-Shafi Street,,,,
Ten ten,shop,clothes,24.6374479,46.799106,,,,,,
السدحان,shop,supermarket,24.7015942,46.8027608,السدحان,Al Zubair Bin Al Awam St.,,,,
Airport,shop,beauty,24.9415476,46.7119808,Airport,,,,,
وكيل يوكوهاما,shop,tyres,24.6263471,46.74114,,Al Kharj Road,,,,
اكسترا,shop,electronics,24.6051554,46.7054164,,شارع السويدي العام,,,Mo-Su 08:00-23:00,
الحاج حسين رضا - مازدا,shop,car,24.5920441,46.7035157,,طريق الملك فهد,,,,
الدانة هايبر ماركت,shop,supermarket,24.5783785,46.6638696,,شارع سدير,,,24/7,
ملحمة,shop,supermarket,24.6958746,46.7740433,ملحمة,,,,,
Unnamed,shop,bookmaker,24.5648944,46.7399282,,,,,,
تموينات منيره,shop,supermarket,24.8002464,46.7524092,,jabal ali,,,,
مكتبة خالد الشامان 2,shop,books,24.7351079,46.7712187,,,,,,
Poshak Riyadh,shop,clothes,24.669122,46.709158,,,,,,
Unnamed,shop,travel_agency,24.8158484,46.8224,,,,,,
Unnamed,shop,travel_agency,24.743775,46.6551872,,infront of riyadh galleria,,,,
Unnamed,shop,beauty,24.6418081,46.7082704,,,,,,
الحارثي للكماليات,shop,department_store,24.5831106,46.6611916,,شارع السويدي العام,,,Mo-Su 09:00-23:00,
بن منقاش للعطارة,shop,convenience,24.5832147,46.6613785,,شارع السويدي العام,,,Mo-Su 09:00-23:00,
Mohtasib Kitchen Equipment,shop,bookmaker,24.6473946,46.7124611,,,,,,
Unnamed,shop,hairdresser,24.6572703,46.7063009,,,,,,
Unnamed,shop,books,24.583081,46.657159,,,,,,
سوق الجوالات التخصصي,shop,mobile_phone,24.7085645,46.6630532,سوق الجوالات التخصصي,,,,,
Unnamed,shop,convenience,24.6820787,46.6889468,,,,,,
Unnamed,shop,supermarket,24.6865094,46.6891292,,,,,,
Unnamed,shop,cosmetics,24.6418044,46.7082831,,,,,,
Byrne yard,shop,department_store,24.6303826,46.8665991,,Alsafa,0118108931,https://byrnerental.com/,Su-Th 07:00-17:30,
روابي الكورنيش,shop,supermarket,24.7035242,46.8317348,روابي الكورنيش,,,,24/7,
بالطيف,shop,jewelry,24.6449215,46.7172911,بالطيف,,,,,
Unnamed,shop,clothes,24.5621117,46.7080934,,,,,,
المكان مول,shop,clothes,24.7905537,46.6117659,,,,,,
الحمراء مول,shop,clothes,24.7730515,46.7765946,,,,,,
Unnamed,shop,car,24.7641253,46.6525589,,,,,,
Centrepoint Riyadh Gallery Mall,shop,clothes,24.7438465,46.6584062,Centrepoint Riyadh Gallery Mall,,,,,
BLUEAGE,shop,clothes,24.8087462,46.6688265,بلوايج,,,,,
ماكس,shop,clothes,24.8089577,46.6687088,,,,,,Max
Unnamed,shop,mobile_phone,24.8012628,46.7302844,,,,,,
Kamal's barbershop,shop,hairdresser,24.6974148,46.7043586,,,,,,
Lavida,shop,tobacco,24.7009609,46.7051081,,,,,,
رتيبة,shop,books,24.6120511,46.750504,رتيبة,,,,,
جي مارت,shop,clothes,24.639325,46.7083411,جي مارت,,,,,
Ac Workshop,shop,electronics,24.7884088,46.6187923,,,,,,
ملحمة باب الشهباء,shop,butcher,24.7098488,46.6910546,ملحمة باب الشهباء,,0557760954,,,
اسواق الهرم,shop,jewelry,24.6914583,46.8075406,,,,,,
كارفور,shop,supermarket,24.7712249,46.6688069,,,,,,
Shoe Land,shop,shoes,24.7333217,46.6761047,,,,,,
Fabiano,shop,shoes,24.7333796,46.676279,,,,,,
Skedg,shop,shoes,24.7332816,46.6760296,,,,,,
مكتب عقارات رواسخ المجد,shop,convenience,24.8108836,46.8250684,,,0504197989,,Mo-Su 09:00-22:00,
حلويات الحمود,shop,confectionery,24.738116,46.6611653,,طريق الملك فهد,,,,
أسواق التميمي,shop,supermarket,24.8017148,46.6033261,أسواق التميمي,,,,,
Max shahad center,shop,clothes,24.6281919,46.5354004,Max shahad center,,,,,
Alwashm 123,shop,bakery,24.6645998,46.7317279,,,,,,
Bossini Riyadh Avenue,shop,clothes,24.663824,46.7035965,Bossini Riyadh Avenue,,,,,
Riyadh Gallery,shop,clothes,24.7433817,46.6584529,Riyadh Gallery,طريق الملك فهد,,,,
هيونداي القحطاني,shop,car,24.5759926,46.6046791,,South Ring Road,,,,
التوكيلات العالمية للسيارات,shop,car,24.5729193,46.6084017,,,,,,
مركز الهرم التجاري,shop,clothes,24.571736,46.6107814,,Western Ring Road,,,,
التميمي ملقا,shop,supermarket,24.8016698,46.6033528,التميمي ملقا,,,,,
شارع قاسم بن سعيد,shop,cosmetics,24.6134872,46.6961342,شارع قاسم بن سعيد,,,,,
CPR2,shop,clothes,24.7310604,46.6699682,CPR2,,,,,
Warehouse logistic 4,shop,beverages,24.614682,46.8466532,Warehouse logistic 4,,,,,
Warehouse landmark arabia,shop,beverages,24.6148754,46.8467968,,,,,,
Unnamed,shop,cosmetics,24.6125785,46.7289768,,,,,,
زهرة الرجبة,shop,supermarket,24.5802783,46.6165029,,Al-Fajar,,,,
Rana Warehouse,shop,hardware,24.6441842,46.8919767,Rana Warehouse,,,,,
CPD shifa,shop,clothes,24.5610824,46.6817471,,,,,,
الحضن,shop,jewelry,24.6785675,46.6945704,الحضن,,,,,
وقت العصير,shop,beverages,24.7686227,46.8100078,وقت العصير,,,,,
Pa,shop,beverages,24.8748796,46.6375362,,,,,,
حكايات الشام ( منتجات سورية ),shop,supermarket,24.6385697,46.5591811,حكايات الشام ( منتجات سورية ),,,,,
Unnamed,shop,clothes,24.7287605,46.7830035,,,,,,
Abyat Home Store /ابيات,shop,department_store,24.7678579,46.6613581,,Northern Ring Road,,,,
الصناعية النعيرية,shop,car_repair,24.6393641,46.7425777,الصناعية النعيرية,,,,,
هوم سنتر,shop,convenience,24.731056,46.6704787,هوم سنتر,,,,,
بنشري,shop,tyres,24.6131311,46.694047,بنشري,,,,,
للتبرید والتکیف,shop,electronics,24.8083336,46.5927045,للتبرید والتکیف,شارع الدھنا,0500703589,,Sa-Th 09:00-23:00; Fr 04:00-23:00,
Unnamed,shop,hardware,24.6574965,46.7375844,,,,,,
دواجن العطاس,shop,supermarket,24.6121015,46.7523797,دواجن العطاس,Prince Mashare Bin S'Aud Bin Abdul Aziz 3508,,,,
ورشة ابو فارس لصيانة الرافعات الشوكية,shop,car_repair,24.6386127,46.8053817,,شارع علي المحيميد,,,,
Tamimi Markets,shop,supermarket,24.7460599,46.7756901,,خالد ابن الوليد,,,24/7,
KIA Quick Service WorkShop,shop,car_repair,24.7519724,46.823317,,شارع خريص - Khurais Road,,,Sa-Th 08:00-17:00,
KIA Showroom,shop,car,24.7521865,46.8232295,,شارع خريص - Khurais Road,,,Sa-Th 08:00-17:00,
Hindi,shop,books,24.7958894,46.8853552,,,,,,
دليل الطاقه,shop,electronics,24.7421599,46.7884688,,Hafsa Bint Omar,0553838637,http://www.dleeltaqah.com,Sa-Th 16:00-21:00,
للمستلزمات الرجالية,shop,clothes,24.7332054,46.6630193,للمستلزمات الرجالية,Abdulla Ibn Al Argam St,0596690248,,Sa-Th 09:00-24:00; Fr 16:00-24:00,
Unnamed,shop,mobile_phone,24.7430938,46.7778057,,,,,,
AL-Jabr KIA Showroom Cars,shop,car,24.7521619,46.823266,,شارع خريص - Khurais Road,,,Sa-Th 08:00-17:00,
AL-Jabr KIA Auto Parts/Workshop,shop,car,24.7520333,46.8233572,,,,,Sa-Th 08:00-17:00,
داش لانظمة التحكم,shop,electronics,24.5475432,46.8831502,,Industrial area,,,,
Unnamed,shop,beauty,24.6808939,46.8160195,,,,,,
Unnamed,shop,clothes,24.7482618,46.5711462,,,,,,
FedEx Office,shop,copyshop,24.7279497,46.6634164,,,,,,
Dunkin' Donuts,shop,confectionery,24.9615486,46.7028673,,,,,,
Duty Free,shop,gift,24.9613031,46.7025919,,,,,,
Duty Free,shop,gift,24.960983,46.7026914,,,,,,
Madarek,shop,books,24.9629503,46.7008684,,,,,,
Paul,shop,confectionery,24.9641938,46.7009036,,,,,,
Unnamed,shop,optician,24.9610528,46.7027669,,,,,,
Duty Free,shop,gift,24.9637909,46.7011287,,,,,,
Duty Free,shop,gift,24.9640332,46.7009718,,,,,,
صيانة الاسناد العام,shop,car_repair,24.6989069,46.9028952,,,,,,
DragonMart,shop,department_store,24.6671862,46.7834073,,East Ring Road,,http://www.dragon.sa,Mo-Su 09:00-23:00,
السدحان,shop,supermarket,24.7017967,46.8028472,,,,,,
Grocery Outlet,shop,supermarket,24.8143331,46.6803851,,,,,,
الثلاجة العالمية,shop,supermarket,24.5790342,46.6640875,,شارع سدير,,,Mo-Su 07:00-23:00,
جبل كساب,shop,yes,24.6506934,46.5599084,,,,,,
الشتاء والصيف,shop,electronics,24.7987045,46.7849355,,Al Imam Abdullah Bin Saud Ibn Abdulaziz,,,,
ثلاجة زهرة الفيحاء للمواد الغذائية,shop,supermarket,24.7587102,46.6963403,,Abi Bakr As Siddiq Rd,0114566584,,"Sa-Th 08:00-12:00,16:00-20:00, Fr 13:00-20:00",
Unnamed,shop,supermarket,24.7649431,46.7253338,,Ad Dawa Dami,,,,
غرناطه مول,shop,mall,24.7817924,46.7308063,,طريق الدائري الشرقي,,http://abdulla1666@gmail.com,24/7,
المرجان,shop,department_store,24.7784091,46.6867651,,,,,,
سوبرماركت الرويس,shop,supermarket,24.7823803,46.6843381,,,,,,
فوق الوصف للكماليات,shop,department_store,24.7898772,46.6806042,,,,,,
هنكوك,shop,car_parts,24.7181706,46.8446895,,,,,,
Turkish Barber,shop,hairdresser,24.6928506,46.605908,,,,,Mo-Su 09:00-21:00,
بنشر,shop,tyres,24.7980902,46.7971584,,,,,,
Max Galleria Badiya,shop,clothes,24.5911848,46.6294529,,,,,,
Max Nadeem,shop,clothes,24.8124234,46.8776088,,,,,,
سهل,shop,yes,24.5883391,46.7424113,سهل,,,,,Sahel
الحزم للاتصالات,shop,mobile_phone,24.5765863,46.7667945,,,,,,
barry,shop,bakery,24.7598112,46.6560609,,,,,,
BS4,shop,bakery,24.7157346,46.8005323,,,,,,
اسوق المنور المركزيه,shop,supermarket,24.7421191,46.8408518,,شارع أبي الأسود الدؤلي,,,Mo-Su 01:00-05:00,
Kairali Bakala,shop,convenience,24.674567,46.7445333,,,,,,
Othaim Super Market,shop,supermarket,24.68038,46.7417839,,,,,,
اسواق العادل,shop,supermarket,24.7392629,46.8435468,,شارع أبي الأسود الدؤلي,,,Mo-Su 09:00-00:00,
سنابل السلام للحلويات,shop,confectionery,24.5966917,46.6826113,,,,,,
سوبر ماركت النادي,shop,supermarket,24.5959255,46.6814108,,,,,,
شركة السنيدي للوازم الرحلات,shop,convenience,24.7236278,46.7563563,,طريق الدائري الشرقي,00966506322212,,"Mo-Su 09:00-16:00, 17:00-23:00",
Al Othaim,shop,supermarket,24.7091514,46.666787,,,,,,
مكتبة جرير,shop,books,24.772469,46.6728644,مكتبة جرير,,,,,مكتبة جرير
Noorco,shop,dry_cleaning,24.7755415,46.7086509,,,,,,
Albayan office,shop,hardware,24.6706009,46.7310472,,,,,,
Al Siyari mini market,shop,convenience,24.6531515,46.7396681,,,,,,
Sulay villa,shop,bookmaker,24.6791963,46.8376646,,شارع الكتاب,,,,
مؤسسة القمم للهيدروليك | ALQEMAM HYDRULICS EST,shop,car_parts,24.6268266,46.7644966,,علي بن أبي طالب 7279,00966557790640,https://alqemamhydraulics.business.site/,07:30-18:00,
super market cigerette,shop,greengrocer,24.6301091,46.6907053,,,,,,
اسواق وادي قريش,shop,supermarket,24.5714965,46.769596,,,,,,
Herfy Bakeshop,shop,bakery,24.7603902,46.6561691,,,,,,
Unnamed,shop,department_store,24.7808874,46.7493888,,,,,,
الرماية,shop,yes,24.8026677,46.7165613,,Airport Road 7962,,,,
الرماية,shop,supermarket,24.7819297,46.6361406,,king fahad branch rd 7633,,,,
الرماية,shop,yes,24.752223,46.5842079,,Hitteen Dist. 2211,,,,
حدائق السلطان,shop,garden_centre,24.7522473,46.5843206,,Hitteen Dist. 2211,0114538620,,,
ميد,shop,supermarket,24.6376188,46.6929951,,,,,,
Petromin,shop,car_repair,24.6376211,46.6931496,,,+966 800 442 0020,https://petromin.express/,"Fr 16:00-22:00; Mo-Th,Sa-Su 08:00-23:30",
كهربائي سيارات,shop,car_repair,24.6374619,46.6932658,,,,,,
بنشر,shop,tyres,24.6376233,46.6932257,,,,,,
العربية للطيران,shop,travel_agency,24.689882,46.7234499,,,,,,
سنتر بوينت,shop,department_store,24.6835024,46.7754538,,,,,,
Al Sadhan,shop,supermarket,24.7536306,46.6638366,,,,,,
Asus Service Center,shop,computer,24.6822159,46.6903754,,,,,,
اثاث مستعمل ابو عدي,shop,variety_store,24.7574517,46.7914446,,,00966501417776,http://sadamsalm77@gmail.com,24/7,
أسواق سلة الياسمين,shop,supermarket,24.8163251,46.6237268,,,,,,
أسواق التميمي,shop,supermarket,24.6739627,46.6681107,أسواق التميمي,,,,,أسواق التميمي
كارفور,shop,supermarket,24.7893331,46.7016166,كارفور,,,,,
The Boulevard Riyadh,shop,department_store,24.7511327,46.6126796,,,,,,
تميمي,shop,supermarket,24.8016035,46.6735539,تميمي,,,,,
بنده,shop,supermarket,24.7606463,46.6736585,بنده,,,,,بنده
مجمع مكتبات وقرطاسيات وتصوير وطباعة,shop,stationery,24.7252083,46.6569223,,,,,,
Ain ul mas,shop,bookmaker,24.9081957,46.6045538,,,,,,
Al Amoudi Tire Shop,shop,car_repair,24.6300598,46.735426,,,,,,
Bin Shaihoun Tire shop,shop,car_repair,24.6415738,46.720164,,,,,,
NEXEN Tire shop,shop,car_repair,24.584384,46.6625658,,,,,,
السنيدي للوازم الرحلات,shop,convenience,24.7743534,46.6657261,,,,,,
قمة السلة,shop,supermarket,24.5839757,46.6884966,,,,,,
قهوة الشموخ,shop,department_store,24.5838521,46.6882914,,,00966114257317,,,
مخابز وحلويات طيف نجد,shop,confectionery,24.5842136,46.6865949,,,+966114249338,,,
مخبز تميس,shop,bakery,24.5841894,46.6867839,,,,,,
الدانوب,shop,supermarket,24.7859514,46.7991796,,طريق الملك عبدالله,,,,
نيستو,shop,supermarket,24.6349169,46.7188575,,,,,,
Unnamed,shop,car_repair,24.6026924,46.6264275,,,,,,
أسواق النماري للتسويق الغذائي,shop,supermarket,24.6010319,46.6141936,,,,,,
وكالة الخلف للسفر والسياحة,shop,travel_agency,24.6011654,46.6153165,,,,,,
Perfume,shop,beauty,24.735378,46.6472859,,طريق التخصصي,,,Mo-Su 16:00-00:00,
Unnamed,shop,massage,24.6533895,46.5744942,,,,,,
Unnamed,shop,convenience,24.6533935,46.5742422,,,,,,
شاي اليوم,shop,tea,24.6531446,46.5861,,,,,,
مشغل بريق الجوهرة للتزيين النسائي,shop,hairdresser,24.6531982,46.5838413,,,,,,
Unnamed,shop,car_repair,24.6530936,46.5736263,,,,,,
مخملي للخياطة الرجالية,shop,tailor,24.6533909,46.57454,,,,,,
مغاسل,shop,laundry,24.653393,46.5745983,,,,,,
Nakheel Mall,shop,department_store,24.7680896,46.7149779,,,,,,
Unnamed,shop,laundry,24.6532853,46.579797,,,,,,
مورد المنتجات الغذائية,shop,variety_store,24.8048418,46.6245594,,طريق الملك فهد الفرعي,+966 50 512 6477,http://retabdates.blogspot.com,,
خياط السفينة,shop,tailor,24.6009054,46.614933,,,,,,
Supermarket DQ,shop,supermarket,24.6855914,46.6250238,,,,,,
Unnamed,shop,supermarket,24.7043104,46.6780309,,,,,,
Al Othaim Supermarkt,shop,supermarket,24.7556136,46.6629356,,,,,,
ريتشي,shop,clothes,24.6986718,46.6878626,,شارع التحلية,,,"Mo-Su 09:30-10:00, 11:00-12:00",
Xcite Electronics,shop,electronics,24.7742632,46.6772747,,,,,,
مكتبة جرير,shop,books,24.7747649,46.6818183,مكتبة جرير,,,,,مكتبة جرير
ورشة شروق النسيم لصيانة السيارات,shop,car_repair,24.7083314,46.8505216,,طريق طلحة بن عبيدالله,,,24/7,
هايبر بنده,shop,supermarket,24.6641348,46.6822446,,,,,,
بنده,shop,supermarket,24.6766277,46.6770045,بنده,,,https://panda.com.sa,"Sa-Th 04:00-03:00, Fr 04:00-11:30,12:30-03:00",بنده
بنده,shop,supermarket,24.679916,46.6528861,بنده,,,,,بنده
هايبر بنده,shop,supermarket,24.7025633,46.6520761,,,,,,
هايبر بنده,shop,supermarket,24.7028869,46.7712305,,,920027707,,24/7,
هايبر بنده,shop,supermarket,24.6579977,46.7827318,,,,,,
بنده,shop,supermarket,24.6040111,46.6508208,بنده,,,,,بنده
هايبر بنده,shop,supermarket,24.5584707,46.6373722,,,,,,
هايبر بنده,shop,supermarket,24.5364316,46.6564695,,,,,,
بنده,shop,supermarket,24.7373008,46.7967115,بنده,,,,,بنده
بنده,shop,supermarket,24.7901315,46.7654262,بنده,,,,,بنده
هايبر بنده,shop,supermarket,24.7989626,46.8144399,,,,,,
هايبر بنده,shop,supermarket,24.7420186,46.6584059,,,,,,
هايبر بنده,shop,supermarket,24.7529639,46.5855045,,,,,,
مجموعة المتبولي المتحدة,shop,appliance,24.6816811,46.6967382,,,,,"Su-Th 09:30-11:30 ,16:30-21:30; Fr OFF",
Unnamed,shop,convenience,24.7325483,46.6777924,,,,,,
سالم للحلويات,shop,supermarket,24.6122412,46.7393636,,,,,,
Lulu Hypermarket,shop,supermarket,24.8178061,46.6653125,,,,,,
الاناناسة الذهبية,shop,clothes,24.8140665,46.6456485,,,,,,
SPAR Supermarket,shop,supermarket,24.7852561,46.6339347,,,,,,
Flower Shop,shop,florist,24.7348418,46.6974471,,,,,,
Mini Market,shop,convenience,24.7347638,46.6967014,,,,,,
Alshigeri Book store,shop,books,24.734033,46.6973183,,,,,,
bakery123,shop,bakery,24.8583155,46.5936374,,G 123,,,,
altamimi supermarket,shop,supermarket,24.8634084,46.589112,,yanbu 53,,altamimmarket.com,,
supermarket,shop,supermarket,24.8582814,46.5933678,,F 1234,,,,
روائع المنزل,shop,yes,24.7746839,46.6655127,,طريق الملك عبدالعزيز,,,,
المركز الدولي للقرطاسية,shop,books,24.6880852,46.7650713,,,,,,
أرزاق القصيم تموينات وخضروات وفواكه,shop,yes,24.6873218,46.7653641,,,,,,
ملحمة مراعي القصيم,shop,butcher,24.6841692,46.7671792,,,,,,
ملحمة براري القصيم,shop,butcher,24.6843359,46.7666469,,,,,,
ملحمة,shop,butcher,24.6840464,46.7667421,,,,,,
ملحمة نجد الحديثة,shop,butcher,24.684445,46.7670082,,,,,,
الفرسان الرحاله,shop,travel_agency,24.6447426,46.7150143,,البطحاء، ا8444 عبدالعزيز الثميري - حي الفوطة 12632,00966547307437,,,
أسواق هلا,shop,supermarket,24.8966388,46.9080388,,,,,,
لوازم البراري للرحلات,shop,convenience,24.781086,46.6361378,,,,,,
دار موجه garmin,shop,electronics,24.7239913,46.7561573,,,,,,
صدى العامه,shop,electronics,24.7239221,46.7561917,,,,,,
Unnamed,shop,supermarket,24.6294253,46.7122111,,,,,,
بنده,shop,supermarket,24.80849,46.6691939,بنده,,,,,بنده
اسواق زاد,shop,supermarket,25.0751,46.7123,,,,,,
مؤسسة منزل الأحلام للمغاسل,shop,convenience,24.8423,46.7914,,,,,,
اليرموك سنتر,shop,convenience,24.81683,46.78205,,,,,,
Post Coffe,shop,coffee,24.7909548,46.7008763,,,,Www.postcaffe.com,Mo-Fr 16:00-23:30,
عذق الجزيرة,shop,convenience,24.7331238,46.7742679,,,,,,
المنار مول,shop,mall,24.7252799,46.8144691,,,,,,
Forever Rose London,shop,florist,24.7316614,46.6476872,,,+966 11 454 4550;+966 53 579 4444,https://www.myforeverrose.com/,"Fr 15:00-23:00;Mo-Th,Sa-Su 10:00-23:00",
Spar,shop,supermarket,24.6358179,46.7244718,,,,,Mo-Su 09:00-23:00,Spar
latifa supermarket,shop,supermarket,24.6366686,46.7119427,,,,,,
latifa bakery ,shop,bakery,24.636899,46.712278,,,,,,
Gurabi RAM back,shop,car_parts,24.6467553,46.7198501,,,,,,
الصياد العربي للبنادق الهوائية,shop,weapons,24.704817,46.7680078,,,,,,
الرميح للبنادق الهوائية,shop,weapons,24.6606368,46.7404983,,,,,,
رجال البرية للبنادق الهوائيه ولوازم الصيد و الرحلات,shop,weapons,24.5679298,46.6216088,,,,,,
رماي نجد للبنادق,shop,weapons,24.8007514,46.6307241,,,,,,
صاب لبنادق الصيد و لوازم الرحلات,shop,weapons,24.7405058,46.810166,,,,,,
صاب للبنادق الهوائية,shop,weapons,24.7503334,46.7650494,,,,,,
الرميح للبنادق الهوائيه,shop,weapons,24.6294176,46.7119453,,,,,,
الرماية لتجهيزات الصيد والرحلات,shop,convenience,24.6013964,46.6454499,,,,,,
الآفاق العالمية لصيانة الاسلحة النارية,shop,weapons,24.5353011,46.6650925,,,,,,
الهدف للوازم الصيد,shop,weapons,24.571581,46.6698617,,,,,,
صيانة أسلحة,shop,weapons,24.6042822,46.6202585,,,,,,
شركة الهدف للوازم الصيد والرحلات,shop,convenience,24.6814803,46.6773631,,,,,,
الرماية لتجهيزات الصيد والرحلات,shop,yes,24.7554405,46.7416236,,,,,,
الرماية لتجهيزات الصيد والرحلات,shop,yes,24.6935045,46.8118671,,,,,,
Unnamed,shop,car_repair,24.6585071,46.8100069,,,,,,
Spar,shop,supermarket,24.8637915,46.7232032,,,,,,Spar
القيسي للمواد الغذائية,shop,supermarket,24.8037338,46.7747359,القيسي للمواد الغذائية,محمد علي جناح,0112404466,,,
سنابل السلام,shop,confectionery,24.8216,46.8004,,,,,,
مشغل منتجع الجمال Bella Cure,shop,beauty,24.8115451,46.6263834,,,,,,
مؤسسة إبداع العزل للمقاولات,shop,trade,24.8117071,46.6267524,,,,,,
مؤسسة صدى الأرياف للتجارة,shop,trade,24.811731,46.626814,,,,,,
شركة الراجحي للبناء والتعمير,shop,trade,24.81176,46.6268794,,,,,,
الفياض للإنارة والكهرباء,shop,lighting,24.8118193,46.6269955,,,,,,
صيدلية الدواء,shop,chemist,24.8118561,46.6270867,,,,,,
العجلان للكهرباء والإنارة,shop,lighting,24.8120179,46.6274535,,,,,,
عبدالله العمار;مؤسسة مساعد بن محمد العجلان,shop,trade,24.8120513,46.6275337,,,,,,
فايف سيزون للنظارات,shop,optician,24.8120806,46.627614,,,,,,
عنوان الإضاءة,shop,lighting,24.8121041,46.6276697,,,,,,
الصولان للإنارة والكهرباء,shop,lighting,24.8121261,46.6277247,,,,,,
ورد الرياض,shop,florist,24.8122399,46.6279854,,,,,,
البنايات لمواد البناء,shop,trade,24.8122786,46.6280669,,,,,,
مؤسسة التوريد الفوري للتجارة,shop,trade,24.8123173,46.6281616,,,,,,
زعيم الإنارة,shop,lighting,24.8123578,46.6282516,,,,,,
جنيه Genneh,shop,bakery,24.8123866,46.6283359,,,,,,
لقيمات بثينة,shop,bakery,24.8124694,46.6285245,,,,,,
شيخ الإنارة,shop,lighting,24.8125626,46.6287366,,,,,,
مؤسسة دار قرطاجة,shop,lighting,24.8125823,46.6287889,,,,,,
إضاءة المنزل,shop,lighting,24.8126426,46.6289306,,,,,,
لمسات الدار,shop,houseware,24.8126654,46.6289825,,,,,,
شوكولاتة لور L'or,shop,chocolate,24.8126836,46.6290223,,,,,,
مؤسسة مقهى النور للمقاولات,shop,trade,24.812753,46.6291967,,,,,,
نظارات البركات,shop,optician,24.8128153,46.629369,,,,,,
حلويات سعد الدين,shop,pastry,24.8128418,46.629431,,,,,,
كنفندي,shop,pastry,24.8128702,46.6294939,,,,,,
سيدرا,shop,chocolate,24.8128903,46.6295477,,,,,,
نظارات المدينة,shop,optician,24.8129158,46.629604,,,,,,
تاوه,shop,chocolate,24.8129426,46.629672,,,,,,
اني وداني,shop,chocolate,24.8129701,46.629727,,,,,,
شوكولاته المملكة,shop,chocolate,24.8130754,46.6299936,,,,,,
سلة البساتين,shop,supermarket,24.8131337,46.6301349,,,,,,
مجموعة أعمال المرسلات,shop,lighting,24.8132959,46.6305041,,,,,,
نظارات رمش عيون,shop,optician,24.8133181,46.6305645,,,,,,
أفران الحطب,shop,pastry,24.8133981,46.6307316,,,,,,
دهانات الجزيرة,shop,paint,24.8134639,46.6309239,,,,,,
مؤسسة رأس الإنجاز للمفاولات,shop,trade,24.8134868,46.6309706,,,,,,
مظلات فواز عبيد العتيبي,shop,trade,24.8135027,46.6310109,,,,,,
السويلم للعود,shop,perfumery,24.8135228,46.6310576,,,,,,
لومار,shop,window_blind,24.8136391,46.6316898,,,,,,
ستايل;صيدلية فيتامين,shop,window_blind;chemist,24.8136673,46.631757,,,,,,
الجربوع للإنارة,shop,lighting,24.8137109,46.6318532,,,,,,
أفضل مائة,shop,houseware,24.8139437,46.6320683,,,,,,
البلح الذهبي,shop,chocolate,24.8139768,46.632138,,,,,,
السيف غاليري,shop,houseware,24.8143098,46.633287,,,,,,
باجة,shop,yes,24.8149156,46.6347874,,,,,,
اتسي بتسي بيبي,shop,baby_goods,24.8149864,46.634954,,,,,,
أجمل أزياء,shop,clothes,24.8150191,46.6350347,,,,,,
سبورت لووك,shop,sports,24.815055,46.6351115,,,,,,
ميني قود,shop,houseware,24.81508,46.6351857,,,,,,
استديوم,shop,clothes,24.8151439,46.6353185,,,,,,
فلورشايم,shop,shoes,24.815254,46.6355875,,,,,,
حلويات العكر,shop,chocolate,24.8153885,46.6358996,,,,,,
باتشي,shop,chocolate,24.815413,46.6359588,,,,,,
سليب هاي,shop,bed,24.8159238,46.6367797,,,,,,
مؤسسة عصام قباني وشركاؤه,shop,trade,24.8159622,46.6368717,,,,,,
سانيه,shop,clothes,24.8164745,46.63871,,,,,,
سيراميك الجودة,shop,tiles,24.8175705,46.6406856,,,,,,
مركز تجميل,shop,beauty,24.8179618,46.6419424,,,,,,
رواد الراحة والاسترخاء,shop,massage,24.8180074,46.6420562,,,,,,
عصيرات فن الأفوكادو,shop,beverages,24.8181756,46.642107,,,,,,
بسبوستي الذهبية,shop,pastry,24.8182947,46.6423876,,,,,,
تموينات شعاع العنزي,shop,convenience,24.8183626,46.6425605,,,,,,
وقت العصير,shop,beverages,24.8185255,46.6429648,,,,,,
3M,shop,window_blind,24.8185187,46.6434809,,,,,,
سوليكس,shop,massage,24.8182625,46.6436297,,,,,,
سن جارد,shop,window_blind,24.8181707,46.6436848,,,,,,
كوب,shop,trade,24.8179709,46.6437804,,,,,,
تألق حواء,shop,beauty,24.8179115,46.6438121,,,,,,
مركز الجسم الرياضي,shop,massage,24.817818,46.6438507,,,,,,
أبناء حمد العباد للتجارة والمقاولات,shop,trade,24.8155273,46.6449837,,,,,,
لزوف,shop,car_repair,24.8148985,46.6453853,,,,,,
الدحيم للحديد,shop,trade,24.8141562,46.6456894,,,,,,
الأناناسة الذهبية,shop,houseware,24.8139671,46.6457985,,,,,,
أزياء نوري,shop,clothes,24.8143813,46.6455344,,,,,,
زيتية,shop,art,24.8138745,46.6458409,,,,,,
ED Salon Hair & Nails,shop,beauty,24.8134722,46.6459021,,King Abdul Aziz Road,+966 53 550 5223,https://edsalon.com,,
لافا كيك,shop,pastry,24.8132674,46.6460084,,,,,,
بيكري بورتال,shop,pastry,24.8128289,46.6462281,,,,,,
مشغل تولب,shop,beauty,24.812606,46.6463344,,,,,,
مشغل فيدافت,shop,beauty,24.8124765,46.6463957,,,,,,
الراحة البديلة للوجبات الصحية,shop,health_food,24.8121138,46.6466311,,,,,,
عبدالصمد القرشي,shop,perfumery,24.8119572,46.6462126,,,,,,
كروكس,shop,shoes,24.811934,46.646156,,,,,,
أسواق المزرعة,shop,supermarket,24.8116313,46.646003,,,,,,
رطاب الوطن للتمور,shop,chocolate,24.8115535,46.6460425,,,,,,
قطوف وحلا,shop,chocolate,24.8114809,46.6460805,,,,,,
مراتب سيلي,shop,bed,24.8112285,46.647035,,,,,,
لبون,shop,butcher,24.8110602,46.6471197,,,,,,
مراتب سليب نايس,shop,bed,24.8109685,46.6471593,,,,,,
ارام للتزيين النسائي,shop,beauty,24.8105417,46.6474126,,,,,,
جبورية,shop,chocolate,24.8104834,46.6474452,,,,,,
اليحيان,shop,doors,24.8101824,46.647574,,,,,,
تميز الدوق للأثاث,shop,furniture,24.810117,46.6475978,,,,,,
دايت سنتر,shop,health_food,24.8100575,46.6476353,,,,,,
ميدان الفوارس,shop,coffee,24.8099863,46.6476685,,,,,,
السيف,shop,doors,24.8099311,46.6476967,,,,,,
نرجس الجزيرة,shop,doors,24.8098789,46.6477218,,,,,,
شركة القوزان,shop,doors,24.8098309,46.6477471,,,,,,
شركة اليمامة,shop,doors,24.8097797,46.647776,,,,,,
فنون وألوان,shop,interior_decoration,24.8089023,46.6483297,,,,,,
أثاث المجالس,shop,furniture,24.8088342,46.648368,,,,,,
الجبلي للأبواب,shop,doors,24.8087076,46.6484368,,,,,,
كيباب للأبواب,shop,doors,24.8086765,46.6484537,,,,,,
كيباب للأبواب,shop,doors,24.8086296,46.6484782,,,,,,
علم المعادن,shop,doors,24.8085905,46.6484975,,,,,,
حصن المسافر,shop,travel_agency,24.8085446,46.6485149,,,,,,
على كيفك,shop,houseware,24.8080995,46.648614,,,,,,
لقينات ماما نورة,shop,pastry,24.8076419,46.64885,,,,,,
باسل,shop,furniture,24.8075987,46.6488805,,,,,,
الكيف الراقي,shop,yes,24.8075011,46.6489324,,,,,,
ترافل ستار,shop,bag,24.8074391,46.6489597,,,,,,
حلويات جرير,shop,pastry,24.8069506,46.6491899,,,,,,
متجر كيدي,shop,baby_goods,24.8068694,46.6492333,,,,,,
ليتشي,shop,beauty,24.8068079,46.6492799,,,,,,
أرت فرنتشر,shop,furniture,24.8043368,46.650405,,,,,,
الرقيب,shop,furniture,24.8039976,46.6506364,,,,,,
نور غاليري,shop,furniture,24.8032369,46.6511817,,,,,,
كيلك روم,shop,furniture,24.8028993,46.6509733,,,,,,
ثمار العقيلات,shop,supermarket,24.8025879,46.6501502,,,,,,
ركن الجاذبية,shop,tailor,24.8019437,46.6490045,,,,,,
اوربان هيلث,shop,health_food,24.8018755,46.6488481,,,,,,
تركي للحفلات,shop,party,24.8016188,46.6482436,,,,,,
دولي للسفر والسياحة,shop,travel_agency,24.8016012,46.6481937,,,,,,
فروتا,shop,beverages,24.8015814,46.6481444,,,,,,
هدوء الشرق,shop,massage,24.8014386,46.6478091,,,,,,
صيدلية الدواء,shop,chemist,24.8012562,46.6473649,,,,,,
رسن للخياطة الرجالية,shop,tailor,24.7996241,46.6434848,,,,,,
تفصيل وخياطة بشوت وعقل,shop,tailor,24.7995962,46.6434115,,,,,,
القائم الأول للديكور,shop,interior_decoration,24.7995633,46.6433352,,,,,,
نجمة الفنادق,shop,bed,24.7995427,46.6432728,,,,,,
تقنيات الدهان جوتن,shop,paint,24.799508,46.6432187,,,,,,
تقنيات الدهان لأدوات ومعدات السلامة,shop,tool_hire,24.7994892,46.6431682,,,,,,
صيدلية عمار,shop,chemist,24.7994569,46.6431054,,,,,,
بلان للخياطة الرجالية,shop,tailor,24.7989206,46.6418638,,,,,,
هزاز,shop,houseware,24.7988927,46.6414231,,,,,,
العليا للخياطة الرجالية,shop,tailor,24.7953564,46.6334796,,,,,,
قهوة الشموخ,shop,coffee,24.7953187,46.6351482,,,,,,
صيدلية النهدي,shop,chemist,24.796551,46.6381061,,,,,,
أسواق ومخابز درة العقيق,shop,supermarket,24.796747,46.638564,,,,,,
العربية للعود,shop,perfumery,24.7981127,46.6420988,,,,,,
محمصة الرفاعي,shop,yes,24.7980619,46.642131,,,,,,
جزر العود,shop,perfumery,24.7980135,46.6421577,,,,,,
زهور الريف,shop,perfumery,24.797953,46.6421871,,,,,,
بنده,shop,supermarket,24.7978847,46.6422257,,,,,,
نخبة العود,shop,perfumery,24.7977907,46.6421461,,,,,,
بيوتي سكريتس,shop,beauty,24.7977706,46.6420955,,,,,,
حكيم عيون,shop,optician,24.7977488,46.6420433,,,,,,
ذا بودي شوب,shop,beauty,24.7977292,46.6419933,,,,,,
لذائذ الفاكهة,shop,greengrocer,24.797709,46.641946,,,,,,
بيت الكنفاني,shop,pastry,24.7976871,46.6418942,,,,,,
درعة للعطور,shop,perfumery,24.7976488,46.6417976,,,,,,
العسل البري,shop,yes,24.7976119,46.6417031,,,,,,
مؤسسة الأفق الرحب,shop,mobile_phone,24.7975797,46.6416164,,,,,,
خفيف,shop,yes,24.7975627,46.6415741,,,,,,
ورد الشوق,shop,florist,24.797545,46.6415304,,,,,,
تورتا,shop,pastry,24.7975265,46.6414858,,,,,,
٣٧ درجة,shop,chemist,24.797598,46.6413915,,,,,,
صيدلية الماسي,shop,chemist,24.7985724,46.6432203,,,,,,
ماكس برو,shop,window_blind,24.7994305,46.6451434,,,,,,
أفلام النانو سيراميك,shop,window_blind,24.7994694,46.6452391,,,,,,
مؤسسة عمار النعيم للسيارات,shop,window_blind,24.7995044,46.6453223,,,,,,
أوتوفال,shop,window_blind,24.7995356,46.6454201,,,,,,
توكيلات الجزيرة فورد,shop,car,24.7997458,46.6457397,,,,,,
توكيلات الجزيرة فورد صيانة,shop,car,24.7998981,46.6461329,,,,,,
تودو,shop,houseware,24.8002833,46.646876,,,,,,
جول,shop,beauty,24.8005045,46.6478121,,,,,,
أسواق الأسرة,shop,supermarket,24.8007952,46.6485411,,,,,,
النخلة,shop,supermarket,24.7978975,46.6509684,,,,,,
صيدلية الدواء,shop,chemist,24.7965409,46.6504989,,,,,,
صالون المليحة,shop,beauty,24.7964778,46.6504663,,,,,,
جمالك السعودي,shop,beauty,24.7932967,46.6491873,,,,,,
كويك كتس,shop,hairdresser,24.7932275,46.6491529,,,,,,
بيفونا,shop,clothes,24.7929202,46.6490122,,,,,,
بيق داي,shop,party,24.7928448,46.6489788,,,,,,
بيانيست,shop,chocolate,24.7927786,46.6489528,,,,,,
مراوي بوتيك,shop,clothes,24.7927075,46.6489189,,,,,,
زهور إيفنتو,shop,florist,24.7926365,46.6488888,,,,,,
عطور بالزيم الخاصة,shop,perfumery,24.7925734,46.6488589,,,,,,
مو اند سارة,shop,chocolate,24.7925102,46.6488287,,,,,,
دانة الإبداع للفن والديكور,shop,interior_decoration,24.7924514,46.6488038,,,,,,
Xtreme gain,shop,health_food,24.7325789,46.7651271,,الحسن بن علي,+966563331061,,Sa-We 13:00-00:30; Th-Fr 14:00-1:30,Xtreme gain
مؤسسة عبد الله راشد المعدي للنقليات,shop,car_repair,24.549873,46.7891695,,No. 18 4010,,,Mo-Su 09:00-18:00,
Unnamed,shop,yes,24.6867077,46.6989314,,,,,,
لولو هايبر ماركت ذا رووف,shop,supermarket,24.8176523,46.6651417,,,,,,
ملحمه مراعي المستوي,shop,butcher,24.7175228,46.7907374,,الامام الشافعي 14212,,,,
G-Aim Gaming Center,shop,video_games,24.8048907,46.6936696,,,,,,
SE7EN CARE,shop,car_repair,24.7713331,46.6225447,,,,,,
Hebro roasters And cafe,shop,coffee,24.7991481,46.5955389,,Anas Bin Malek Street,059772875,https://hebro.co/,Su-Th 07:00-00:00; Fr-Sa 13:00-00:00,
سوق الشمال,shop,greengrocer,24.7581553,46.6661866,,,,,,
أسواق البركه,shop,supermarket,24.55148,46.5137278,,عثمان بن صدقه,,,,
تموينات,shop,supermarket,24.7793405,46.7708378,,,,,,
اسواق ومخابز الجعيدي,shop,supermarket,24.7506111,46.7801673,,الأمير بندر بن عبدالعزيز,0501918881,,24/7,
TOPUP,shop,supermarket,24.6944919,46.7719957,,,,,,
ثلاجه ارزام,shop,greengrocer,24.539823,46.771953,,رقم 5 10,0506281994,,24/7,
ثلاجة بوبا العالميه,shop,greengrocer,24.5394934,46.7830138,,رقم 42 1,0561556966,,Mo-Su 07:00-17:00,
سلالات القهوة_sulalat coffe,shop,coffee,24.7054497,46.7483435,,طريق مكة المكرمة الفرعي,,https://sulalat.com/,Mo-Su 06:30-12:00,
SUNTECH BUSINESS SOLUTIONS,shop,computer,24.660067,46.736651,,,+966 11 292 7150;+966 53 609 6221,https://www.suntech-global.com/,"Fr 15:00-19:00;Mo-Th,Sa-Su 10:00-19:00",
مركز سبأ الخليج للمساج,shop,massage,24.6488438,46.5554297,,Al Taief 4414,+966530667689,,Mo-Su 09:00-21:00,
باور جينز,shop,clothes,24.6320423,46.5371617,,Tabuk 11564,+966550800197,https://youth-clothing-store-983.business.site/,Mo-Su 11:00-23:00,
الشبكة الذهبية للاتصالات,shop,supermarket,24.5673107,46.5421594,,سليمان بن عبدالملك بن مروان 2771,00966500359014,,Mo-Su 09:00-23:00,
بين ابوعبيد,shop,variety_store,24.8679869,46.6478408,,,,,,
دروب البرية,shop,outdoor,24.8369999,46.6870155,,أنس بن مالك,,حي النرجس,,
كل شيء بخمسة ريال,shop,department_store,24.6532905,46.5777905,,,,,,
اسواق تلة الوادي,shop,supermarket,24.8034819,46.728849,,رباع,,,24/7,
خرائط ودروب,shop,car_parts,24.6871577,46.7953411,,هارون الرشيد,0534018197,https://www.drbk.com/,,
صالون وسم الجمال للتزيين النسائي,shop,hairdresser,24.8131821,46.6471007,,طريق الملك عبدالعزيز 7717,00966534230474,https://wasm-aljamal-salon.business.site/?utm_source=gmb&utm_medium=referral,We-Mo 14:00-22:00,Schwarzkopf; Revlon; Makeup For Ever
قهوتكم | Qahwatcom,shop,supermarket,24.8303913,46.7471885,,,,https://qahwatcom.com/,,
Dunkin Donut,shop,bakery,24.7053132,46.6773522,,رقم 78,,,,
SPEX optical سبيكس للبصريات,shop,optician,24.7951023,46.6987872,,Othman Bin Affan Rd 13313,920008123,https://www.spexoptics.com/,Mo-Su 14:00-22:30,SPEX optical
Al Hamra Square - الحمراء سكوير,shop,mall,24.7665277,46.7545927,,الملك عبدالله,+966550000455,,,
شركة الأولى لمسابح الفيبرجلاس,shop,water_sports,24.7881112,46.7033091,شركة الأولى لمسابح الفيبرجلاس,عثمان بن عفان,+966920027273,https://qp.com.sa/,,
رديترات ابو المجد,shop,car_repair,24.7143286,46.8511597,,طريف,0577010237,,,
سبار,shop,supermarket,24.7628865,46.7450193,,,,,,
بقالة مشعل العتيبي,shop,convenience,24.6309805,46.5307507,,Al Nasseriya 123,+966501542506,,Mo-Su 09:00-22:00,
نباتاتي,shop,garden_centre,24.7999789,46.6746341,,,+966599913336,https://nabataty.com/,Mo-Su 09:00-21:00,
Munch Bakery | منش بيكري,shop,bakery,24.7631094,46.7453125,,,+966 920015010,www.MunchBakery.com,Mo-Su 10:00-22:00,
Munch Bakery | منش بيكري,shop,bakery,24.8153461,46.7774232,,,+966 920015010,www.MunchBakery.com,Mo-Su 10:00-22:00,
Munch Bakery | منش بيكري,shop,bakery,24.8245767,46.6578305,,,+966 920015010,www.MunchBakery.com,Mo-Su 10:00-22:00,
Munch Bakery | منش بيكري,shop,bakery,24.700969,46.6919529,,,+966 920015010,www.MunchBakery.com,Mo-Su 10:00-22:00,
Munch Bakery | منش بيكري,shop,bakery,24.7342202,46.6490157,,,+966 920015010,www.MunchBakery.com,Mo-Su 10:00-22:00,
Munch Bakery | منش بيكري,shop,bakery,24.7759499,46.7094477,,,+966 920015010,www.MunchBakery.com,Mo-Su 10:00-22:00,
ميد,shop,convenience,24.5959186,46.6192333,ميد,,,,,شركة ميد التجارية
فورقفت,shop,gift,24.5819252,46.6585546,,السويدي العام 6078,0550100094,,,
My secrets spa,shop,cosmetics,24.8047071,46.7385806,,رضوي,,,24/7,
Beauty Box,shop,cosmetics,24.7450191,46.7034273,,الملك عبدالله 8,+966534266333,https://bpb.com.sa/,Mo-Su 15:00-23:00,
كارفور,shop,supermarket,24.7574838,46.6281934,,,,,,
قمة الرياضة,shop,sports,24.7568138,46.6597931,,,,https://topsport.one/,Mo-Su 16:00-23:40,
مخازن العناية,shop,cosmetics,24.7924597,46.6564446,,,,,,
برادايس,shop,bakery,24.7871594,46.6473766,,,,,,
تموينات شماشم,shop,supermarket,24.7896746,46.6515394,,,,,,
مخبز,shop,bakery,24.7899932,46.6516319,,,,,,
للإلكترونيات,shop,electronics,24.7921771,46.6530087,,,,,,
البنفسج,shop,florist,24.7914655,46.6517029,,,,,,
Aljabr Laundry,shop,laundry,24.7915528,46.6517418,مغسلة الجبر,,920018880,,,
Tamimi Markets,shop,supermarket,24.6944121,46.6069362,,,,https://www.tamimimarkets.com/,24/7,
Unnamed,shop,tyres,24.6900452,46.5876855,,,,,,
Unnamed,shop,convenience,24.6944217,46.5957762,,,,,,
Chi تشآي,shop,tea,24.7869857,46.7028496,,عثمان بن عفان,+966591784814,,Mo-Fr 09:00-15:00,
سمنان لحلول المياه - فرع الأمانه,shop,حلول_مياه,24.8673015,46.6414865,,طريق أبي بكر الصديق,0539462617,https://www.samnanonline.com/,Mo-Sa 08:00-20:00,
Unnamed,shop,laundry,24.6354705,46.5636676,,,,,,
Desert Mingle,shop,pet_grooming,24.7339924,46.7699073,,عبادة بن الصامت 3475,+966595767165,https://www.desertmingle.com/,Su-Fr 07:30-19:30,
أسواق التميمي,shop,supermarket,24.757755,46.7125967,أسواق التميمي,,+966 800 303 0010,https://www.tamimimarkets.com/,,أسواق التميمي
مانويل ماركت,shop,supermarket,24.7594324,46.7157118,,,,https://www.manuelsupermarket.com/,,
X-cite,shop,electronics,24.7925478,46.7447585,,,,https://www.xcite.com.sa/,,
اكسيت,shop,electronics,24.7925042,46.7446658,,,,https://www.xcite.com.sa/,Mo-Su 10:00-23:00,
قطرة مقهى,shop,coffee,24.7728828,46.6891083,,"7335 Abi Baker As Siddiq, At Taawun, Riyadh 12477",,,,
دانكن دونتس,shop,coffee,24.7805091,46.739769,,"Ghirnatah, Riyadh 13241",,http://www.dunkindonuts.sa/English/Pages/default.aspx,,
ساكوا,shop,hardware,24.7715858,46.7569676,,"Khalid Ibn Al Walid St, Al Hamra, Riyadh 11564",,SACO.sa,Mo-Su 10:00-23:00,
مركز صيانة توكيلات الجزيرة,shop,car_repair,24.8042899,46.7378491,,"Radwa, Qurtubah, Riyadh 13244",,,"Mo-Th, Sa, Su 07:00-17:00",
Unnamed,shop,convenience,24.8036981,46.7201475,,,,,,
رتل للدراجات النارية,shop,motorcycle,24.6895101,46.8553934,,اسماعيل بن مسلم,+966504506341,,Mo-Sa 09:00-20:00,RTL
بوفية تسالي للوجبات السريعة,shop,supermarket,24.7990633,46.7314603,,,,,,
مغسلة الؤلو الفريد,shop,laundry,24.7990533,46.731401,,,,,,
صالون باي ألف للتزيين النسائي,shop,beauty,24.7992072,46.7313615,,,,,,
حلاق سارة محمد عوض القحطاني,shop,beauty,24.8019336,46.7299484,,,,,,
مغاسل حسنة جابر فرحان العتيبي,shop,laundry,24.8019868,46.7299028,,,,,,
صالون طلاء الاظفر للتزيين النسائي,shop,beauty,24.8020208,46.7298896,,,,,,
أجمل بردة مغاسل,shop,laundry,24.8021585,46.7298621,,,,,,
مؤسسة درة الشموع للتبريد والتكييف,shop,pawnbroker,24.8022991,46.729797,,,,,,
تموينات أمل محمد الحربي,shop,supermarket,24.8023434,46.7297516,,,,,,
أسواق روافد,shop,supermarket,24.8039617,46.7285345,,,,,,
تموينات تلة الوادي,shop,supermarket,24.8032199,46.7289429,,,,,,
محامص ومكسرات,shop,confectionery,24.8031764,46.7289923,,,,,,
مغاسل علي الجردان فرع رقم 1,shop,laundry,24.8022879,46.7294617,,,,,,
مؤسسة ثمار القصيم ونجد للخضار والفواكه والتمور,shop,greengrocer,24.8022296,46.729462,,,,,,
تموينات محمد عبدالعزيز المقيبل,shop,supermarket,24.8021798,46.7294604,,,,,,
حلاق مقص اللحيه,shop,beauty,24.8015467,46.7298101,,,,,,
كراج بلدية العزيزية للصيانة,shop,car_repair,24.5823978,46.7729447,,ثلاب بن حمد 22,0114387537,,"Su-Th 08:00-11:00, 12:30-14:00",
مودا بيلا بوتيك,shop,clothes,24.811528,46.6697547,,"طريق ابي بكر الصديق,طريق الثمامه النرجس",+966539292989,https://www.instagram.com/modabella.ksa/,Mo-Su 14:00-22:00,Moda Bella
بريتي نيل سبا,shop,hairdresser_supply,24.8131518,46.6471162,,"حي الياسمين, طريق الملك عبدالعزيز 1",966501330066+,https://www.instagram.com/p.n.spa,Mo-Su 12:00-22:00,
أرض  الدراجات,shop,bicycle,24.767189,46.670056,,الملك عبدالعزيز,,https://bikesland.sa/,Mo-Su 16:00-12:00,
معرض الدحيم للسيارات,shop,car,24.550709,46.6799583,,ابن سيدة 7225,,https://www.instagram.com/alduhaimcars.sa/,"Mo-Su 09:00-12:00, Mo-Th,Sa,Su 15:30-22:00",
المنزل الساطع للبلاستيك والمنظفات,shop,supermarket,24.6117826,46.6354322,,عائشة بنت أبي بكر 8570,,,,
أسواق التميمي,shop,supermarket,24.6910164,46.6821177,,,,,,
Fred Perry,shop,clothes,24.6999827,46.6817538,,,,,,
قوة العروبة لشراء معدات المطاعم المستعملة,shop,supermarket,24.5707922,46.743012,,المصانع,+966549872680,,Mo-Su 08:00-22:00,
خرائط الصحراء,shop,appliance,24.5761855,46.7636713,,الثبات,0508472651,https://desertsa.com,,
ليدر اكسبرس,shop,car_repair,24.577812,46.7011085,ليدر اكسبرس,Abdullah Al Ameri,+966553382325,https://www.leaderexpress.sa/,Sa-Th 08:00-23:00,
ليدر اكسبرس,shop,car_repair,24.5513571,46.7819098,ليدر اكسبرس,الجفنة,+966553382325,https://www.leaderexpress.sa/,Sa-Th 08:00-23:00,
ليدر اكسبرس,shop,car_repair,24.8212069,46.6851331,ليدر اكسبرس,طريق عثمان بن عفان,+966553382325,https://www.leaderexpress.sa/,Sa-Th 08:00-23:00,
ليدر اكسبرس,shop,car_repair,24.7264032,46.8148513,ليدر اكسبرس,شارع عبدالله بن مسعود,+966553382325,https://www.leaderexpress.sa/,Sa-Th 08:00-23:00,
ليدر اكسبرس,shop,car_repair,24.7687577,46.7937621,ليدر اكسبرس,شارع الحكم المستنصر بالله,+966553382325,https://www.leaderexpress.sa/,Sa-Th 08:00-23:00,
ليدر اكسبرس,shop,car_repair,24.5458512,46.7065715,ليدر اكسبرس,Al-Khaleefa Al Mamoun,+966553382325,https://www.leaderexpress.sa/,Sa-Th 08:00-23:00,
ليدر اكسبرس,shop,car_repair,24.802676,46.8933398,ليدر اكسبرس,Al Nadwah,+966553382325,https://www.leaderexpress.sa/,Sa-Th 08:00-23:00,
ليدر اكسبرس,shop,car_repair,24.6311935,46.553245,ليدر اكسبرس,Najran,www.leaderexpress.sa,https://www.leaderexpress.sa/,Sa-Th 08:00-23:00,
ليدر اكسبرس,shop,car_repair,24.5874001,46.6742363,ليدر اكسبرس,شارع عبد الملك بن هشام,+966553382325,https://www.leaderexpress.sa/,Sa-Th 08:00-23:00,
Shields and Gifts,shop,florist,24.5828781,46.6710873,,"Shubra Dist, Riyadh, Riyadh, Saudi Arabia",+966 50 936 7960,,24/7,
أسواق التميمي,shop,supermarket,24.7458477,46.6988212,أسواق التميمي,,,,Mo-Su 08:00-22:00,أسواق التميمي
Danube,shop,supermarket,24.7405867,46.6442609,,,,,,
وسم العود,shop,perfumery,24.7704326,46.7665538,,الملك عبدالله,+966553222560,https://wsmaloud.com/,Mo-Su 16:00-23:00,
Flying Tiger,shop,general,24.7678692,46.7156228,,طريق الإمام سعود بن عبد العزيز بن محمد 2976,,,,
أفندينا,shop,bakery,24.7876145,46.6591793,,طريق الملك عبد العزيز,,,,
Unnamed,shop,convenience,24.7860409,46.7201172,,,,,,
هجين,shop,bicycle,24.7719071,46.6513581,,السيل الكبير,,,,
باحة الزهور,shop,florist,24.7715357,46.6513953,,السيل الكبير,,,,
تموينات سلة القمم,shop,supermarket,24.7716289,46.651619,,السيل الكبير,0572104676,,,
توب مان,shop,hairdresser,24.791629,46.6517775,,,,,,
Unnamed,shop,electrical,24.7922082,46.6530509,,,,,,
شاي فيصل,shop,tea,24.7921666,46.6529707,شاي فيصل,,,,,
Unnamed,shop,hairdresser,24.7922255,46.6531025,,,,,,
أسواق ربى,shop,supermarket,24.8054333,46.6862516,,,,,24/7,
مغاسل,shop,laundry,24.8023585,46.6728177,,,,,,
مغاسل البيت المرن,shop,laundry,24.798883,46.6662462,,,,,,
RKS ركس,shop,mobile_phone,24.8844765,46.6112902,,شارع ريحانة بنت زيد,+966112175955,,24/7,
D.Gallerie,shop,furniture,24.7573223,46.6524871,,Al Olaya Al Muruj,,,,
تموينات بركان النرجس,shop,supermarket,24.8399169,46.672492,,,,,,
إيمان العجلان,shop,clothes,24.6941203,46.6792932,إيمان العجلان,Prince Mohammed Bin Abdulaziz Rd Store No. 5,+966505874141,https://www.emanalajlan.co/,Mo-Su 20.30 - 1.30,
وكالة بحر المداد للدعاية والاعلان,shop,supermarket,24.7677269,46.806622,,شارع سلمان الفارسي 00,+966542217120,,24/7,
الشعر الاسود - black hair‭,shop,hairdresser,24.8288773,46.7809886,,"حي, القياس، المونسية، الرياض 11564",+966543512360,,Mo-Su 11:00-23:30,
بارتي بوينت,shop,gift,24.6924432,46.6746461,,,,,,
Escape Spa,shop,massage,24.7900887,46.6476152,اسكيب سبا,,,,,
Point,shop,convenience,24.7887961,46.6480305,بوينت,,,,,
شركة الزيوت الوطنية,shop,car_repair,24.7889445,46.6483978,,,,,,
Petromin,shop,car_repair,24.7888318,46.6483435,,,+966 800 442 0020,https://petromin.express/,"Fr 16:00-22:00; Mo-Th,Sa-Su 08:00-23:30",
لوازم السيارات,shop,car_parts,24.7889061,46.6483712,لوازم السيارات,,,,,
Meznah coffee,shop,coffee,24.7576555,46.7328978,قهوة مزنة,,,,,
Addlast,shop,clothes,24.7576601,46.7329405,أدلاست,,,,,
Unnamed,shop,hairdresser,24.7926214,46.6446011,,,,,,
Tamimi Markets,shop,supermarket,24.8203042,46.6425171,أسواق التميمي,,,,,
أفران الحطب,shop,bakery,24.790651,46.6479147,أفران الحطب,,,,,
عطلات رحلاتكم,shop,travel_agency,24.7946662,46.6579116,عطلات رحلاتكم,,,,,
بقالة,shop,convenience,24.7946467,46.6578496,بقالة,,,,,
قرطاسية,shop,stationery,24.7945998,46.6577389,قرطاسية,,,,,
لولوديا,shop,gift,24.794496,46.6574991,لولوديا,,,,,
استديو سماء العدسة,shop,photo,24.7948264,46.6582541,استديو سماء العدسة,,,,,
مغسلة مانه,shop,laundry,24.7946992,46.6579811,مغسلة مانه,,,,,
Dahsha,shop,gift,24.7943704,46.6571997,دهشة,,,,,
Unnamed,shop,tobacco,24.7943152,46.6570202,,,,,,
ثقة المشاهير للحلاقة,shop,hairdresser,24.794193,46.6567448,ثقة المشاهير للحلاقة,,,,,
بيز و اباريق,shop,tea,24.7942404,46.6568585,بيز و اباريق,,,,,
FIX UP,shop,car_repair,24.7997433,46.6747668,,,,,,
Car care,shop,car_repair,24.7996625,46.6748043,كار كير,,,,,
Bunches,shop,florist,24.799893,46.6746834,,,,,,
AANI & DANI,shop,chocolate,24.808411,46.6694784,آني و داني,,,,,
Deraah,shop,perfumery,24.8085195,46.6697153,درعه,,,,,
Saco,shop,doityourself,24.8085193,46.6698347,ساكو,,,,,
Godiva,shop,chocolate,24.8085436,46.6690817,جوديڤا,,,,,
AbdulSamad AlQurashi,shop,perfumery,24.809016,46.6687075,عبدالصمد القرشي,,,,,
IKEA,shop,furniture,24.8476815,46.7634025,,,,https://www.ikea.com/sa/ar/,,IKEA
SPAR Supermarket,shop,supermarket,24.7641862,46.7142024,,,,,,
الهذلول للصوتيات,shop,electronics,24.7459861,46.7083607,الهذلول للصوتيات,,,,,
احلى نفس للشيش و المعسلات,shop,tobacco,24.7460372,46.7084068,احلى نفس للشيش و المعسلات,,,,,
Petromin Nissan,shop,car,24.8031066,46.7448019,,,+966 8004420010,https://www.petromin-nissan.com,"Mo-Th,Sa-Su 09:00-21:00",Nissan
مغاسل دانة الياسمين 1,shop,laundry,24.8351667,46.6557749,,شارع القنا,0551173384,https://wa.me/qr/V2AIBV75VLSFF1,Mo-Su 12:00-11:58,
بترومين,shop,car_repair,24.586608,46.639539,بترومين,,+966 800 442 0020,https://petrominauto.care/,"Mo-Th,Sa-Su 08:00-21:30",شركة بترومين
بترومين,shop,car_repair,24.700901,46.770143,بترومين,,+966 800 442 0020,https://petrominauto.care/,"Mo-Th,Sa-Su 08:00-21:30",شركة بترومين
بترومين,shop,car_repair,24.687237,46.723943,بترومين,,+966 800 442 0020,https://petrominauto.care/,"Mo-Th,Sa-Su 08:00-21:30",شركة بترومين
بترومين,shop,car_repair,24.698386,46.773247,بترومين,,+966 800 442 0020,https://petrominauto.care/,"Mo-Th,Sa-Su 08:00-21:30",شركة بترومين
Petromin,shop,car_repair,24.6852762,46.570825,,,+966 800 442 0020,https://petromin.express/,"Fr 16:00-22:00; Mo-Th,Sa-Su 08:00-23:30",
Petromin,shop,car_repair,24.647602,46.498303,,,+966 800 442 0020,https://petromin.express/,"Fr 16:00-22:00; Mo-Th,Sa-Su 08:00-23:30",
Petromin,shop,car_repair,24.575929,46.7790717,,,+966 800 442 0020,https://petromin.express/,"Fr 16:00-22:00; Mo-Th,Sa-Su 08:00-23:30",
Petromin,shop,car_repair,24.5830075,46.7531294,,,+966 800 442 0020,https://petromin.express/,"Fr 16:00-22:00; Mo-Th,Sa-Su 08:00-23:30",
Petromin,shop,car_repair,24.5731337,46.7866033,,,+966 800 442 0020,https://petromin.express/,"Fr 16:00-22:00; Mo-Th,Sa-Su 08:00-23:30",
Petromin,shop,car_repair,24.56669,46.79987,,,+966 800 442 0020,https://petromin.express/,"Fr 16:00-22:00; Mo-Th,Sa-Su 08:00-23:30",
Petromin,shop,car_repair,24.555228,46.778546,,,+966 800 442 0020,https://petromin.express/,"Fr 16:00-22:00; Mo-Th,Sa-Su 08:00-23:30",
Petromin,shop,car_repair,24.572436,46.778755,,,+966 800 442 0020,https://petromin.express/,"Fr 16:00-22:00; Mo-Th,Sa-Su 08:00-23:30",
Petromin,shop,car_repair,24.57,46.753889,,,+966 800 442 0020,https://petromin.express/,"Fr 16:00-22:00; Mo-Th,Sa-Su 08:00-23:30",
Petromin,shop,car_repair,24.546111,46.688333,,,+966 800 442 0020,https://petromin.express/,"Fr 16:00-22:00; Mo-Th,Sa-Su 08:00-23:30",
Petromin,shop,car_repair,24.5834368,46.7797208,,,+966 800 442 0020,https://petromin.express/,"Fr 16:00-22:00; Mo-Th,Sa-Su 08:00-23:30",
Petromin,shop,car_repair,24.558825,46.769932,,,+966 800 442 0020,https://petromin.express/,"Fr 16:00-22:00; Mo-Th,Sa-Su 08:00-23:30",
Petromin,shop,car_repair,24.557029,46.712817,,,+966 800 442 0020,https://petromin.express/,"Fr 16:00-22:00; Mo-Th,Sa-Su 08:00-23:30",
Petromin,shop,car_repair,24.555369,46.682711,,,+966 800 442 0020,https://petromin.express/,"Fr 16:00-22:00; Mo-Th,Sa-Su 08:00-23:30",
Petromin,shop,car_repair,24.536744,46.6911194,,,+966 800 442 0020,https://petromin.express/,"Fr 16:00-22:00; Mo-Th,Sa-Su 08:00-23:30",
Petromin,shop,car_repair,24.5858807,46.7606986,,,+966 800 442 0020,https://petromin.express/,"Fr 16:00-22:00; Mo-Th,Sa-Su 08:00-23:30",
Petromin,shop,car_repair,24.617355,46.643829,,,+966 800 442 0020,https://petromin.express/,"Fr 16:00-22:00; Mo-Th,Sa-Su 08:00-23:30",
Petromin,shop,car_repair,24.575833,46.696111,,,+966 800 442 0020,https://petromin.express/,"Fr 16:00-22:00; Mo-Th,Sa-Su 08:00-23:30",
Petromin,shop,car_repair,24.582798,46.634865,,,+966 800 442 0020,https://petromin.express/,"Fr 16:00-22:00; Mo-Th,Sa-Su 08:00-23:30",
Petromin,shop,car_repair,24.5648153,46.6285515,,,+966 800 442 0020,https://petromin.express/,"Fr 16:00-22:00; Mo-Th,Sa-Su 08:00-23:30",
Petromin,shop,car_repair,24.601031,46.696149,,,+966 800 442 0020,https://petromin.express/,"Fr 16:00-22:00; Mo-Th,Sa-Su 08:00-23:30",
Petromin,shop,car_repair,24.6045184,46.6131663,,,+966 800 442 0020,https://petromin.express/,"Fr 16:00-22:00; Mo-Th,Sa-Su 08:00-23:30",
Petromin,shop,car_repair,24.565278,46.650278,,,+966 800 442 0020,https://petromin.express/,"Fr 16:00-22:00; Mo-Th,Sa-Su 08:00-23:30",
Petromin,shop,car_repair,24.529673,46.653534,,,+966 800 442 0020,https://petromin.express/,"Fr 16:00-22:00; Mo-Th,Sa-Su 08:00-23:30",
Petromin,shop,car_repair,24.574846,46.677679,,,+966 800 442 0020,https://petromin.express/,"Fr 16:00-22:00; Mo-Th,Sa-Su 08:00-23:30",
Petromin,shop,car_repair,24.523362,46.647499,,,+966 800 442 0020,https://petromin.express/,"Fr 16:00-22:00; Mo-Th,Sa-Su 08:00-23:30",
Petromin,shop,car_repair,24.5475,46.649444,,,+966 800 442 0020,https://petromin.express/,"Fr 16:00-22:00; Mo-Th,Sa-Su 08:00-23:30",
Petromin,shop,car_repair,24.595949,46.66202,,,+966 800 442 0020,https://petromin.express/,"Fr 16:00-22:00; Mo-Th,Sa-Su 08:00-23:30",
Petromin,shop,car_repair,24.618886,46.68631,,,+966 800 442 0020,https://petromin.express/,"Fr 16:00-22:00; Mo-Th,Sa-Su 08:00-23:30",
Petromin,shop,car_repair,24.62387,46.685447,,,+966 800 442 0020,https://petromin.express/,"Fr 16:00-22:00; Mo-Th,Sa-Su 08:00-23:30",
Petromin,shop,car_repair,24.6084297,46.6660702,,,+966 800 442 0020,https://petromin.express/,"Fr 16:00-22:00; Mo-Th,Sa-Su 08:00-23:30",
Petromin,shop,car_repair,24.608249,46.639549,,,+966 800 442 0020,https://petromin.express/,"Fr 16:00-22:00; Mo-Th,Sa-Su 08:00-23:30",
Petromin,shop,car_repair,24.544181,46.467061,,,+966 800 442 0020,https://petromin.express/,"Fr 16:00-22:00; Mo-Th,Sa-Su 08:00-23:30",Petromin
Petromin,shop,car_repair,24.56263,46.554464,,,+966 800 442 0020,https://petromin.express/,"Fr 16:00-22:00; Mo-Th,Sa-Su 08:00-23:30",
Petromin,shop,car_repair,24.5962264,46.5863442,,,+966 800 442 0020,https://petromin.express/,"Fr 16:00-22:00; Mo-Th,Sa-Su 08:00-23:30",
Petromin,shop,car_repair,24.558673,46.575229,,,+966 800 442 0020,https://petromin.express/,"Fr 16:00-22:00; Mo-Th,Sa-Su 08:00-23:30",
Petromin,shop,car_repair,24.593412,46.54734,,,+966 800 442 0020,https://petromin.express/,"Fr 16:00-22:00; Mo-Th,Sa-Su 08:00-23:30",Petromin
Petromin,shop,car_repair,24.579432,46.613338,,,+966 800 442 0020,https://petromin.express/,"Fr 16:00-22:00; Mo-Th,Sa-Su 08:00-23:30",
Petromin,shop,car_repair,24.5529735,46.4985287,,,+966 800 442 0020,https://petromin.express/,"Fr 16:00-22:00; Mo-Th,Sa-Su 08:00-23:30",Petromin
Petromin,shop,car_repair,24.5583847,46.6179835,,,+966 800 442 0020,https://petromin.express/,"Fr 16:00-22:00; Mo-Th,Sa-Su 08:00-23:30",
Petromin,shop,car_repair,24.584642,46.598007,,,+966 800 442 0020,https://petromin.express/,"Fr 16:00-22:00; Mo-Th,Sa-Su 08:00-23:30",
Petromin,shop,car_repair,24.5705237,46.5452849,,,+966 800 442 0020,https://petromin.express/,"Fr 16:00-22:00; Mo-Th,Sa-Su 08:00-23:30",Petromin
Petromin,shop,car_repair,24.5561938,46.5273464,,,+966 800 442 0020,https://petromin.express/,"Fr 16:00-22:00; Mo-Th,Sa-Su 08:00-23:30",
Petromin,shop,car_repair,24.558878,46.545097,,,+966 800 442 0020,https://petromin.express/,"Fr 16:00-22:00; Mo-Th,Sa-Su 08:00-23:30",
Petromin,shop,car_repair,24.851302,46.649837,,,+966 800 442 0020,https://petromin.express/,"Fr 16:00-22:00; Mo-Th,Sa-Su 08:00-23:30",
Petromin,shop,car_repair,24.7688742,46.6675454,,,+966 800 442 0020,https://petromin.express/,"Fr 16:00-22:00; Mo-Th,Sa-Su 08:00-23:30",
Petromin,shop,car_repair,24.830763,46.730223,,,+966 800 442 0020,https://petromin.express/,"Fr 16:00-22:00; Mo-Th,Sa-Su 08:00-23:30",
Petromin,shop,car_repair,24.814316,46.681568,,,+966 800 442 0020,https://petromin.express/,"Fr 16:00-22:00; Mo-Th,Sa-Su 08:00-23:30",
Petromin,shop,car_repair,24.822365,46.642917,,,+966 800 442 0020,https://petromin.express/,"Fr 16:00-22:00; Mo-Th,Sa-Su 08:00-23:30",
Petromin,shop,car_repair,24.863723,46.643642,,,+966 800 442 0020,https://petromin.express/,"Fr 16:00-22:00; Mo-Th,Sa-Su 08:00-23:30",
بترومين إكسبرس,shop,car_repair,24.8083148,46.6634369,,,+966 800 442 0020,https://petromin.express/,"Fr 16:00-22:00; Mo-Th,Sa-Su 08:00-23:30",بترومين إكسبرس
Petromin,shop,car_repair,24.835924,46.689792,,,+966 800 442 0020,https://petromin.express/,"Fr 16:00-22:00; Mo-Th,Sa-Su 08:00-23:30",
Petromin,shop,car_repair,24.8028151,46.6034675,,,+966 800 442 0020,https://petromin.express/,"Fr 16:00-22:00; Mo-Th,Sa-Su 08:00-23:30",
Petromin,shop,car_repair,24.787879,46.615645,,,+966 800 442 0020,https://petromin.express/,"Fr 16:00-22:00; Mo-Th,Sa-Su 08:00-23:30",
Petromin,shop,car_repair,24.783056,46.625,,,+966 800 442 0020,https://petromin.express/,"Fr 16:00-22:00; Mo-Th,Sa-Su 08:00-23:30",
Petromin,shop,car_repair,24.80018,46.697511,,,+966 800 442 0020,https://petromin.express/,"Fr 16:00-22:00; Mo-Th,Sa-Su 08:00-23:30",
Petromin,shop,car_repair,24.829254,46.786153,,,+966 800 442 0020,https://petromin.express/,"Fr 16:00-22:00; Mo-Th,Sa-Su 08:00-23:30",
Petromin,shop,car_repair,24.834076,46.766902,,,+966 800 442 0020,https://petromin.express/,"Fr 16:00-22:00; Mo-Th,Sa-Su 08:00-23:30",
Petromin,shop,car_repair,24.843489,46.804719,,,+966 800 442 0020,https://petromin.express/,"Fr 16:00-22:00; Mo-Th,Sa-Su 08:00-23:30",
Petromin,shop,car_repair,24.8204758,46.7294991,,,+966 800 442 0020,https://petromin.express/,"Fr 16:00-22:00; Mo-Th,Sa-Su 08:00-23:30",
Petromin,shop,car_repair,24.797755,46.715691,,,+966 800 442 0020,https://petromin.express/,"Fr 16:00-22:00; Mo-Th,Sa-Su 08:00-23:30",
Petromin,shop,car_repair,24.689697,46.594262,,,+966 800 442 0020,https://petromin.express/,"Fr 16:00-22:00; Mo-Th,Sa-Su 08:00-23:30",
Petromin,shop,car_repair,24.7141446,46.6349325,,,+966 800 442 0020,https://petromin.express/,"Fr 16:00-22:00; Mo-Th,Sa-Su 08:00-23:30",
Petromin,shop,car_repair,24.7487557,46.5363854,,,+966 800 442 0020,https://petromin.express/,"Fr 16:00-22:00; Mo-Th,Sa-Su 08:00-23:30",
Petromin,shop,car_repair,24.617501,46.518232,,,+966 800 442 0020,https://petromin.express/,"Fr 16:00-22:00; Mo-Th,Sa-Su 08:00-23:30",
Petromin,shop,car_repair,24.627376,46.539652,,,+966 800 442 0020,https://petromin.express/,"Fr 16:00-22:00; Mo-Th,Sa-Su 08:00-23:30",
Petromin,shop,car_repair,24.627386,46.558964,,,+966 800 442 0020,https://petromin.express/,"Fr 16:00-22:00; Mo-Th,Sa-Su 08:00-23:30",Petromin
Petromin,shop,car_repair,24.628142,46.567172,,,+966 800 442 0020,https://petromin.express/,"Fr 16:00-22:00; Mo-Th,Sa-Su 08:00-23:30",Petromin
Petromin,shop,car_repair,24.687625,46.636147,,,+966 800 442 0020,https://petromin.express/,"Fr 16:00-22:00; Mo-Th,Sa-Su 08:00-23:30",
Petromin,shop,car_repair,24.638572,46.540334,,,+966 800 442 0020,https://petromin.express/,"Fr 16:00-22:00; Mo-Th,Sa-Su 08:00-23:30",
Petromin,shop,car_repair,24.633056,46.563889,,,+966 800 442 0020,https://petromin.express/,"Fr 16:00-22:00; Mo-Th,Sa-Su 08:00-23:30",Petromin
Petromin,shop,car_repair,24.7857702,46.673339,,,+966 800 442 0020,https://petromin.express/,"Fr 16:00-22:00; Mo-Th,Sa-Su 08:00-23:30",
Petromin,shop,car_repair,24.780778,46.684175,,,+966 800 442 0020,https://petromin.express/,"Fr 16:00-22:00; Mo-Th,Sa-Su 08:00-23:30",
Petromin,shop,car_repair,24.790353,46.700644,,,+966 800 442 0020,https://petromin.express/,"Fr 16:00-22:00; Mo-Th,Sa-Su 08:00-23:30",
Petromin,shop,car_repair,24.758382,46.734059,,,+966 800 442 0020,https://petromin.express/,"Fr 16:00-22:00; Mo-Th,Sa-Su 08:00-23:30",
Petromin,shop,car_repair,24.738949,46.684803,,,+966 800 442 0020,https://petromin.express/,"Fr 16:00-22:00; Mo-Th,Sa-Su 08:00-23:30",
Petromin,shop,car_repair,24.737229,46.707328,,,+966 800 442 0020,https://petromin.express/,"Fr 16:00-22:00; Mo-Th,Sa-Su 08:00-23:30",
Petromin,shop,car_repair,24.740954,46.671891,,,+966 800 442 0020,https://petromin.express/,"Fr 16:00-22:00; Mo-Th,Sa-Su 08:00-23:30",
Petromin,shop,car_repair,24.7743197,46.7090875,,,+966 800 442 0020,https://petromin.express/,"Fr 16:00-22:00; Mo-Th,Sa-Su 08:00-23:30",
Petromin,shop,car_repair,24.764656,46.701872,,,+966 800 442 0020,https://petromin.express/,"Fr 16:00-22:00; Mo-Th,Sa-Su 08:00-23:30",
Petromin,shop,car_repair,24.7550058,46.7201811,,,+966 800 442 0020,https://petromin.express/,"Fr 16:00-22:00; Mo-Th,Sa-Su 08:00-23:30",
Petromin,shop,car_repair,24.7678755,46.6844809,,,+966 800 442 0020,https://petromin.express/,"Fr 16:00-22:00; Mo-Th,Sa-Su 08:00-23:30",
Petromin,shop,car_repair,24.762629,46.672663,,,+966 800 442 0020,https://petromin.express/,"Fr 16:00-22:00; Mo-Th,Sa-Su 08:00-23:30",
بترومين إكسبرس,shop,car_repair,24.6816974,46.7010381,,,+966 800 442 0020,https://petromin.express/,"Fr 16:00-22:00; Mo-Th,Sa-Su 08:00-23:30",بترومين إكسبرس
Petromin,shop,car_repair,24.690603,46.688316,,,+966 800 442 0020,https://petromin.express/,"Fr 16:00-22:00; Mo-Th,Sa-Su 08:00-23:30",
Petromin,shop,car_repair,24.687976,46.687533,,,+966 800 442 0020,https://petromin.express/,"Fr 16:00-22:00; Mo-Th,Sa-Su 08:00-23:30",
Petromin,shop,car_repair,24.666216,46.698927,,,+966 800 442 0020,https://petromin.express/,"Fr 16:00-22:00; Mo-Th,Sa-Su 08:00-23:30",
Petromin,shop,car_repair,24.6512564,46.7073709,,,+966 800 442 0020,https://petromin.express/,"Fr 16:00-22:00; Mo-Th,Sa-Su 08:00-23:30",
Petromin,shop,car_repair,24.660659,46.734585,,,+966 800 442 0020,https://petromin.express/,"Fr 16:00-22:00; Mo-Th,Sa-Su 08:00-23:30",
بترومين إكسبرس,shop,car_repair,24.687206,46.723797,,,+966 800 442 0020,https://petromin.express/,"Fr 16:00-22:00; Mo-Th,Sa-Su 08:00-23:30",بترومين إكسبرس
Petromin,shop,car_repair,24.64827,46.714575,,,+966 800 442 0020,https://petromin.express/,"Fr 16:00-22:00; Mo-Th,Sa-Su 08:00-23:30",
الدريس,shop,car_repair,24.6494305,46.7238289,الدريس,عمر بن الخطاب,+966 800 442 0020,https://petromin.express/,"Fr 16:00-22:00; Mo-Th,Sa-Su 08:00-23:30",الدريس
Petromin,shop,car_repair,24.669722,46.706389,,,+966 800 442 0020,https://petromin.express/,"Fr 16:00-22:00; Mo-Th,Sa-Su 08:00-23:30",
Petromin,shop,car_repair,24.695881,46.752024,,,+966 800 442 0020,https://petromin.express/,"Fr 16:00-22:00; Mo-Th,Sa-Su 08:00-23:30",
Petromin,shop,car_repair,24.688327,46.756069,,,+966 800 442 0020,https://petromin.express/,"Fr 16:00-22:00; Mo-Th,Sa-Su 08:00-23:30",
Petromin,shop,car_repair,24.657997,46.735931,,,+966 800 442 0020,https://petromin.express/,"Fr 16:00-22:00; Mo-Th,Sa-Su 08:00-23:30",
Petromin,shop,car_repair,24.678491,46.772162,,,+966 800 442 0020,https://petromin.express/,"Fr 16:00-22:00; Mo-Th,Sa-Su 08:00-23:30",
Petromin,shop,car_repair,24.700893,46.770173,,,+966 800 442 0020,https://petromin.express/,"Fr 16:00-22:00; Mo-Th,Sa-Su 08:00-23:30",
Petromin,shop,car_repair,24.606567,46.731055,,,+966 800 442 0020,https://petromin.express/,"Fr 16:00-22:00; Mo-Th,Sa-Su 08:00-23:30",
Petromin,shop,car_repair,24.628083,46.740641,,,+966 800 442 0020,https://petromin.express/,"Fr 16:00-22:00; Mo-Th,Sa-Su 08:00-23:30",
Petromin,shop,car_repair,24.579744,46.797289,,,+966 800 442 0020,https://petromin.express/,"Fr 16:00-22:00; Mo-Th,Sa-Su 08:00-23:30",
Petromin,shop,car_repair,24.596376,46.782285,,,+966 800 442 0020,https://petromin.express/,"Fr 16:00-22:00; Mo-Th,Sa-Su 08:00-23:30",
Petromin,shop,car_repair,24.596129,46.736698,,,+966 800 442 0020,https://petromin.express/,"Fr 16:00-22:00; Mo-Th,Sa-Su 08:00-23:30",
Petromin,shop,car_repair,24.6112003,46.707741,,,+966 800 442 0020,https://petromin.express/,"Fr 16:00-22:00; Mo-Th,Sa-Su 08:00-23:30",
Petromin,shop,car_repair,24.6016648,46.7631715,,,+966 800 442 0020,https://petromin.express/,"Fr 16:00-22:00; Mo-Th,Sa-Su 08:00-23:30",
Petromin,shop,car_repair,24.603421,46.755243,,,+966 800 442 0020,https://petromin.express/,"Fr 16:00-22:00; Mo-Th,Sa-Su 08:00-23:30",
Petromin,shop,car_repair,24.602143,46.750136,,,+966 800 442 0020,https://petromin.express/,"Fr 04:00-22:00; Mo-Th,Sa-Su 08:00-23:30",
Petromin,shop,car_repair,24.605874,46.717327,,,+966 800 442 0020,https://petromin.express/,"Fr 16:00-22:00; Mo-Th,Sa-Su 08:00-23:30",
Petromin,shop,car_repair,24.5897925,46.7276752,,,+966 800 442 0020,https://petromin.express/,"Fr 16:00-22:00; Mo-Th,Sa-Su 08:00-23:30",
Petromin,shop,car_repair,24.614692,46.7577266,,,+966 800 442 0020,https://petromin.express/,"Fr 16:00-22:00; Mo-Th,Sa-Su 08:00-23:30",
Petromin,shop,car_repair,24.6207975,46.7336297,,,+966 800 442 0020,https://petromin.express/,"Fr 16:00-22:00; Mo-Th,Sa-Su 08:00-23:30",
Petromin,shop,car_repair,24.582344,46.836959,,,+966 800 442 0020,https://petromin.express/,"Fr 16:00-22:00; Mo-Th,Sa-Su 08:00-23:30",
Petromin,shop,car_repair,24.7685234,46.7598403,,,+966 800 442 0020,https://petromin.express/,"Fr 16:00-22:00; Mo-Th,Sa-Su 08:00-23:30",
Petromin,shop,car_repair,24.745278,46.79,,,+966 800 442 0020,https://petromin.express/,"Fr 16:00-22:00; Mo-Th,Sa-Su 08:00-23:30",
Petromin,shop,car_repair,24.72477,46.760098,,,+966 800 442 0020,https://petromin.express/,"Fr 16:00-22:00; Mo-Th,Sa-Su 08:00-23:30",
Petromin,shop,car_repair,24.75919,46.801098,,,+966 800 442 0020,https://petromin.express/,"Fr 16:00-22:00; Mo-Th,Sa-Su 08:00-23:30",
Petromin,shop,car_repair,24.743543,46.765763,,,+966 800 442 0020,https://petromin.express/,"Fr 16:00-22:00; Mo-Th,Sa-Su 08:00-23:30",
Petromin,shop,car_repair,24.75389,46.784597,,,+966 800 442 0020,https://petromin.express/,"Fr 16:00-22:00; Mo-Th,Sa-Su 08:00-23:30",
Petromin,shop,car_repair,24.759746,46.778444,,,+966 800 442 0020,https://petromin.express/,"Fr 16:00-22:00; Mo-Th,Sa-Su 08:00-23:30",
Petromin,shop,car_repair,24.760556,46.759444,,,+966 800 442 0020,https://petromin.express/,"Fr 16:00-22:00; Mo-Th,Sa-Su 08:00-23:30",
Petromin,shop,car_repair,24.769946,46.793727,,,+966 800 442 0020,https://petromin.express/,"Fr 16:00-22:00; Mo-Th,Sa-Su 08:00-23:30",
Petromin,shop,car_repair,24.745722,46.752972,,,+966 800 442 0020,https://petromin.express/,"Fr 16:00-22:00; Mo-Th,Sa-Su 08:00-23:30",
Petromin,shop,car_repair,24.733872,46.770456,,,+966 800 442 0020,https://petromin.express/,"Fr 16:00-22:00; Mo-Th,Sa-Su 08:00-23:30",
Petromin,shop,car_repair,24.745112,46.756294,,,+966 800 442 0020,https://petromin.express/,"Fr 16:00-22:00; Mo-Th,Sa-Su 08:00-23:30",
Petromin,shop,car_repair,24.788819,46.762185,,,+966 800 442 0020,https://petromin.express/,"Fr 16:00-22:00; Mo-Th,Sa-Su 08:00-23:30",
Petromin,shop,car_repair,24.7525,46.743333,,,+966 800 442 0020,https://petromin.express/,"Fr 16:00-22:00; Mo-Th,Sa-Su 08:00-23:30",
Petromin,shop,car_repair,24.812208,46.7669749,,,+966 800 442 0020,https://petromin.express/,"Fr 16:00-22:00; Mo-Th,Sa-Su 08:00-23:30",
Petromin,shop,car_repair,24.8203781,46.7864263,,,+966 800 442 0020,https://petromin.express/,"Fr 16:00-22:00; Mo-Th,Sa-Su 08:00-23:30",
Petromin,shop,car_repair,24.820943,46.772377,,,+966 800 442 0020,https://petromin.express/,"Fr 16:00-22:00; Mo-Th,Sa-Su 08:00-23:30",
Petromin,shop,car_repair,24.810217,46.799698,,,+966 800 442 0020,https://petromin.express/,"Fr 16:00-22:00; Mo-Th,Sa-Su 08:00-23:30",
Petromin,shop,car_repair,24.7996983,46.737535,,,+966 800 442 0020,https://petromin.express/,"Fr 16:00-22:00; Mo-Th,Sa-Su 08:00-23:30",
Petromin,shop,car_repair,24.796389,46.786056,,,+966 800 442 0020,https://petromin.express/,"Fr 16:00-22:00; Mo-Th,Sa-Su 08:00-23:30",
Petromin,shop,car_repair,24.805035,46.760146,,,+966 800 442 0020,https://petromin.express/,"Fr 16:00-22:00; Mo-Th,Sa-Su 08:00-23:30",
Petromin,shop,car_repair,24.78897,46.777548,,,+966 800 442 0020,https://petromin.express/,"Fr 16:00-22:00; Mo-Th,Sa-Su 08:00-23:30",
Petromin,shop,car_repair,24.803657,46.750774,,,+966 800 442 0020,https://petromin.express/,"Fr 16:00-22:00; Mo-Th,Sa-Su 08:00-23:30",
Petromin,shop,car_repair,24.694858,46.792075,,,+966 800 442 0020,https://petromin.express/,"Fr 16:00-22:00; Mo-Th,Sa-Su 08:00-23:30",
Petromin,shop,car_repair,24.7239589,46.8139488,,,+966 800 442 0020,https://petromin.express/,"Fr 16:00-22:00; Mo-Th,Sa-Su 08:00-23:30",
Petromin,shop,car_repair,24.705,46.781389,,,+966 800 442 0020,https://petromin.express/,"Fr 16:00-22:00; Mo-Th,Sa-Su 08:00-23:30",
Petromin,shop,car_repair,24.732542,46.827539,,,+966 800 442 0020,https://petromin.express/,"Fr 16:00-22:00; Mo-Th,Sa-Su 08:00-23:30",
Petromin,shop,car_repair,24.723571,46.796914,,,+966 800 442 0020,https://petromin.express/,"Fr 16:00-22:00; Mo-Th,Sa-Su 08:00-23:30",
Petromin,shop,car_repair,24.74203,46.814414,,,+966 800 442 0020,https://petromin.express/,"Fr 16:00-22:00; Mo-Th,Sa-Su 08:00-23:30",
Petromin,shop,car_repair,24.698265,46.772865,,,+966 800 442 0020,https://petromin.express/,"Fr 16:00-22:00; Mo-Th,Sa-Su 08:00-23:30",
Petromin,shop,car_repair,24.726846,46.832501,,,+966 800 442 0020,https://petromin.express/,"Fr 16:00-22:00; Mo-Th,Sa-Su 08:00-23:30",
Petromin,shop,car_repair,24.723333,46.787222,,,+966 800 442 0020,https://petromin.express/,"Fr 16:00-22:00; Mo-Th,Sa-Su 08:00-23:30",
Petromin,shop,car_repair,24.7221532,46.8226898,,,+966 800 442 0020,https://petromin.express/,"Fr 16:00-22:00; Mo-Th,Sa-Su 08:00-23:30",
Petromin,shop,car_repair,24.72,46.769167,,,+966 800 442 0020,https://petromin.express/,"Fr 16:00-22:00; Mo-Th,Sa-Su 08:00-23:30",
Petromin,shop,car_repair,24.685593,46.790337,,,+966 800 442 0020,https://petromin.express/,"Fr 16:00-22:00; Mo-Th,Sa-Su 08:00-23:30",
Petromin,shop,car_repair,24.817661,46.832818,,,+966 800 442 0020,https://petromin.express/,"Fr 16:00-22:00; Mo-Th,Sa-Su 08:00-23:30",
Petromin,shop,car_repair,24.81419,46.8190473,,,+966 800 442 0020,https://petromin.express/,"Fr 16:00-22:00; Mo-Th,Sa-Su 08:00-23:30",
Petromin,shop,car_repair,24.69824,46.772833,,,+966 800 442 0020,https://petromin.express/,"Fr 16:00-22:00; Mo-Th,Sa-Su 08:00-23:30",
Petromin,shop,car_repair,24.757584,46.828014,,,+966 800 442 0020,https://petromin.express/,"Fr 16:00-22:00; Mo-Th,Sa-Su 08:00-23:30",
Petromin,shop,car_repair,24.8173935,46.8797349,,,+966 800 442 0020,https://petromin.express/,"Fr 16:00-22:00; Mo-Th,Sa-Su 08:00-23:30",
Petromin,shop,car_repair,24.782171,46.812546,,,+966 800 442 0020,https://petromin.express/,"Fr 16:00-22:00; Mo-Th,Sa-Su 08:00-23:30",
Petromin,shop,car_repair,24.799426,46.857285,,,+966 800 442 0020,https://petromin.express/,"Fr 16:00-22:00; Mo-Th,Sa-Su 08:00-23:30",
Petromin,shop,car_repair,24.808235,46.887385,,,+966 800 442 0020,https://petromin.express/,"Fr 16:00-22:00; Mo-Th,Sa-Su 08:00-23:30",
Petromin,shop,car_repair,24.8012081,46.8696982,,,+966 800 442 0020,https://petromin.express/,"Fr 16:00-22:00; Mo-Th,Sa-Su 08:00-23:30",
Petromin,shop,car_repair,24.7715776,46.8134898,,,+966 800 442 0020,https://petromin.express/,"Fr 16:00-22:00; Mo-Th,Sa-Su 08:00-23:30",
Petromin,shop,car_repair,24.8077575,46.8795418,,,+966 800 442 0020,https://petromin.express/,"Fr 16:00-22:00; Mo-Th,Sa-Su 08:00-23:30",
Petromin,shop,car_repair,24.760345,46.834089,,,+966 800 442 0020,https://petromin.express/,"Fr 16:00-22:00; Mo-Th,Sa-Su 08:00-23:30",
Petromin,shop,car_repair,24.681376,46.81614,,,+966 800 442 0020,https://petromin.express/,"Fr 16:00-22:00; Mo-Th,Sa-Su 08:00-23:30",
Petromin,shop,car_repair,24.7825,46.819167,,,+966 800 442 0020,https://petromin.express/,"Fr 16:00-22:00; Mo-Th,Sa-Su 08:00-23:30",
Petromin,shop,car_repair,24.680684,46.855536,,,+966 800 442 0020,https://petromin.express/,"Fr 16:00-22:00; Mo-Th,Sa-Su 08:00-23:30",
Petromin,shop,car_repair,24.721281,46.849866,,,+966 800 442 0020,https://petromin.express/,"Fr 16:00-22:00; Mo-Th,Sa-Su 08:00-23:30",
Petromin,shop,car_repair,24.692548,46.851389,,,+966 800 442 0020,https://petromin.express/,"Fr 16:00-22:00; Mo-Th,Sa-Su 08:00-23:30",
Petromin,shop,car_repair,24.672529,46.815078,,,+966 800 442 0020,https://petromin.express/,"Fr 16:00-22:00; Mo-Th,Sa-Su 08:00-23:30",
Petromin,shop,car_repair,24.7317523,46.8419695,,,+966 800 442 0020,https://petromin.express/,"Fr 16:00-22:00; Mo-Th,Sa-Su 08:00-23:30",
Petromin,shop,car_repair,24.684208,46.839765,,,+966 800 442 0020,https://petromin.express/,"Fr 16:00-22:00; Mo-Th,Sa-Su 08:00-23:30",
Petromin,shop,car_repair,24.7422808,46.8413902,,,+966 800 442 0020,https://petromin.express/,"Fr 16:00-22:00; Mo-Th,Sa-Su 08:00-23:30",
Petromin,shop,car_repair,24.794722,46.865,,,+966 800 442 0020,https://petromin.express/,"Fr 16:00-22:00; Mo-Th,Sa-Su 08:00-23:30",
Petromin,shop,car_repair,24.6804161,46.7821348,,,+966 800 442 0020,https://petromin.express/,"Fr 16:00-22:00; Mo-Th,Sa-Su 08:00-23:30",
Petromin,shop,car_repair,24.679149,46.800492,,,+966 800 442 0020,https://petromin.express/,"Fr 16:00-22:00; Mo-Th,Sa-Su 08:00-23:30",
بريدي,shop,bakery,24.8458401,46.6682869,,,,,,
حكيمة,shop,food,24.7989044,46.6662218,حكيمة,,,,,
مخبز,shop,bakery,24.798701,46.6663267,مخبز,,,,,
تموينات,shop,convenience,24.798648,46.666354,تموينات,,,,,
بترومين,shop,car_repair,24.5718749,46.7861528,بترومين,,+966 800 442 0020,https://petrominauto.care/,"Mo-Th,Sa-Su 08:00-21:30",شركة بترومين
Petromin,shop,car_repair,24.5832366,46.661575,,,+966 800 442 0020,https://petromin.express/,"Fr 16:00-22:00; Mo-Th,Sa-Su 08:00-23:30",
Petromin,shop,car_repair,24.7729535,46.5745854,,,+966 800 442 0020,https://petromin.express/,"Fr 16:00-22:00; Mo-Th,Sa-Su 08:00-23:30",
Petromin,shop,car_repair,24.8072998,46.8060762,,,+966 800 442 0020,https://petromin.express/,"Fr 16:00-22:00; Mo-Th,Sa-Su 08:00-23:30",
Puffery Bakery and Cafe,shop,bakery,24.7813486,46.5948669,,الأمير تركي بن عبدالعزيز الأول,,,Mo-Su 09:00-21:00,
قرطاسية أساهيب - خدمات طالب,shop,stationery,24.608113,46.7390792,,"Al Amir Saud Ibn Abdul Rahman Al Faisal, Al Mansourah, Riyadh 11564, Saudi Arabia 11564",+966530251446,https://asaheb-store.business.site/,06:30-14:00 \ 16:00-00:00,
قرطاسية أساهيب,shop,stationery,24.5832636,46.7628482,,"Mohammad Rashid Rida, حي العزيزية، Riyadh 14515, Saudi Arabia 14515",+966 58 210 2850,,08:00-13:00 / 16:00-00:00,
White Roastery,shop,coffee,24.7956441,46.6982769,,Uthman Ibn Affan Rd,+966 55 226 0558,,11:00-12:00,
Zone Mart | أسواق ومخابز زون مارت,shop,convenience,24.827354,46.7354274,,,+966 53 185 6134,,24/7,
Wadi Qurtubah | أسواق ومخابز وادي قرطبة,shop,convenience,24.8290539,46.7372575,,Abdulwahid Al Azji RPHP+MW9,0533075005,,24/7,
مجوهرات ملاكايت | Malakait Diamond,shop,jewelry,24.7349428,46.6630733,,,+966539740351,,,
Malakait Diamond | مجوهرات ملاكايت,shop,jewelry,24.7382687,46.6835408,,,+966539740351,,,
Et Gaeage,shop,car_repair,24.6248288,46.5223634,,شارع عاصم بن الخطاب، الرمال,00966547038347,https://www.elitetouch.me/,,
Adidas,shop,sports,24.7710939,46.6042245,,,,,,Adidas
aDawliah,shop,musical_instrument,24.7817863,46.7322292,,,+966 11 253 5005;+966 11 459 7855,https://adawliahshop.com,"Fr 16:30-23:00; Mo-Th,Sa-Su 10:00-23:00",
aDawliah,shop,musical_instrument,24.7050341,46.6800499,,,+966 11 419 1870;+966 11 459 7855;+966 55 594 2031,https://adawliahshop.com,"Fr 16:30-22:30; Mo-Th,Sa-Su 09:00-11:30,16:30-22:30",
aDawliah,shop,musical_instrument,24.6989129,46.6910255,,,+966 11 217 0030;+966 11 459 7855,https://adawliahshop.com,"Fr 16:30-22:30; Mo-Th,Sa-Su 09:00-22:30",
aDawliah,shop,musical_instrument,24.646325,46.716764,,,+966 11 409 2990;+966 11 459 7855,https://adawliahshop.com,"Fr 16:30-22:30; Mo-Th,Sa-Su 09:00-11:30,16:30-22:30",
aDawliah,shop,musical_instrument,24.7577923,46.6287233,,,+966 11 459 7855;+966 11 480 0192,https://adawliahshop.com,"Fr 16:30-23:00; Mo-Th,Sa-Su 09:00-23:00",
aDawliah,shop,musical_instrument,24.7039083,46.6805756,,,+966 11 419 1483;+966 11 459 7855,https://adawliahshop.com,"Fr 16:30-22:30; Mo-Th,Sa-Su 09:00-11:30,16:30-22:30",
aDawliah,shop,musical_instrument,24.8090868,46.6686691,,,+966 11 404 7970;+966 11 459 7855,https://adawliahshop.com,"Fr 16:00-22:30; Mo-Th,Sa-Su 10:00-22:30",
تموينات عبدالعزيز سعيد,shop,convenience,24.8294353,46.6462137,,,,,,
حلاق صالون الشنب الأسود,shop,hairdresser,24.8293939,46.6460823,,,,,,
محمصة الرفاعي,shop,spices,24.8235643,46.6552299,,,,https://alrifaisaudi.com,Mo-Sa 09:00-23:30,
دكتور ام,shop,optician,24.8233386,46.6554573,,,8008851021,https://doctor-m.com/sa-ar/,,
أوفر جار,shop,pastry,24.8233893,46.6555505,,,,,,
دايت سنتر,shop,health_food,24.8234159,46.6556525,,,+966920017373,https://www.dietcenter.com.sa,,
عالخفيف,shop,bakery,24.8234707,46.6557359,,,+966582964863,https://www.alkhafeef.com.sa,,
حلم الرشاقة,shop,health_food,24.823498,46.6557892,,,,,,
كازا باستا,shop,pasta,24.8235375,46.6558459,,,,,,
Sors,shop,bakery,24.7438984,46.6208107,,,+966 53 205 0085;+966 55 104 7144,https://order.sors.sa/menu,Mo-Su 12:00-01:00,
Sors,shop,bakery,24.7658054,46.6215456,,,+966 55 104 7144,https://order.sors.sa/menu,24/7,
Sors,shop,bakery,24.5689037,46.6563875,,,+966 53 500 2899;+966 55 104 7144,https://order.sors.sa/menu,Mo-Su 06:00-24:00,
Sors,shop,bakery,24.8446815,46.7573619,,,+966 50 893 6477;+966 55 104 7144,https://order.sors.sa/menu,Mo-Su 12:00-01:00,
Sors,shop,bakery,24.7647484,46.8038124,,,+966 53 050 2053;+966 55 104 7144,https://order.sors.sa/menu,Mo-Su 13:00-01:00,
Sors,shop,bakery,24.7958902,46.7785355,,,+966 53 367 9502;+966 55 104 7144,https://order.sors.sa/menu,Mo-Su 13:00-01:00,
ناشونل أويل ستوب,shop,car_repair,24.5702503,46.6561192,,,+966 9200 19923,https://nos-sa.com/,"Fr 14:00-22:00; Mo-Th,Sa-Su 08:00-23:30",
ناشونل أويل ستوب,shop,car_repair,24.870401,46.662004,,,+966 9200 19923,https://nos-sa.com/,"Fr 14:00-22:00; Mo-Th,Sa-Su 08:00-23:30",
ناشونل أويل ستوب,shop,car_repair,24.532137,46.706593,,,+966 9200 19923,https://nos-sa.com/,"Fr 14:00-22:00; Mo-Th,Sa-Su 08:00-23:30",
مغاسل الجبر,shop,laundry,24.7770937,46.6295852,,,,https://www.aljabrlaundry.com,,
عناية دنيا الأسرة,shop,cosmetics,24.6037272,46.7588693,,"Al Namas, Al Aziziyah, Riyadh 14511",+966596793301,,24/7,
مكتبة جرير,shop,books,24.7530446,46.6258119,مكتبة جرير,,,,,مكتبة جرير
كوره بلانت,shop,hifi,24.6984253,46.8545609,,عبدالرحمن بن تميرة,+966502334292,,24/7,
Azlah Travel & Tourim,shop,travel_agency,24.5787346,46.6483063,,Badiuzaman Al Hamdhani 12786,+966593658904,azlatravels.com,24/7,
Northwest Bus,shop,ticket,24.5967241,46.7478079,,,,https://nwbus.sa/en/homepage/,,
سابتكو,shop,ticket,24.596807,46.7480493,سابتكو,,,https://saptco.com.sa/en-us/homepage,,
درب الوطن,shop,ticket,24.5968606,46.7483121,درب الوطن,,,https://darbalwatan.com/en/,,
Looz & Jooz Grocery,shop,supermarket,24.8381543,46.7324688,,,,,,
Sephora,shop,cosmetics,24.841847,46.7333477,,,,,,Sephora
Urban Necessities,shop,clothes,24.7668373,46.6027053,,,,,,
Noon Store,shop,yes,24.7695482,46.6027014,,,,,,
H&M,shop,clothes,24.7691592,46.6026173,,,,,,H&M
Elite Boutique,shop,clothes,24.7692189,46.6027562,,,,,,
Al Nassr Football Club,shop,yes,24.7694168,46.6030069,,,,,,
Le Gray,shop,yes,24.7696399,46.6030774,,,,,,
Osma,shop,yes,24.7694652,46.6033833,,,,,,
1886,shop,yes,24.769276,46.6036825,,,,,,
The Midi,shop,yes,24.7691007,46.6033891,,,,,,
Virgin,shop,yes,24.7689833,46.6037072,,,,,,
Shelves,shop,yes,24.7691379,46.604066,,,,,,
Reefi,shop,yes,24.7691718,46.6039479,,,,,,
Aleph,shop,yes,24.7673355,46.6047851,,,,,,
MLW,shop,yes,24.7670511,46.6045222,,,,,,
XIX,shop,yes,24.7666908,46.6045509,,,,,,
Faces,shop,perfumery,24.7689011,46.603865,,,,,,
Machinist,shop,clothes,24.7691505,46.603129,,,,,,
Dalal Boutique,shop,yes,24.7672222,46.6031092,,,,,,
Candy Shop,shop,confectionery,24.7673186,46.6034546,,,,,,
Miniso,shop,variety_store,24.7670024,46.6033252,,,,,,Miniso
AEN,shop,yes,24.767192,46.6033173,,,,,,
Pan Home,shop,furniture,24.6677652,46.7828597,,,+966 800 302 8000,https://www.panhomestores.com/ksa_en,"Fr 14:00-24:00; Mo-Th,Sa-Su 10:00-23:00",
Aleidi Co. | شركة العيدي,shop,car_repair,24.708566,46.6865286,,المهندس مساعد العنقري 7341,+966 9200 13 922,,Mo-Su 08:00-22:00,
تموينات الطناج,shop,supermarket,24.7002183,46.6733743,,,,,,
ثمار بيروت,shop,greengrocer,24.7002557,46.6734584,,,,,,
Bake Stop Bakery مخابز بيك ستوب,shop,bakery,24.7005619,46.6741848,,,,,,
Abdullah Al-Othaim Markets417 أسواق العثيم,shop,supermarket,24.7534704,46.8052951,,,,,,
Saudi Systems For Travil,shop,travel_agency,24.7012972,46.6810641,,شارع العليا 8484,+966552058200,,Mo-Su 10:00-22:00,
Riyadh - Al-Rayyan,shop,car_parts,24.7233143,46.8089419,,,+966532097351,,,
Petromin Nissan,shop,car,24.570548,46.61329,,,+966 800 442 0010,https://www.petromin-nissan.com,"Mo-Th,Sa-Su 09:00-21:00",
Petromin Nissan,shop,car,24.7972698,46.6518819,,,+966 800 442 0010,https://www.petromin-nissan.com,"Mo-Th,Sa-Su 09:00-21:00",
Petromin Nissan,shop,car,24.703152,46.7446064,,,+966 800 442 0010,https://www.petromin-nissan.com,"Mo-Th,Sa-Su 09:00-21:00",
Sors,shop,bakery,24.5434342,46.6916264,,,+966 55 093 8954;+966 55 104 7144,https://order.sors.sa/menu,Mo-Su 13:00-01:00,
Sors,shop,bakery,24.7668966,46.70699,,,+966 53 503 4379,https://order.sors.sa/menu,Mo-Su 12:00-01:00,
Sors,shop,bakery,24.6615556,46.7267472,,,+966 50 951 4113;+966 55 104 7144,https://order.sors.sa/menu,Mo-Su 12:00-01:00,
Sors,shop,bakery,24.6349395,46.5639907,,,+966 50 942 5138;+966 55 104 7144,https://order.sors.sa/menu,Mo-Su 13:00-01:00,
Sors,shop,bakery,24.7640616,46.8030561,,,+966 50 982 6481;+966 55 104 7144,https://order.sors.sa/menu,Mo-Su 13:00-01:00,
Sors,shop,bakery,24.8007795,46.6487941,,,+966 53 106 8387;+966 55 104 7144,https://order.sors.sa/menu,Mo-Su 06:00-00:30,
Sors,shop,bakery,24.7387073,46.7605376,,,+966 55 104 7144,https://order.sors.sa/menu,Mo-Su 06:00-00:59,
ابهار,shop,supermarket,24.6012513,46.7533739,ابهار,الشباب 8246,+966532000156,https://www.eebhar.com/,08:00-22:00,ابهار
Beauty Basics Salon,shop,beauty,24.7718623,46.7627961,,"Abdallah Ibn Rashidan, Al Hamra",+966561278882,,Mo-Sa 13:00-22:00,
Unnamed,shop,bicycle,24.6814391,46.782194,,,,,,
Sors,shop,bakery,24.6543792,46.5705512,,,+966 53 503 4379,https://order.sors.sa/menu,Mo-Su 06:00-24:00,
بترومين,shop,car_repair,24.570382,46.6134882,بترومين,,+966 50 763 3796;+966 800 442 0010,https://www.petromin-nissan.com,"Mo-Th,Sa-Su 08:00-17:00",
بترومين,shop,car_repair,24.802737,46.7449753,بترومين,,+966 56 272 7077;+966 800 442 0010,https://www.petromin-nissan.com,"Mo-Th,Sa-Su 08:00-20:00",
بترومين,shop,car_repair,24.7027143,46.7448199,بترومين,,+966 55 617 1065;+966 800 442 0010,https://www.petromin-nissan.com,"Mo-Th,Sa-Su 08:00-20:00",
بترومين,shop,car_repair,24.674735,46.778323,,,+966 800 442 0010,https://www.petromin-nissan.com,"Mo-Th,Sa-Su 08:00-17:00",
Petromin Nissan,shop,car,24.6749178,46.778208,,,+966 800 442 0010,https://www.petromin-nissan.com,"Mo-Th,Sa-Su 09:00-21:00",
تموينات ومخابز بركات الديرة المركزية,shop,supermarket,24.6154757,46.6751777,,,,,24/7,
العثيم,shop,supermarket,24.6156615,46.6898427,,,,,,
Unnamed,shop,car_repair,24.6171991,46.6755891,,,,,,
Unnamed,shop,supermarket,24.6109223,46.6849708,,,,,,
Unnamed,shop,tyres,24.6119522,46.6739663,,,,,,
Unnamed,shop,car_repair,24.612014,46.6739915,,,,,,
ناشونل أويل ستوب,shop,car_repair,24.8195555,46.7960555,,,+966 9200 19923,https://nos-sa.com/en,"Fr 12:30-00:30; Mo-Th,Sa-Su 08:00-01:00",
ناشونل أويل ستوب,shop,car_repair,24.5600924,46.5625691,,,+966 9200 19923,https://nos-sa.com/en,"Fr 14:00-22:00; Mo-Th,Sa-Su 08:00-23:30",
ناشونل أويل ستوب,shop,car_repair,24.7165495,46.8269867,,,+966 9200 19923,https://nos-sa.com/en,"Fr 14:00-22:00; Mo-Th,Sa-Su 08:00-23:30",
Petromin,shop,car_repair,24.616399,46.6498053,,,+966 800 442 0020,https://petromin.express/,"Fr 16:00-22:00; Mo-Th,Sa-Su 08:00-23:30",
Petromin,shop,car_repair,24.7513717,46.6565791,,,+966 800 442 0020,https://petromin.express/,"Fr 16:00-22:00; Mo-Th,Sa-Su 08:00-23:30",
Petromin,shop,car_repair,24.579444,46.604056,,,+966 800 442 0020,https://petromin.express/,"Fr 16:00-22:00; Mo-Th,Sa-Su 08:00-23:30",
Petromin,shop,car_repair,24.8641322,46.6569561,,,+966 800 442 0020,https://petromin.express/,"Fr 16:00-22:00; Mo-Th,Sa-Su 08:00-23:30",
Petromin,shop,car_repair,24.714137,46.793969,,,+966 800 442 0020,https://petromin.express/,"Fr 16:00-22:00; Mo-Th,Sa-Su 08:00-23:30",
Petromin,shop,car_repair,24.7892768,46.8052232,,,+966 800 442 0020,https://petromin.express/,"Fr 16:00-22:00; Mo-Th,Sa-Su 08:00-23:30",
بترومين إكسبرس,shop,car_repair,24.6928782,46.732944,,,+966 800 442 0020,https://petromin.express/,"Fr 16:00-22:00; Mo-Th,Sa-Su 08:00-23:30",بترومين إكسبرس
دار حبكة للخياطة الرجالية,shop,tailor,24.7013792,46.6751067,,,,,,
خياط النقوة,shop,tailor,24.700733,46.6736175,,,,,,
مغسلة ملابس,shop,laundry,24.6996028,46.6709333,,,,,9am-11pm,
Unnamed,shop,yes,24.5700004,46.6692774,,,,,,
Unnamed,shop,yes,24.6132181,46.7597889,,,,,,
صالون دونا للتزيين النسائي,shop,beauty,24.6851224,46.6759244,,الأمير سلطان بن عبدالعزيز,,,,
العاب الزعيم,shop,video_games,24.685293,46.6763498,,الأمير سلطان بن عبدالعزيز,,,,
الشجاع للخضارة والفواكة,shop,greengrocer,24.6854313,46.6766993,,الأمير سلطان بن عبدالعزيز,,,,
تموينات الاعتزاز,shop,convenience,24.6853875,46.6766143,,الأمير سلطان بن عبدالعزيز,,,,
ستوديو,shop,photo,24.6854966,46.6768481,,الأمير سلطان بن عبدالعزيز,,,,
Kodak Express,shop,photo,24.6855596,46.6770113,,الأمير سلطان بن عبدالعزيز,,,,
حلاق وجهه اخر,shop,hairdresser,24.6856544,46.6772278,,الأمير سلطان بن عبدالعزيز,,,,
الفالح,shop,yes,24.6962486,46.6842186,,,,,,
العربية للعود,shop,yes,24.6950903,46.6846983,,,,,,
ليمون للأزياء,shop,yes,24.6947633,46.6849128,,,,,,
Unnamed,shop,supermarket,24.8393869,46.669968,,,,,,
Pan Home,shop,furniture,24.7371174,46.6880526,,,+966 800 302 8000,https://www.panhomestores.com/ksa_en,"Fr 15:00-24:00; Mo-Th,Sa-Su 10:00-23:00",
Universe Events,shop,yes,24.6368987,46.535371,,Al Taief,,,,
بترومين,shop,car_repair,24.8311479,46.7310977,بترومين,,+966 800 442 0020,https://petrominauto.care/,"Fr 15:00-21:00; Mo-Th,Sa-Su 08:00-21:30",شركة بترومين
بترومين,shop,car_repair,24.732407,46.789368,بترومين,,+966 800 442 0020,https://petrominauto.care/,"Mo-Th,Sa-Su 08:00-21:30",
ميد,shop,convenience,24.8386148,46.6766904,ميد,,,,,شركة ميد التجارية
كراج سكة لصيانة السيارات,shop,car_repair,24.7486703,46.6782778,,,,,,
مؤسسة خيول العوالي لبيع الإطارات والبطاريات,shop,car_repair,24.7486946,46.6784741,,,,,,
Shoe Land,shop,shoes,24.7331774,46.6757748,,,,,,
ميزان العضيب لصيانة السيارات,shop,car_repair,24.7499382,46.6699964,,الإمام سعود بن عبد العزيز بن محمد الفرعي,,,,
Petromin Commercial Vehicles Care,shop,car_repair,24.9795419,46.6887621,,,+966 55 523 6425,https://ntsc.sa/,"Mo-Th,Sa-Su 08:00-17:00",
Petromin Commercial Vehicles Care,shop,car_repair,24.6370557,46.7984051,,,+966 54 038 0934,https://ntsc.sa/,"Mo-Th,Sa-Su 08:00-17:00",
Petromin Diesel Express Service,shop,car_repair,24.6117678,46.8219353,,,+966 59 447 4329,https://ntsc.sa/,"Mo-Th,Sa-Su 08:00-17:00",
Petromin Diesel Express Service,shop,car_repair,24.4643315,46.4247581,,,+966 58 204 6933,https://ntsc.sa/,"Mo-Th,Sa-Su 08:00-17:00",
Petromin Diesel Express Service,shop,car_repair,24.607869,46.8309886,,,+966 59 058 1642,https://ntsc.sa/,"Mo-Th,Sa-Su 08:00-17:00",
Dettaglioauto,shop,car_repair,24.6853537,46.5736144,,,+966 9200 33582,https://dettaglioauto.sa,"Fr 16:00-22:00; Mo-Th,Sa-Su 10:00-14:00,15:00-22:00",
Dettaglioauto,shop,car_repair,24.7095371,46.6635918,,,+966 9200 33582,https://dettaglioauto.sa,"Fr 16:00-22:00; Mo-Th,Sa-Su 10:00-14:00,15:00-22:00",
Dettaglioauto,shop,car_repair,24.775138,46.7736536,,,+966 9200 33582,https://dettaglioauto.sa,"Fr 16:00-22:00; Mo-Th,Sa-Su 10:00-14:00,15:00-22:00",
Dettaglioauto,shop,car_repair,24.564437,46.626527,,,+966 9200 33582,https://dettaglioauto.sa,"Fr 16:00-22:00; Mo-Th,Sa-Su 10:00-14:00,16:00-22:00",
Dettaglioauto,shop,car_repair,24.7909667,46.6480619,,,+966 9200 33582,https://dettaglioauto.sa,"Fr 16:00-21:00; Mo-Th,Sa-Su 10:00-14:00,15:00-21:00",
Dettaglioauto,shop,car_repair,24.7248844,46.7794874,,,+966 9200 33582,https://dettaglioauto.sa,"Fr 16:00-22:00; Mo-Th,Sa-Su 09:00-13:00,16:00-22:00",
Dettaglioauto,shop,car_repair,24.7758586,46.6878782,,,+966 9200 33582,https://dettaglioauto.sa,"Fr 16:00-21:00; Mo-Th,Sa-Su 10:00-14:00,15:00-21:00",
Dettaglioauto,shop,car_repair,24.8431481,46.6048891,,,+966 9200 33582,https://dettaglioauto.sa,"Fr 16:00-22:00; Mo-Th,Sa-Su 10:00-14:00,15:00-22:00",
العنود بارك مول,shop,department_store,24.571976,46.7534462,,,,,,
أسواق التميمي,shop,supermarket,24.8588799,46.6468455,أسواق التميمي,,,,,أسواق التميمي
أحمد المغربي للعطور,shop,perfumery,24.6279225,46.7097151,,,+966 55 300 5379,https://www.ahmedalmaghribi.com,"Fr 16:00-23:00; Mo-Th,Sa-Su 09:30-11:30,15:00-23:00",
أحمد المغربي للعطور,shop,perfumery,24.8171137,46.7825908,,,+966 53 880 8916,https://www.ahmedalmaghribi.com,"Fr 16:00-23:00; Mo-Th,Sa-Su 10:00-23:00",
أحمد المغربي للعطور,shop,perfumery,24.7622276,46.7226245,,,+966 53 880 9204,https://www.ahmedalmaghribi.com,"Fr 16:00-23:00; Mo-Th,Sa-Su 10:00-23:00",
Balubaid auto,shop,car,24.567323,46.6197001,,,+966 800 760 6000,https://haval.balubaidauto.com,"Mo-Th,Sa-Su 08:30-12:30,16:00-20:30",Haval
اوتوزون,shop,car,24.7324831,46.7916996,اوتوزون,,+966 800 760 6000,https://autozone.com.sa/,"Mo-Th,Sa-Su 09:00-21:00",
اوتوزون,shop,car,24.567645,46.619625,,,+966 800 760 6000,https://haval.balubaidauto.com,"Mo-Th,Sa-Su 08:30-12:30,16:00-20:30",
ردتاغ,shop,clothes,24.7420228,46.6811388,ردتاغ,,+966 800 304 3113,https://sa.redtagfashion.com/,"Fr 14:00-23:30; Mo-Th,Sa-Su 09:30-23:30",
ردتاغ,shop,clothes,24.7444082,46.6577193,ردتاغ,,+966 800 304 3113,https://sa.redtagfashion.com/,"Fr 14:00-23:30; Mo-Th,Sa-Su 09:30-23:30",
ردتاغ,shop,clothes,24.6857534,46.7753004,ردتاغ,,+966 11 257 2652,https://sa.redtagfashion.com/,"Fr 14:00-23:30; Mo-Th,Sa-Su 09:30-23:30",
ردتاغ,shop,clothes,24.5590727,46.6377998,ردتاغ,,+966 800 304 3113,https://sa.redtagfashion.com/,"Fr 14:00-23:30; Mo-Th,Sa-Su 09:30-23:30",
ردتاغ,shop,clothes,24.7837978,46.7299256,ردتاغ,,+966 800 304 3113,https://sa.redtagfashion.com/,"Fr 14:00-23:30; Mo-Th,Sa-Su 09:30-23:30",
ردتاغ,shop,clothes,24.8286406,46.7281258,ردتاغ,,+966 800 304 3113,https://sa.redtagfashion.com/,"Fr 14:00-23:30; Mo-Th,Sa-Su 09:30-23:30",
ردتاغ,shop,clothes,24.7361382,46.6800576,ردتاغ,,+966 800 304 3113,https://sa.redtagfashion.com/,"Fr 14:00-23:30; Mo-Th,Sa-Su 09:30-23:30",
ردتاغ,shop,clothes,24.8079864,46.6625083,ردتاغ,,+966 800 304 3113,https://sa.redtagfashion.com/,"Fr 14:00-23:30; Mo-Th,Sa-Su 09:30-23:30",
ردتاغ,shop,clothes,24.779468,46.6883862,ردتاغ,,+966 800 304 3113,https://sa.redtagfashion.com/,"Fr 14:00-23:30; Mo-Th,Sa-Su 09:30-23:30",
ردتاغ,shop,clothes,24.830476,46.7473276,ردتاغ,,+966 800 304 3113,https://sa.redtagfashion.com/,"Fr 14:00-23:30; Mo-Th,Sa-Su 09:30-23:30",
نايس,shop,houseware,24.6052805,46.705793,نايس,,+966 800 304 1113,https://www.nice.com.sa,"Fr 14:00-24:00; Mo-Th,Sa-Su 09:00-24:00",
نايس,shop,houseware,24.7296132,46.7842296,نايس,,+966 800 304 1113,https://www.nice.com.sa,"Fr 14:00-24:00; Mo-Th,Sa-Su 09:00-24:00",
نايس,shop,houseware,24.8079379,46.6625073,نايس,,+966 800 304 1113,https://www.nice.com.sa,"Fr 14:00-24:00; Mo-Th,Sa-Su 09:00-24:00",
نايس,shop,houseware,24.7665117,46.6581684,نايس,,+966 800 304 1113,https://www.nice.com.sa,"Fr 14:00-24:00; Mo-Th,Sa-Su 09:00-24:00",
نايس,shop,houseware,24.6615044,46.7853856,نايس,,+966 800 304 1113,https://www.nice.com.sa,"Fr 14:00-24:00; Mo-Th,Sa-Su 09:00-24:00",
ردتاغ,shop,clothes,24.5845001,46.7806246,ردتاغ,,+966 800 304 3113,https://sa.redtagfashion.com/,"Fr 14:00-23:30; Mo-Th,Sa-Su 09:30-23:30",
ردتاغ,shop,clothes,24.7943216,46.7676283,ردتاغ,,+966 800 304 3113,https://sa.redtagfashion.com/,"Fr 14:00-23:30; Mo-Th,Sa-Su 09:30-23:30",
ردتاغ,shop,clothes,24.645374,46.5546029,ردتاغ,,+966 800 304 3113,https://sa.redtagfashion.com/,"Fr 14:00-23:30; Mo-Th,Sa-Su 09:30-23:30",
ردتاغ,shop,clothes,24.5783315,46.5766963,ردتاغ,,+966 800 304 3113,https://sa.redtagfashion.com/,"Fr 14:00-23:30; Mo-Th,Sa-Su 09:30-23:30",
ردتاغ,shop,clothes,24.8111904,46.8768542,ردتاغ,,+966 800 304 3113,https://sa.redtagfashion.com/,"Fr 14:00-23:30; Mo-Th,Sa-Su 09:30-23:30",
ردتاغ,shop,clothes,24.5618684,46.7062606,ردتاغ,,+966 800 304 3113,https://sa.redtagfashion.com/,"Fr 14:00-23:30; Mo-Th,Sa-Su 09:30-23:30",
ردتاغ,shop,clothes,24.680494,46.6534692,ردتاغ,,+966 800 304 3113,https://sa.redtagfashion.com/,"Fr 14:00-23:30; Mo-Th,Sa-Su 09:30-23:30",
ردتاغ,shop,clothes,24.6006408,46.6976292,ردتاغ,,+966 11 457 7359,https://sa.redtagfashion.com/,"Fr 14:00-23:30; Mo-Th,Sa-Su 09:30-23:30",
ردتاغ,shop,clothes,24.7255836,46.7778432,ردتاغ,,+966 11 235 1796,https://sa.redtagfashion.com/,"Fr 14:00-23:30; Mo-Th,Sa-Su 09:30-23:30",
ردتاغ,shop,clothes,24.5998872,46.6436417,ردتاغ,,+966 11 425 5980,https://sa.redtagfashion.com/,Mo-Su 14:00-23:30,
اوتوزون,shop,car,24.5675133,46.6197941,اوتوزون,,+966 800 760 6000,https://autozone.com.sa,"Mo-Th,Sa-Su 08:30-12:30,16:00-21:00",
Automax®,shop,car,24.8301443,46.836458,,Wadi Ad Dawasir Street,+966533077000,,10,Automax®
نايس,shop,houseware,24.7833202,46.7300278,نايس,,+966 800 304 1113,https://www.nice.com.sa,"Fr 14:00-24:00; Mo-Th,Sa-Su 09:00-24:00",
سبيكس للبصريات SPEX Optical,shop,optician,24.8016438,46.6011948,,Anas Bin Malik 13525,+966594937962,https://spexoptics.com/,24/7,
Tickets Check,shop,ticket,24.7343525,46.5758974,,,,,,
بترومين إكسبرس,shop,car_repair,24.7730631,46.5745532,,,+966 800 442 0020,https://petromin.express/,"Fr 16:00-23:00; Mo-Th,Sa-Su 08:00-23:30",بترومين إكسبرس
مؤسسة بحر الصلابة لقطع الغيار,shop,car_parts,24.5740631,46.8147409,,عمر بن العديم,,,,
Dettaglioauto,shop,car_repair,24.8344952,46.735056,,,+966 9200 33582,https://dettaglioauto.sa,"Fr 16:00-21:00; Mo-Th,Sa-Su 10:00-14:00,15:00-21:00",
Petromin,shop,car_repair,24.816321,46.665933,,,+966 800 442 0020,https://petromin.express/,"Fr 16:00-22:00; Mo-Th,Sa-Su 08:00-23:30",
Special Loaf Bakery,shop,bakery,24.7785507,46.6626891,,,,,Mo-Su 08:00-23:00,
حلاق لمسة القمة,shop,hairdresser,24.783112,46.6181718,,,,,,
مغسلة,shop,laundry,24.7832018,46.6181212,,,,,,
مغسلة ملابس,shop,laundry,24.784125,46.6180888,,,0536310157,,,
بترومين,shop,car_repair,24.8953113,46.6340515,بترومين,,+966 800 442 0020,https://petrominauto.care,"Mo-Th,Sa-Su 08:00-21:30",شركة بترومين
مقهى دوار المربع,shop,coffee,24.6581423,46.7049834,,الإمام عبدالله بن فيصل,+966 55 727 4336,https://menuhub.org/home/c9b384fe-ecc6-420d-991c-b6fbfe5174bb,Su-We 07:00-02:00; Th 07:00-03:00; Fr 11:00-03:00; Sa 09:00-02:00,
صالون الجمال في شعري,shop,beauty,24.8481251,46.6294282,,,+966503504133,,,
Dettaglioauto,shop,car_repair,24.6943779,46.6796505,,,+966 9200 33582,https://dettaglioauto.sa,"Fr 16:00-22:00; Mo-Th,Sa-Su 10:00-14:00,15:00-22:00",
Red Marble Market,shop,butcher,24.8334997,46.7344612,,,,,,
Baja,shop,nuts,24.7691951,46.6910821,باجة,,,,,
Trolley,shop,convenience,24.7491501,46.7001215,ترولي,,,,,
Patchi,shop,chocolate,24.5648956,46.575357,,,,,,
أسواق التميمي,shop,supermarket,24.5650373,46.5753527,أسواق التميمي,,,,,أسواق التميمي
العالم الافتراضي,shop,games,24.7799559,46.6669628,,,,https://virtualworldsa.com/,,
باتشي,shop,chocolate,24.7695878,46.7116308,,طريق عثمان بن عفان الفرعي,,,,
مكتبة الرشد,shop,books,24.7695456,46.7116471,,,,,,
كارميه,shop,chocolate,24.769301,46.7117778,,,,,,
باجة,shop,nuts,24.7720579,46.7103152,,,,,,
حلويات سعد الدين,shop,pastry,24.7721064,46.7102956,,,,https://www.saadeddin.com.sa,,
تاوة,shop,chocolate,24.7719973,46.7103462,,,,,,
جزيل,shop,chocolate,24.7695197,46.711668,,,,,,
Unnamed,shop,convenience,24.7605386,46.692733,,,,,,
مكتبة شليا,shop,stationery,24.7656108,46.6829217,,,,,,
سكربزر,shop,clothes,24.7619209,46.6848194,,,,,,
الماسة المصيف,shop,dry_cleaning,24.7610609,46.684807,,,,,,
تموينات لنا,shop,grocery,24.6988303,46.8107968,,اسطنبول,0112358775,,24/7,
Noon Minutes,shop,convenience,24.7602663,46.6728389,,,,,,
اجهزة طبية,shop,medical_supply,24.761495,46.672295,,,,,,
داش كاك السعودية,shop,camera,24.7616011,46.6722299,,,,,,
زيبارت,shop,car_repair,24.7603781,46.672795,,,,,,
اشلي,shop,furniture,24.7879662,46.6814772,,,,,,
عالم التسوق,shop,general,24.7012086,46.7715878,,,,,,
بحر الأسعار,shop,general,24.7018601,46.7713397,,,,,,
بحر الأسعار,shop,general,24.5812317,46.611353,,,,,,
دهانات الجزيرة,shop,paint,24.7530159,46.6765431,,,,,,
أسواق الجزيرة هايبرماركت,shop,supermarket,24.7560321,46.6838225,,,,https://al-jazera.sa/,,أسواق-الجزيرة
مكتبة الفوائد,shop,stationery,24.762511,46.6772266,مكتبة الفوائد,,,,,
للمفاتيح,shop,locksmith,24.762457,46.6771066,,,,,,
Volvo,shop,car,24.7324618,46.7892211,,,,,,Volvo
Unnamed,shop,chocolate,24.7477691,46.662307,,,,,,Patchi
Masdar Technical Supplies,shop,hardware,24.6345494,46.7602533,مصدر للتجهيزات الفنية,,+966 54 246 7711,https://masdar.co,"Mo-Th,Sa-Su 07:30-12:00,14:00-18:30",
Masdar Technical Supplies,shop,hardware,24.8400763,46.6066378,مصدر للتجهيزات الفنية,,+966 54 767 5351,https://masdar.co,"Mo-Th,Sa-Su 07:30-12:00,14:00-18:30",
Masdar Technical Supplies,shop,hardware,24.6428484,46.7247355,مصدر للتجهيزات الفنية,,+966 54 246 7711,https://masdar.co,"Mo-Th,Sa-Su 07:30-12:00,14:00-18:30",
Masdar,shop,doityourself,24.8444454,46.7569971,مصدر,,+966 11 829 3333,https://masdar.co,"Mo-Th,Su 08:00-17:00",
Masdar,shop,doityourself,24.653292,46.8015379,مصدر,,+966 55 537 7061,https://masdar.co,"Mo-Th,Sa-Su 07:00-12:00,14:30-17:30",
Masdar,shop,doityourself,24.5318199,46.7184055,مصدر,,+966 53 904 3215,https://masdar.co,"Mo-Th,Sa-Su 07:00-12:00,14:30-17:30",
Masdar,shop,doityourself,24.6419512,46.7524856,مصدر,,+966 11 446 9987,https://masdar.co,"Mo-Th,Sa-Su 07:00-12:00,14:30-17:30",
Masdar,shop,doityourself,24.8695861,46.6394647,مصدر,,+966 53 552 9495,https://masdar.co,"Mo-Th,Sa-Su 07:00-17:00",
Masdar,shop,doityourself,24.5556719,46.5183824,مصدر,,+966 50 007 6441,https://masdar.co,"Mo-Th,Sa-Su 07:00-17:00",
Masdar,shop,doityourself,24.828402,46.8219441,مصدر,,+966 55 223 8333,https://masdar.co,"Mo-Th,Sa-Su 07:00-17:00",
Masdar,shop,doityourself,24.6003774,46.8190044,مصدر,,+966 50 171 0098,https://masdar.co,"Mo-Th,Sa-Su 07:00-16:00",
Petromin,shop,car_repair,24.787483,46.7069127,,,+966 800 442 0020,https://petromin.express,"Mo-Th,Sa-Su 08:00-23:00",
Petromin,shop,car_repair,24.8176748,46.7536383,,,+966 800 442 0020,https://petromin.express,"Mo-Th,Sa-Su 08:00-23:00",
Petromin,shop,car_repair,24.7044469,46.8348133,,,+966 800 442 0020,https://petromin.express,"Mo-Th,Sa-Su 08:00-23:00",
Petromin,shop,car_repair,24.8617887,46.6304022,,,+966 800 442 0020,https://petromin.express,"Mo-Th,Sa-Su 08:00-23:00",
Petromin,shop,car_repair,24.8426894,46.7499615,,,+966 800 442 0020,https://petromin.express,"Mo-Th,Sa-Su 08:00-23:00",
Petromin,shop,car_repair,24.8136944,46.8978889,,,+966 800 442 0020,https://petromin.express,"Mo-Th,Sa-Su 08:00-23:00",
Petromin,shop,car_repair,24.8470649,46.7822092,,,+966 800 442 0020,https://petromin.express,"Mo-Th,Sa-Su 08:00-23:00",
Petromin,shop,car_repair,24.5390131,46.7242796,,,+966 800 442 0020,https://petromin.express,"Mo-Th,Sa-Su 08:00-23:00",
Petromin,shop,car_repair,24.7104703,46.8196213,,,+966 800 442 0020,https://petromin.express,"Mo-Th,Sa-Su 08:00-23:00",
Petromin,shop,car_repair,24.683671,46.830449,,,+966 800 442 0020,https://petromin.express,"Mo-Th,Sa-Su 08:00-23:00",
Petromin,shop,car_repair,24.7421299,46.8034154,,,+966 800 442 0020,https://petromin.express,"Mo-Th,Sa-Su 08:00-23:00",
Petromin,shop,car_repair,24.887907,46.8552527,,,+966 800 442 0020,https://petromin.express,"Fr 16:00-22:00; Mo-Th,Sa-Su 08:00-23:30",
Petromin,shop,car_repair,24.8062723,46.8411273,,,+966 800 442 0020,https://petromin.express,"Fr 16:00-22:00; Mo-Th,Sa-Su 08:00-23:30",
Petromin,shop,car_repair,24.9044891,46.6013781,,,+966 800 442 0020,https://petromin.express,"Fr 16:00-22:00; Mo-Th,Sa-Su 08:00-23:30",
Petromin,shop,car_repair,24.9340649,46.7882901,,,+966 800 442 0020,https://petromin.express,"Fr 16:00-22:00; Mo-Th,Sa-Su 08:00-23:30",
Petromin,shop,car_repair,24.8260748,46.6372123,,,+966 800 442 0020,https://petromin.express,"Fr 16:00-22:00; Mo-Th,Sa-Su 08:00-23:30",
Petromin,shop,car_repair,24.7787447,46.7834303,,,+966 800 442 0020,https://petromin.express,"Fr 16:00-22:00; Mo-Th,Sa-Su 08:00-23:30",
Petromin,shop,car_repair,24.5550717,46.5956589,,,+966 800 442 0020,https://petromin.express,"Fr 16:00-22:00; Mo-Th,Sa-Su 08:00-23:30",
Petromin,shop,car_repair,24.5530322,46.7235715,,,+966 800 442 0020,https://petromin.express,"Fr 16:00-22:00; Mo-Th,Sa-Su 08:00-23:30",
Petromin,shop,car_repair,24.7335501,46.8037482,,,+966 800 442 0020,https://petromin.express,"Fr 16:00-22:00; Mo-Th,Sa-Su 08:00-23:30",
Petromin,shop,car_repair,24.8212228,46.8008122,,,+966 800 442 0020,https://petromin.express,"Fr 16:00-22:00; Mo-Th,Sa-Su 08:00-23:30",
Petromin,shop,car_repair,24.8695785,46.6174525,,,+966 800 442 0020,https://petromin.express,"Fr 16:00-22:00; Mo-Th,Sa-Su 08:00-23:30",
Petromin,shop,car_repair,24.8357479,46.8336165,,,+966 800 442 0020,https://petromin.express,"Fr 16:00-22:00; Mo-Th,Sa-Su 08:00-23:30",
Petromin,shop,car_repair,24.880996,46.650905,,,+966 800 442 0020,https://petromin.express,"Fr 16:00-22:00; Mo-Th,Sa-Su 08:00-23:30",
Petromin,shop,car_repair,24.7664095,46.6110313,,,+966 800 442 0020,https://petromin.express,"Fr 16:00-22:00; Mo-Th,Sa-Su 08:00-23:30",
Petromin,shop,car_repair,24.6328574,46.7377066,,,+966 800 442 0020,https://petromin.express,"Fr 16:00-22:00; Mo-Th,Sa-Su 08:00-23:30",
Lulu,shop,supermarket,24.5545692,46.5168495,,,,,,
Othaim,shop,supermarket,24.5564308,46.4999504,,,,,,
لومي,shop,car,24.8295922,46.8346994,لومي,,+966 9200 28428,https://lumirental.com,"Mo-Th,Sa-Su 08:00-17:00",
أجهزة مصدر,shop,hardware,24.6402885,46.7477381,,,+966 53 552 2017,https://masdar.co,"Mo-Th,Sa-Su 07:00-12:00,14:00-17:30",
أجهزة مصدر,shop,hardware,24.6855438,46.6747714,,,+966 53 554 4625,https://masdar.co,"Mo-Th,Sa-Su 08:00-21:30",
أجهزة مصدر,shop,hardware,24.7561333,46.767284,,,+966 53 554 4279,https://masdar.co,"Mo-Th,Sa-Su 08:00-12:00,16:00-21:00",
أجهزة مصدر,shop,hardware,24.5403937,46.7202478,,,+966 11 423 6195,https://masdar.co,"Mo-Th,Sa-Su 07:30-12:00,15:30-19:00",
أجهزة مصدر,shop,hardware,24.8176444,46.6450149,,,+966 53 554 5308,https://masdar.co,"Mo-Th,Sa-Su 08:00-21:30",
Saudia Experience Store,shop,travel_agency,24.8450521,46.7348143,,,,,,
شاي سلمة,shop,tea,24.698574,46.7495542,,,,,,
EuroMarche,shop,supermarket,24.7063461,46.663477,,,,,,
سنتريا مول,shop,mall,24.697562,46.6838378,سنتريا مول,,,,,
العليا مول,shop,mall,24.7143717,46.6736583,العليا مول,العليا,,,,
العليا مول,shop,mall,24.7138432,46.6723957,العليا مول,طريق الملك فهد,,,,
بانوراما مول,shop,mall,24.6923775,46.6693654,,,,,,
الرياض جاليري,shop,mall,24.7431869,46.6583402,الرياض جاليري,,,,,
Al Morsalat Mobile market,shop,mobile_phone,24.7471044,46.6842986,,,,,,
الفيصلية مول,shop,mall,24.6895259,46.685586,الفيصلية مول,Olaya Street,,,,
Unnamed,shop,mall,24.7236067,46.7561594,,,,,,
أول بلازا,shop,mall,24.6763783,46.676384,,أبي حدرية,,,,
ايكيا,shop,furniture,24.6592246,46.7874078,,,,,,IKEA
بندة,shop,supermarket,24.6937901,46.7275439,,,,,,
Alohali,shop,car,24.7496545,46.816929,,,,,,
Zahid,shop,car,24.7483473,46.8145758,,,,,,
JAK motors,shop,car,24.750223,46.8176517,,,,,,
Subaru - Al Yemni ISUZU,shop,car,24.7505005,46.8181558,,,,,,
شركة عبد اللطيف جميل المحدودة - تويوتا,shop,car,24.7484118,46.8179443,,,,,,
Jaguar,shop,car,24.7514709,46.8238878,,,,,,
Aldrees,shop,supermarket,24.7471541,46.8156773,,,,,,
Unnamed,shop,supermarket,24.752123,46.8191272,,,,,,
great wall motors,shop,car,24.7509289,46.8188313,,,,,,
العثيم مول فرع طريق خريص,shop,mall,24.750433,46.8224695,,طريق خريص,,,,
رمال مول,shop,mall,24.6589566,46.782883,,,,,,
مركز غرناطة,shop,mall,24.7818052,46.7312297,مركز غرناطة,,,,,
هايبربنده النخيل,shop,supermarket,24.7439855,46.621166,,,,,,
القصر مول,shop,mall,24.6002116,46.6977166,,,,,,
أسواق الراجحي,shop,general,24.5870807,46.6660213,,,,,,
Unnamed,shop,convenience,24.7206778,46.6413586,,,,,,
مرجان السعودية,shop,mall,24.6524928,46.7944434,,,,,,
صحارى مول,shop,mall,24.738745,46.6827349,,King Abdulaziz Road,,,,
سلام مول,shop,mall,24.558271,46.6373095,,,,,,
فلامنجو,shop,mall,24.5630782,46.6452218,فلامنجو,,,,,
القرية الشعبية,shop,mall,24.5838667,46.5858059,,,,,,
بنده,shop,supermarket,24.5791378,46.5845042,بنده,,,,,بنده
التميمي,shop,supermarket,24.5901824,46.6224737,التميمي,,,,,
سوق الرياض الدولي,shop,mall,24.5954891,46.6327709,,,,,,
Al Shoalah Commercial Center,shop,mall,24.6763679,46.719083,,,,,,
شركة عبداللطيف جميل للسيارات,shop,yes,24.57103,46.6649412,,شارع عائشة بنت أبي بكر,,,"Mo-Su 09:00-12:00, 15:00-22:00",
مركز المملكة,shop,mall,24.7113647,46.6743563,مركز المملكة,الملك فهد,,,,
Alothaim,shop,supermarket,24.7582382,46.6634138,,,,,,
الهرم بلازا,shop,supermarket,24.6676042,46.7820523,,,,,,
Unnamed,shop,yes,24.5687095,46.8385944,,,,,,
Unnamed,shop,yes,24.5696218,46.8371514,,,,,,
Unnamed,shop,yes,24.5610041,46.8487581,,,,,,
سوق السمك,shop,supermarket,24.6502321,46.7087388,,,,,,
أسواق التميمي,shop,supermarket,24.8192344,46.686289,أسواق التميمي,,,,,أسواق التميمي
Unnamed,shop,yes,24.7252475,46.6916492,,,,,,
Unnamed,shop,car_repair,24.7177948,46.75912,,,,,,
Unnamed,shop,car,24.704445,46.7440272,,,,,,
Unnamed,shop,car,24.7019572,46.740211,,,,,,
Unnamed,shop,supermarket,24.8109896,46.8767407,,,,,,
Unnamed,shop,mall,24.7967302,46.8039848,,,,,,
Unnamed,shop,mall,24.7990281,46.8143318,,,,,,
Unnamed,shop,car_repair,24.7520553,46.8376703,,,,,,
Unnamed,shop,car_repair,24.7527576,46.8359995,,,,,,
Unnamed,shop,car_repair,24.7533939,46.8367002,,,,,,
Unnamed,shop,car_repair,24.7524898,46.8369343,,,,,,
Unnamed,shop,car_repair,24.7530985,46.8375145,,,,,,
Unnamed,shop,car_repair,24.7532559,46.8381519,,,,,,
Unnamed,shop,car_repair,24.7525979,46.8352848,,,,,,
Unnamed,shop,car_repair,24.7540989,46.8367047,,,,,,
Unnamed,shop,car_repair,24.7534973,46.8390436,,,,,,
Unnamed,shop,supermarket,24.7236052,46.8559692,,,,,,
Unnamed,shop,car_repair,24.5953489,46.7349517,,,,,,
مركز بن سليمان التجاري,shop,mall,24.6338492,46.7159281,,,,,,
سوبر ماركت الجزيرة,shop,supermarket,24.6108841,46.7296967,,,,,,
سوبر ماركت بندة,shop,supermarket,24.612545,46.7270779,,,,,,
العثيم,shop,supermarket,24.6198105,46.7449709,,,,,,
فلاجيو,shop,mall,24.6462072,46.7172771,,,,,,
ركن العثيم,shop,supermarket,24.6498254,46.7060765,,,,,,
بندة,shop,supermarket,24.7776933,46.7101341,,,,,,
الحمراء مول,shop,mall,24.7740075,46.7762441,,,,,,
اليرموك بلازا,shop,mall,24.8117506,46.7700808,,,,,,
بنده,shop,supermarket,24.8172523,46.7825738,,,,,,
Unnamed,shop,mall,24.8191462,46.7748173,,,,,,
Al-Farisi Plaza الفارسي بلازا,shop,mall,24.8196834,46.772496,,,,,,
Atyaf Mall,shop,mall,24.7934571,46.7672199,,طريق الإمام عبد الله بن سعود بن عبد العزيز 2978,,,,
النخيل مول,shop,mall,24.7667883,46.7158237,,,,,,
Unnamed,shop,mall,24.8097886,46.7782508,,,,,,
Unnamed,shop,mall,24.8095369,46.7783685,,,,,,
Unnamed,shop,mall,24.8093078,46.7784813,,,,,,
Unnamed,shop,mall,24.8090489,46.7786142,,,,,,
Unnamed,shop,mall,24.6290002,46.5364429,,,,,,
Unnamed,shop,mall,24.6290474,46.5364315,,,,,,
Unnamed,shop,supermarket,24.6304956,46.5390748,,,,,,
Unnamed,shop,mall,24.8200134,46.7728888,,,,,,
Unnamed,shop,car_repair,24.6316202,46.8922532,,,,,,
Petromin,shop,car_repair,24.7958615,46.7974162,,,+966 800 442 0020,https://petromin.express/,"Fr 16:00-22:00; Mo-Th,Sa-Su 08:00-23:30",
أسواق التميمي,shop,supermarket,24.7798703,46.7886247,,طريق الملك عبدالله,,,24/7,
سوق الأندلس,shop,mall,24.7190549,46.6714295,,العليا,,,,
AL DARAAN TRADING COMPANY,shop,supermarket,24.6537123,46.8147638,,,,,Mo-Su 06:00-24:00,
Unnamed,shop,supermarket,24.8053678,46.780358,,,,,,
خريص مول khurais mall,shop,mall,24.7381287,46.7975886,,,,,,
بقلة,shop,supermarket,24.8567301,46.6374679,,,,,,
بارك افنيو مول,shop,mall,24.8275226,46.7283884,,Saeed Bin Zaid,,,,
السدحان شبرا,shop,mall,24.5708895,46.6664032,,,,,,
العثيم مول,shop,mall,24.6844378,46.7749594,,,,,,
بندة,shop,supermarket,24.8066591,46.6926338,,,,,,
Unnamed,shop,garden_centre,24.9963469,46.5463389,,,,,,
الخليج مول,shop,mall,24.6960308,46.7285387,,,,,,
مارينا مول,shop,mall,24.7448584,46.6605057,مارينا مول,العليا,,,,
الرياض بارك,shop,mall,24.7567673,46.6298724,,,,,10:00-23:00,
Unnamed,shop,mall,24.7527549,46.5849551,,,,,,
Unnamed,shop,mall,24.6159678,46.707788,,,,,,
Unnamed,shop,storage_rental,24.6078442,46.7680873,,,,,,
Unnamed,shop,mall,24.6297882,46.7187294,,,,,,
مركز سويقة التجاري,shop,mall,24.6317355,46.7146327,مركز سويقة التجاري,,,,,
لولو هايبر ماركت,shop,mall,24.6639931,46.7037876,,الامير فيصل بن تركي بن عبد العزيز,+966597770111,https://www.luluhypermarket.com/en-ae/,Sa-Th 08:00-24:00; Fr 12:30-24:00,
هايبر نستو,shop,mall,24.5984595,46.7478321,,Siuthern Ring Road,+966505114130,http://www.nestoksa.com,Mo-Su 08:00-00:00,
مستودعات شركة الجميح للسيارات,shop,storage_rental,24.7228211,46.7829485,,,,,,
أسواق الرشيد,shop,mall,24.6931396,46.8080104,,,,,,
رويال مول,shop,mall,24.7235683,46.664558,,King Fahad Rd,,,,
Al-Tamimi,shop,supermarket,24.7907725,46.6490995,,,,,24/7,
الدانوب,shop,supermarket,24.5927627,46.6218476,الدانوب,,,,,
أسواق التميمي,shop,supermarket,24.7414499,46.603357,أسواق التميمي,,,,24/7,أسواق التميمي
مركز خدمة فورد,shop,car_repair,24.5808727,46.6125241,,,,,,
بنده,shop,supermarket,24.5870668,46.624746,,,,,,
العيسى للسيارات,shop,car,24.5680267,46.6551587,,,,,,
تودو,shop,yes,24.6029771,46.6292642,,,,,,
Al Othaim,shop,supermarket,24.6982461,46.8213788,العثيم,,,,,
مجمع ريماس الرياض,shop,mall,24.5767597,46.632273,,,,,,
سوق الخضار,shop,greengrocer,24.5807219,46.5883841,,,,,,
Olaya Specialized Computer services,shop,computer,24.681358,46.6908538,,,,,,
eXtra Store,shop,electronics,24.6630679,46.7858471,,East Ring Road,,https://www.extrastores.com,,
أسواق المجد,shop,mall,24.6803566,46.7759659,,,,,,
مركز التعمير,shop,mall,24.6273339,46.7073976,,,,,,
Unnamed,shop,yes,24.6966758,46.8171865,,,,,,
سوق عتيقة للخضار والفواكة والتمور,shop,greengrocer,24.6028258,46.7090737,,,,,,
محطة الدريس,shop,general,24.7455295,46.5801772,,,,,,
Unnamed,shop,greengrocer,24.7454081,46.5793317,,,,,,
أسواق عبد الله العثيم,shop,supermarket,24.745181,46.5794471,أسواق عبد الله العثيم,,(+966) 92 0000 702,https://www.othaimmarkets.com/,,أسواق عبد الله العثيم
Snowball Barbers,shop,beauty,24.7438598,46.5798652,,,,,,
Grocery store,shop,supermarket,24.7426302,46.5803736,,,,,,
Unnamed,shop,paint,24.745435,46.5789681,,,,,,
ميل فوي بيكري Mille Feuille Bakery,shop,bakery,24.7460143,46.5790609,,,,,,
Unnamed,shop,art,24.7479108,46.5718389,,,,,,
Unnamed,shop,supermarket,24.747361,46.5710633,,,,,,
Unnamed,shop,hairdresser,24.7454387,46.5713497,,,,,,
Unnamed,shop,electronics,24.7442746,46.5716215,,,,,,
gas filling dirriyah,shop,gas,24.7521508,46.5795411,,,,,,
التخصصي بلازا,shop,mall,24.666117,46.6834058,,,,,,
U Walk,shop,mall,24.7383777,46.62882,,,,,,
Unnamed,shop,gas,24.5907745,46.6006799,,,,,,
العصيمي للغاز,shop,gas,24.6011841,46.6280135,,,,,,
العصيمي للغاز,shop,gas,24.5924112,46.6245822,,,,,,
ساكو,shop,mall,24.5779176,46.6059022,,,,,,
Unnamed,shop,outdoor,24.767139,46.7557748,,,,,,
Unnamed,shop,outdoor,24.763307,46.7457763,,,,,,
Unnamed,shop,fuel,24.8303332,46.7471226,,,,,,
شركة الجميح للسيارات,shop,car,24.7195575,46.7722208,,,,,,
مبنى 24,shop,computer,24.7562427,46.691491,,,,,,
مبنى 26,shop,mobile_phone,24.7564318,46.6919401,,,,,,
أسواق عبد الله العثيم,shop,supermarket,24.594993,46.6357612,أسواق عبد الله العثيم,,,,Mo-Su 07:00-02:00,أسواق عبد الله العثيم
بحر الاسعار المونسية,shop,variety_store,24.8307332,46.7891394,,"An Najah, Al Munsiyah,",+966591159925,https://pricessea.com/,All week 9:15am to 11:50pm,
التسوق الذكي الثمامه,shop,mall,24.8413156,46.747623,,"Ath Thumamah Rd, Al Munsiyah",,,Mo-Fr 09:00-23:50,
Almanea,shop,appliance,24.8216864,46.7891609,,"Dammam Branch Rd, Al Yarmuk",+966920008171,https://almanea.sa/,Mo-Fr 09:00-23:50,
Alam Al Hazazy,shop,variety_store,24.8220486,46.7899393,,"Dammam Branch Rd, Al Munsiyah",+966554776887,,09:00-23:50,
Carrefour,shop,supermarket,24.6853972,46.5824534,,,,,,Carrefour
واجهه الرياض,shop,mall,24.8414296,46.7331576,,,,,,
مساعدة من أجلك H4u,shop,computer,24.6367327,46.5486488,,Najran,+966581493656,https://www.instagram.com/h.4u0/,,
Unnamed,shop,greengrocer,24.5807249,46.5885165,,,,,,
وسم العود,shop,perfumery,24.7703773,46.7666088,,الملك عبدالله 1,,,Mo-Su 16:00-23:00,
مساعدة من أجلك H4u,shop,computer,24.6538824,46.5921572,,Al Taief,+966581493656,https://www.instagram.com/h.4u0/,24/7,
Unnamed,shop,car_repair,24.8509175,46.5757811,,,,,,
Unnamed,shop,car_repair,24.8507381,46.5758898,,,,,,
Unnamed,shop,car_repair,24.8516958,46.5776239,,,,,,
Unnamed,shop,car_repair,24.8515222,46.5777195,,,,,,
Unnamed,shop,car_repair,24.8518178,46.576429,,,,,,
Unnamed,shop,car_repair,24.8522922,46.5775196,,,,,,
Unnamed,shop,car_repair,24.8522357,46.5753537,,,,,,
Unnamed,shop,car_repair,24.8531836,46.5773804,,,,,,
Unnamed,shop,car_repair,24.8540096,46.5769732,,,,,,
Unnamed,shop,car_repair,24.8544949,46.5759929,,,,,,
Unnamed,shop,car_repair,24.8533,46.5780051,,,,,,
Unnamed,shop,car_repair,24.8551906,46.5770864,,,,,,
Unnamed,shop,car_repair,24.8575006,46.5756152,,,,,,
ايكيا,shop,furniture,24.8471531,46.7635688,,,,,,IKEA
بنده,shop,supermarket,24.8362105,46.6793608,بنده,,,,,بنده
بنده,shop,supermarket,24.6395822,46.6932523,بنده,,,,,بنده
Unnamed,shop,supermarket,24.774055,46.8029568,,,,,,
Unnamed,shop,supermarket,24.7746054,46.8012243,,,,,,
Unnamed,shop,car_repair,24.7731781,46.8034196,,,,,,
Unnamed,shop,baby_goods,24.7730107,46.8037333,,,,,,
Unnamed,shop,chemist,24.7720994,46.8043827,,,,,,
الدانوب,shop,supermarket,24.8232656,46.6550625,,,8002442225,https://danube.sa,Mo-Sa 07:00-02:00,Danube
Unnamed,shop,mall,24.7384742,46.6460096,,,,,Mo-Su 08:00-22:00,
Unnamed,shop,mall,24.7381142,46.6459617,,,,,Mo-Su 06:00-22:00,
Unnamed,shop,mall,24.7384031,46.6457998,,,,,Mo-Su 06:00-22:00,
Unnamed,shop,mall,24.738688,46.6456558,,,,,Mo-Su 06:00-22:00,
Unnamed,shop,mall,24.7310709,46.6474983,,,,,Mo-Su 06:00-22:00,
Unnamed,shop,mall,24.7315518,46.6473545,,,,,Mo-Su 06:00-22:00,
Unnamed,shop,mall,24.7317399,46.6478237,,,,,Mo-Su 06:00-22:00,
Unnamed,shop,mall,24.7306948,46.6478077,,,,,Mo-Su 06:00-22:00,
Unnamed,shop,mall,24.7309058,46.6482841,,,,,Mo-Su 06:00-22:00,
Unnamed,shop,mall,24.7313009,46.6493304,,,,,Mo-Su 06:00-22:00,
Unnamed,shop,mall,24.7319885,46.6483204,,,,,Mo-Su 06:00-22:00,
Unnamed,shop,mall,24.7322187,46.6488509,,,,,Mo-Su 06:00-22:00,
Unnamed,shop,mall,24.7313207,46.6480272,,,,,Mo-Su 06:00-22:00,
Unnamed,shop,mall,24.7316939,46.6489016,,,,,Mo-Su 06:00-22:00,
Unnamed,shop,mall,24.8175152,46.6645092,,,,,,
العثيم,shop,supermarket,24.7920147,46.6999249,العثيم,,,https://www.othaimmarkets.com/?___web=,,
عالم ساكو,shop,hardware,24.7696312,46.6641955,,,,,,
عالية بلازا,shop,mall,24.8083713,46.6694056,,,,,,
الياسمين بلازا,shop,mall,24.823774,46.6562539,,,,,,
الموسى,shop,convenience,24.7012692,46.674677,,,,,,
Huawei,shop,mobile_phone,24.6964846,46.6851896,,,,,,Huawei
بنشر قطرة زيت,shop,car_repair,24.6774672,46.6839183,,,,,,
Banna corner ركن بنى,shop,beauty,24.8319129,46.6497649,,No. 192,,,,
اسواق عبدالله العثيم,shop,supermarket,24.8140682,46.6588393,,شارع الفجر,,,,
Unnamed,shop,coffee,24.8078794,46.6633443,,Al Thumamah Road,,,,
Unnamed,shop,gas,24.6708686,46.7363586,,الاحساء,,,,
هايبر نستو,shop,supermarket,24.6700321,46.7384467,,الشيخ صالح بن غصون,,,,
ميد,shop,convenience,24.6607963,46.7347491,ميد,شارع وادي حوران,,,,شركة ميد التجارية
بترومين إكسبرس,shop,car_repair,24.8385674,46.6765336,بترومين إكسبرس,,,,,بترومين إكسبرس
شركة عبداللطيف جميل,shop,car,24.6994178,46.7397592,,طريق مكة المكرمة الفرعي,,,,
شركة عبدالطيف جميل,shop,car,24.6998289,46.7404023,,طريق مكة المكرمة الفرعي,,,,
معرض الحاج علي حسين رضا وشركاه المحدودة,shop,car,24.7005353,46.7413453,,طريق مكة المكرمة الفرعي,,,,
Unnamed,shop,convenience,24.7014619,46.7421243,,طريق مكة المكرمة الفرعي,,,,
مكتبة جرير,shop,books,24.6888858,46.7336808,مكتبة جرير,طريق الاحساء,,,,مكتبة جرير
أسواق التميمي,shop,supermarket,24.6898173,46.7334502,أسواق التميمي,سيف الدولة الحمداني,,,,أسواق التميمي
أسواق المزرعة,shop,supermarket,24.832399,46.7448108,,,,,,
Unnamed,shop,car_repair,24.7194615,46.6806682,,,,,,
Unnamed,shop,car_repair,24.751255,46.6565195,,Al Olaya,,,,
Unnamed,shop,car_repair,24.7514454,46.6567702,,Al Olaya,,,,
Unnamed,shop,convenience,24.7515461,46.6566239,,Al Olaya,,,,
Unnamed,shop,car_repair,24.7562195,46.6588308,,الأمير تركي بن عبدالعزيز الثاني,,,,
Unnamed,shop,car_repair,24.7562873,46.6589982,,الحفصيون,,,,
قرية صويلح,shop,mall,24.7515674,46.6739028,,الإمام سعود بن عبد العزيز بن محمد الفرعي,,,,
Unnamed,shop,car,24.7806255,46.6963647,,,,,,
Unnamed,shop,convenience,24.7322209,46.6728517,,عبدالقادر الجزائري,,,,
Unnamed,shop,car_repair,24.7324803,46.6727367,,,,,,
Unnamed,shop,car_repair,24.7324856,46.6730398,,أبي مسحل,,,,
Unnamed,shop,car_repair,24.7325651,46.6729445,,أبي مسحل,,,,
ادناء الاسعار,shop,variety_store,24.7648387,46.6921849,,موسى اليحصبي,,,,
قصر الأواني,shop,houseware,24.7750537,46.6827076,,الدائري الشمالي,,,,
Unnamed,shop,car_repair,24.7594726,46.6743745,,الملك عبدالعزيز,,,,
Unnamed,shop,mall,24.731084,46.6488037,,,,,Mo-Su 06:00-22:00,
Unnamed,shop,convenience,24.7746477,46.6815541,,الدائري الشمالي,,,,
بنده,shop,supermarket,24.7706131,46.6889548,بنده,أبي بكر الصديق,,,,بنده
محل بيع غاز,shop,gas,24.7558756,46.6722741,,شارع اللاذقية,,,,
التوكيلات العالميه للسيارات (مبيعات/صيانه/قطع غيار),shop,car,24.7538,46.6758088,,,,,,
Montblanc - Solitaire mall,shop,mall,24.8006109,46.6513105,,,,,,
الدانوب,shop,supermarket,24.7698824,46.6648776,,,,,,
معرض مرسيدس بنز الجفالي,shop,car,24.768702,46.6624331,,الدائري الشمالي,,,,Mercedes-Benz
سنترو النرجس بلازا,shop,mall,24.858733,46.6467698,,,,,,
Sallaty Supermarket,shop,supermarket,24.5481633,46.707357,,,,,24/7,
Al Mehbara Bookstore,shop,stationery,24.5479888,46.7076596,,,,,Mo-Su 08:00-22:00,
تالا مول,shop,mall,24.7717988,46.6688771,,,,,,
Unnamed,shop,mall,24.8004784,46.6513135,,,,,,
Unnamed,shop,convenience,24.6123002,46.6739951,,,,,,
باوزير,shop,supermarket,24.6122945,46.6742505,,سماحة الشيخ عبدالعزيز بن باز,,,,
Lulu Express,shop,supermarket,24.6678948,46.6191965,,,,,07:00-23:00,
المخازن الاقتصادية,shop,general,24.5984137,46.6392278,,طريق المدينة المنورة,,,,
